{"version": 0.6, "generator": "Overpass API 0.7.62.8 e802775f", "osm3s": {"timestamp_osm_base": "2025-11-29T17:14:00Z", "copyright": "The data included in this document is from www.openstreetmap.org. The data is made available under ODbL."}, "elements": [{"type": "node", "id": 1825047241, "lat": 14.9628427, "lon": 77.5976779, "tags": {"amenity": "school", "name": "RVM school"}}, {"type": "node", "id": 4443482070, "lat": 14.6792523, "lon": 77.5979726, "tags": {"addr:city": "Andhra Pradesh", "addr:housenumber": "#6/3/138", "addr:postcode": "515001", "addr:street": "Ram Naga, Anantapur", "amenity": "school", "name": "St. Thomas High School", "phone": "9393725181"}}, {"type": "node", "id": 4443507107, "lat": 14.6682457, "lon": 77.5915293, "tags": {"addr:city": "Anantapur ,Andhra Pradesh", "addr:housenumber": "# 6-2-80", "addr:postcode": "515001", "addr:street": "Near Sri SAI Apartments, Ram Nager, Maruthi Nagar,Anantapur", "amenity": "school", "name": "Sri Vidyaranya English Medium High School", "phone": "08554 - 228003"}}, {"type": "node", "id": 4443526437, "lat": 14.6848567, "lon": 77.5922058, "tags": {"addr:city": "Anantapur, Andhra Pradesh", "addr:housenumber": "# 2/190", "addr:postcode": "515001", "addr:street": "Beside E-Seva Centre, 1st Road", "amenity": "school", "name": "Sri Gayathri English Medium School", "phone": "08554 - 2767"}}, {"type": "node", "id": 4443559376, "lat": 14.6865379, "lon": 77.5646464, "tags": {"addr:city": "Kalyandurg Road, Anantapur, Andhra Pradesh", "addr:postcode": "515001", "addr:street": "Near Intel Engineering College, Piligundla Colony", "amenity": "school", "name": "ST. Ann's English Medium", "phone": "08554 - 270044"}}, {"type": "node", "id": 4443588530, "lat": 14.8344597, "lon": 77.597179, "tags": {"addr:city": "Anantapur, Andhra Pradesh", "addr:postcode": "- 515001", "addr:street": "Garladinne Mandal,", "amenity": "school", "name": "Akshara International School", "phone": "08554 - 286923"}}, {"type": "node", "id": 4443599350, "lat": 14.6681495, "lon": 77.5995184, "tags": {"addr:city": "Anantapur, Andhra Pradesh", "addr:postcode": "515001", "addr:street": "Ashok Nagar", "amenity": "school", "name": "Bhashyam Public School", "phone": "08554 - 224689", "website": "https://www.bhashyamschools.com/"}}, {"type": "node", "id": 4443611599, "lat": 14.6678909, "lon": 77.6009249, "tags": {"addr:city": "Anantapur, Andhra Pradesh", "addr:postcode": "515001", "addr:street": "Near Hari Hara Temple, Ashok Nagar", "amenity": "school", "name": "Ravindra Bharathi School", "phone": "8096699627"}}, {"type": "node", "id": 4443619537, "lat": 14.6600586, "lon": 77.612581, "tags": {"addr:city": "Anantapur, Andhra Pradesh", "addr:postcode": "515001", "addr:street": "7tth Cross, Vincent Ferrow Nagar", "amenity": "school", "name": "S S S Mokshith Vidyaniketan", "phone": "9440286589"}}, {"type": "node", "id": 4443634685, "lat": 14.6798998, "lon": 77.5994559, "tags": {"addr:city": "Anantapur, Andhra Pradesh", "addr:postcode": "515001", "addr:street": "Kamala Nagar, Anantapur", "amenity": "school", "name": "Balaji School", "phone": "08554 - 221052"}}, {"type": "node", "id": 4444315915, "lat": 14.6747825, "lon": 77.6014066, "tags": {"addr:city": "Anantapur", "addr:postcode": "515001", "addr:street": "Sai Nagar, Anantapur", "amenity": "school", "name": "Rose Dale English Medium School", "phone": "08554 - 220324 , 9866112099"}}, {"type": "node", "id": 4444405584, "lat": 14.6713486, "lon": 77.6004344, "tags": {"addr:city": "Anantapur, Andhra Pradesh", "addr:postcode": "515001", "addr:street": "Near SV.degree College Campus, Jesus Nagar", "amenity": "school", "name": "Pace English Medium School", "phone": "08554 - 223655 , 9945699414"}}, {"type": "node", "id": 4445061571, "lat": 14.6826116, "lon": 77.6064225, "tags": {"addr:city": "Anantapur, Andhra Pradesh", "addr:postcode": "515001", "addr:street": "Kalyan Durg Road", "amenity": "school", "name": "NavaBharath Tm School", "phone": "08554 - 270872 , 9849222492"}}, {"type": "node", "id": 4445073755, "lat": 14.6706101, "lon": 77.6034528, "tags": {"addr:city": "Anantapur, Andhra Pradesh", "addr:postcode": "515001", "addr:street": "Ashok Nagar", "amenity": "school", "name": "Minerva Convent School", "phone": "08554 - 222686"}}, {"type": "node", "id": 4445082636, "lat": 14.6778028, "lon": 77.5862682, "tags": {"addr:city": "Anantapur, Andhra Pradesh", "addr:postcode": "515001", "addr:street": "Kovvur Nagar", "amenity": "school", "name": "Maharshi School", "phone": "08554 - 278830, 08554 - 232830"}}, {"type": "node", "id": 4445087531, "lat": 14.6773621, "lon": 77.5981595, "tags": {"addr:city": "Anantapur, Andhra Pradesh", "addr:postcode": "515001", "addr:street": "Adimurthy Naga", "amenity": "school", "name": "Little Flower Montessori High School", "phone": "08554 - 236341, 235235"}}, {"type": "node", "id": 4445202894, "lat": 14.6674928, "lon": 77.6013778, "tags": {"addr:city": "Anantapur, Andhra pradesh", "addr:postcode": "515001", "addr:street": "Ashok Nagar", "amenity": "school", "name": "Ramakrishna Vidyalayam E.M .&T.M.H.S", "phone": "8554-225989, (91)-9966149851"}}, {"type": "node", "id": 4445216520, "lat": 14.6828076, "lon": 77.6036807, "tags": {"addr:city": "Anantapur, Andhra Pradesh", "addr:postcode": "515005", "addr:street": "Old Town", "amenity": "school", "name": "Oxford English Medium High School", "phone": "9440045822, 9247588711, 9290212233"}}, {"type": "node", "id": 4445243786, "lat": 14.6162739, "lon": 77.6422044, "tags": {"addr:city": "Anantapur , Andhra Predesh", "addr:postcode": "515001", "addr:street": "Sku Campus , S.V.Puram", "amenity": "school", "name": "Kendriya Vidyalaya", "phone": "8554-255288"}}, {"type": "node", "id": 4445259105, "lat": 14.6886554, "lon": 77.6078107, "tags": {"addr:city": "Anantapur, Andhra Pradesh", "addr:postcode": "515005", "addr:street": "Gooty Rd, Rani Nagar", "amenity": "school", "name": "Montessori Smart School", "phone": "094911 32788"}}, {"type": "node", "id": 4445266208, "lat": 14.6713709, "lon": 77.607658, "tags": {"addr:city": "Anantapur , Andhra Pradesh", "addr:postcode": "515001", "addr:street": "Sai Nagar, Sangameswara Nagar", "amenity": "school", "name": "Montessori Em School", "phone": "8554-222094, 240853, 240863"}}, {"type": "node", "id": 4445276526, "lat": 14.6625586, "lon": 77.5887351, "tags": {"addr:city": "Anantapur", "addr:postcode": "515001", "addr:street": "Maruthi Nagar Extension", "amenity": "school", "name": "Keshava Reddy Concept School", "phone": "096527 05999"}}, {"type": "node", "id": 4445287358, "lat": 14.7116348, "lon": 77.5361415, "tags": {"addr:city": "Anantapur", "addr:postcode": "515001", "addr:street": "Bellary Road, Near Crit Campus, Rachanapalli", "amenity": "school", "name": "Era International School", "phone": "7032414385, 7095399992, 7095399994", "website": "http://erainternationalschool.com/"}}, {"type": "node", "id": 4445343205, "lat": 14.62523, "lon": 77.6273583, "tags": {"addr:city": "Anantapur, Andhra Pradesh", "addr:postcode": "515001", "addr:street": "SK University Road", "amenity": "school", "name": "A V S Em School", "phone": "08554 - 255453"}}, {"type": "node", "id": 4445649399, "lat": 14.680742, "lon": 77.6030869, "tags": {"addr:city": "Anantapur, Andhra Pradesh", "addr:postcode": "515001", "addr:street": "Kamala Nagar", "amenity": "school", "name": "Rotary English Medium School", "phone": "08554 - 221052 , 9440248131"}}, {"type": "node", "id": 4445702248, "lat": 14.6893409, "lon": 77.592849, "tags": {"addr:city": "Anantapur, Andhra Pradesh", "addr:postcode": "51500", "addr:street": "3rd Road, Rangaswamy Nagar3rd Road, Rangaswamy", "amenity": "school", "name": "Surya E.M High School", "phone": "070751 57756"}}, {"type": "node", "id": 4445744005, "lat": 14.6861621, "lon": 77.5936015, "tags": {"addr:city": "Anantapur, Andhra Pradesh", "addr:postcode": "515004", "addr:street": "Rd Number 2, Rangaswamy", "amenity": "school", "name": "Sri Sarada Girls High School"}}, {"type": "node", "id": 4445938119, "lat": 14.6833709, "lon": 77.5851109, "tags": {"addr:city": "Anantapur, Andhra Pradesh", "addr:postcode": "515004", "addr:street": "Azad Nagar, Hydervali Colony, Kovur Nagar,", "amenity": "school", "name": "VIJAYA PUBLIC SCHOOL", "phone": "094402 85295"}}, {"type": "node", "id": 4446246001, "lat": 14.6982936, "lon": 77.5582907, "tags": {"addr:city": "Anantapur, Andhra Pradesh", "addr:postcode": "515004", "addr:street": "GNR Vanam, Rachanapalli", "amenity": "school", "name": "Roots Public school", "phone": "094949 31476"}}, {"type": "node", "id": 4446270805, "lat": 14.6397514, "lon": 77.6081752, "tags": {"addr:city": "Anantapur, Andhra Pradesh", "addr:postcode": "515002", "addr:street": "Chinmaya Nagar, Prasannaya Palli,", "amenity": "school", "name": "LRG High School"}}, {"type": "node", "id": 4446281690, "lat": 14.669435, "lon": 77.5858732, "tags": {"addr:city": "Anantapur, Andhra Pradesh", "addr:postcode": "515001", "addr:street": "Ram Nagar", "amenity": "school", "name": "Crescent High School", "phone": "08554 - 222181, 278232"}}, {"type": "node", "id": 4446299302, "lat": 14.6849305, "lon": 77.5911054, "tags": {"addr:city": "Anantapur, Andhra Pradesh", "addr:postcode": "515004", "addr:street": "First Road", "amenity": "school", "name": "Prasad Concept School"}}, {"type": "node", "id": 4446951349, "lat": 14.6707109, "lon": 77.5906354, "tags": {"addr:city": "Anantapur, Andhra Pradesh", "addr:housenumber": "13/3/389", "addr:postcode": "515001", "addr:street": "Opp RTC Bustand, Gayathri Complex, Revenue Colony, Sathya Deva Nagar, Kovur Nagar", "amenity": "school", "name": "Narayana Concept School", "phone": "099480 40488", "website": "https://narayanaschools.in/"}}, {"type": "node", "id": 4447010925, "lat": 14.6754787, "lon": 77.6048441, "tags": {"addr:city": "Anantapur", "addr:postcode": "515001", "addr:street": "1st Cross Rd, Sai Nagar", "amenity": "school", "name": "RAMAN E.M HIGH SCHOOL"}}, {"type": "node", "id": 4447017654, "lat": 14.6945042, "lon": 77.5835983, "tags": {"addr:city": "Anantapur, Andhra Pradesh", "addr:housenumber": "3-384", "addr:postcode": "515004", "addr:street": "Bangalore - Hyderabad Hwy ,Prashanti Nagar, syndicate nagar", "amenity": "school", "name": "JAWAHAR BARATHI HIGH SCHOOL (T.M)"}}, {"type": "node", "id": 4447019959, "lat": 14.678105, "lon": 77.5862629, "tags": {"addr:city": "Anantapur, Andhra Pradesh", "addr:postcode": "515001", "addr:street": "Kovur Nagar", "amenity": "school", "name": "C.V.R.MEMORIAL (EM) HIGH SCHOOL"}}, {"type": "node", "id": 4447029135, "lat": 14.6853307, "lon": 77.6062225, "tags": {"addr:city": "Anantapur, Andhra Pradesh", "addr:postcode": "515005", "addr:street": "Old Town", "amenity": "school", "name": "Sri Vidya Nikethan School"}}, {"type": "node", "id": 4447038270, "lat": 14.7033405, "lon": 77.6085042, "tags": {"addr:city": "ANANTHAPUR (DIST)", "addr:housenumber": "PB NO 34", "addr:postcode": "515001", "addr:street": "GOOTY ROAD", "amenity": "school", "name": "LALBAHADUR E.M.AIDED HIG"}}, {"type": "node", "id": 4447044705, "lat": 14.6633524, "lon": 77.5895529, "tags": {"addr:city": "Anantapur, Andhra Pradesh", "addr:postcode": "515001", "addr:street": "Maruthi Nagar", "amenity": "school", "name": "Good Children Em School", "phone": "08554 - 232146, 222583 , 9440285583"}}, {"type": "node", "id": 4447068143, "lat": 14.6828975, "lon": 77.6067625, "tags": {"addr:city": "ANANTHAPUR (DIST)", "addr:housenumber": "17TH WARD", "addr:postcode": "515001", "addr:street": "NEERUGANTI ST, OLD TOWN", "amenity": "school", "name": "LAKSHMI E.M.HIGH SCHOOL"}}, {"type": "node", "id": 4447075987, "lat": 14.6820735, "lon": 77.5563668, "tags": {"addr:city": "ANANTAPUR (DIST)", "addr:postcode": "515001", "addr:street": "PILLIGUNDLA COLONY,, KALYANDURG ROAD", "amenity": "school", "name": "SREE BHARATHI E/M HIGH SCHOOL"}}, {"type": "node", "id": 4447080747, "lat": 14.9459958, "lon": 77.5864715, "tags": {"addr:city": "Anantapur, Andhra Pradesh", "addr:postcode": "515775", "addr:street": "Pamidi", "amenity": "school", "name": "S.F.S ENGLISH MEDIUM HIGH SCHOOL"}}, {"type": "node", "id": 4447092138, "lat": 14.6676346, "lon": 77.5856817, "tags": {"addr:city": "Anantapur, Andhra Pradesh", "addr:housenumber": "Door No. 8-74A", "addr:postcode": "515001", "addr:street": "Beside Head Post Office, Near Flyover,Court Road, Adimurthy Nagar, Gulzarpet", "amenity": "school", "name": "Sri Chaitanya School", "phone": "081252 28422", "website": "https://srichaitanyaschool.net/"}}, {"type": "node", "id": 4447098911, "lat": 14.6688161, "lon": 77.5941559, "tags": {"addr:city": "Anantapur, Andhra Pradesh", "addr:postcode": "515001", "addr:street": "Aravinda Nagar, Sharada Nagar", "amenity": "school", "name": "Ashajyothi E.M School", "phone": "083412 03355"}}, {"type": "node", "id": 4447119332, "lat": 14.6714436, "lon": 77.5906324, "tags": {"addr:city": "Anantapur, Andhra Pradesh", "addr:housenumber": "Plot No. 30-31", "addr:postcode": "515001", "addr:street": "Near Neelima Theatre, Dwaraka Nagar, 1st Road Extension, Indira Gandhi Nagar", "amenity": "school", "name": "Narayana E - Techno School"}}, {"type": "node", "id": 4447486480, "lat": 14.6526486, "lon": 77.5843921, "tags": {"addr:city": "Anantapur", "addr:postcode": "515004,", "addr:street": "80 Feet Road, Ramnagar", "amenity": "school", "name": "Ark Public School", "phone": "(91)-8554-200222 , (91)-9959729721, 9959729994", "website": "www.arkpublicschool.com"}}, {"type": "node", "id": 4447501547, "lat": 14.603065, "lon": 77.6431419, "tags": {"addr:city": "Anantapur", "addr:postcode": "515001", "addr:street": "Sku Campus S.V.Puram", "amenity": "school", "name": "Kendriya Vidyalaya", "phone": "8554-255288"}}, {"type": "node", "id": 4447556278, "lat": 14.6838724, "lon": 77.5780478, "tags": {"addr:city": "anantapur", "addr:postcode": "515001", "addr:street": "papam peta , raja hotel", "amenity": "school", "name": "sree saraswathi vidhyanikethan"}}, {"type": "node", "id": 4447581332, "lat": 14.6852712, "lon": 77.6043771, "tags": {"addr:city": "Anantapur, Andhra Pradesh", "addr:postcode": "515005", "addr:street": "Gooty Rd, Old Town", "amenity": "school", "name": "Rainbow Pre School", "phone": "085542 34123"}}, {"type": "node", "id": 11734294517, "lat": 14.7948014, "lon": 77.2447409}, {"type": "node", "id": 11734294518, "lat": 14.7945072, "lon": 77.2456302}, {"type": "node", "id": 11734294519, "lat": 14.7941798, "lon": 77.2457802}, {"type": "node", "id": 11734294520, "lat": 14.7946336, "lon": 77.2446101}, {"type": "node", "id": 12559395927, "lat": 14.6807043, "lon": 77.5461012}, {"type": "node", "id": 12559395928, "lat": 14.6808133, "lon": 77.5452027}, {"type": "node", "id": 12559395929, "lat": 14.6807017, "lon": 77.5451705}, {"type": "node", "id": 12559395930, "lat": 14.6807484, "lon": 77.545023}, {"type": "node", "id": 12559395931, "lat": 14.6808029, "lon": 77.5437704}, {"type": "node", "id": 12559395932, "lat": 14.6821132, "lon": 77.5436819}, {"type": "node", "id": 12559395933, "lat": 14.6822481, "lon": 77.5460932}, {"type": "way", "id": 1262946366, "nodes": [11734294517, 11734294518, 11734294519, 11734294520, 11734294517], "tags": {"amenity": "school", "name": "zph school kowkuntla"}}, {"type": "way", "id": 1356974078, "nodes": [12559395933, 12559395932, 12559395931, 12559395930, 12559395929, 12559395928, 12559395927, 12559395933], "tags": {"amenity": "school"}}]}