{"version": 0.6, "generator": "Overpass API 0.7.62.8 e802775f", "osm3s": {"timestamp_osm_base": "2025-11-29T16:39:01Z", "copyright": "The data included in this document is from www.openstreetmap.org. The data is made available under ODbL."}, "elements": [{"type": "node", "id": 5327142919, "lat": 25.5914871, "lon": 68.4439648, "tags": {"addr:city": "c", "addr:street": "National Highway", "name": "A Aziz General Store", "shop": "yes"}}, {"type": "node", "id": 5327143129, "lat": 25.5962335, "lon": 68.4444403, "tags": {"addr:city": "Matiari", "addr:street": "National Highway", "name": "Kashif Medical Store Matiari", "shop": "yes"}}, {"type": "node", "id": 5327143137, "lat": 25.5983625, "lon": 68.4436931, "tags": {"addr:city": "Matiari", "addr:street": "National Highway", "name": "Sheeraz Autos", "shop": "car_parts"}}, {"type": "node", "id": 5333434013, "lat": 25.5913924, "lon": 68.439596, "tags": {"addr:city": "Mitiari", "addr:street": "National Highway", "name": "New Alfaisal Ice Cream", "shop": "yes"}}, {"type": "node", "id": 8301759317, "lat": 25.538246, "lon": 68.4351689, "tags": {"name": "Al-Nasir Super Store", "shop": "convenience"}}]}