{"version": 0.6, "generator": "Overpass API 0.7.62.8 e802775f", "osm3s": {"timestamp_osm_base": "2025-11-29T17:19:02Z", "copyright": "The data included in this document is from www.openstreetmap.org. The data is made available under ODbL."}, "elements": [{"type": "node", "id": 3623066307, "lat": 22.4760026, "lon": 70.0652543}, {"type": "node", "id": 3623066308, "lat": 22.4757396, "lon": 70.0653458}, {"type": "node", "id": 3623066309, "lat": 22.4756344, "lon": 70.0648538}, {"type": "node", "id": 3623066310, "lat": 22.4758035, "lon": 70.0648132}, {"type": "node", "id": 3623066311, "lat": 22.4758336, "lon": 70.0649372}, {"type": "node", "id": 3623066312, "lat": 22.4759275, "lon": 70.0649047}, {"type": "node", "id": 3623258437, "lat": 22.480692, "lon": 70.0609995, "tags": {"addr:city": "jamnagar", "addr:street": "Bedi Road", "name": "Black Berry Clothing", "opening_hours": "10:00-21:00", "shop": "clothes"}}, {"type": "node", "id": 3623290602, "lat": 22.4793568, "lon": 70.0624567}, {"type": "node", "id": 3623290603, "lat": 22.4794037, "lon": 70.0625177}, {"type": "node", "id": 3623290604, "lat": 22.4793098, "lon": 70.0626275}, {"type": "node", "id": 3623290605, "lat": 22.4792102, "lon": 70.0625502}, {"type": "node", "id": 3623290606, "lat": 22.4793229, "lon": 70.0624019}, {"type": "node", "id": 3623344502, "lat": 22.4749476, "lon": 70.0673608, "tags": {"addr:city": "Jamnagar", "addr:street": "Near Amber cinema", "name": "Prince Tailor", "shop": "tailor"}}, {"type": "node", "id": 3931988381, "lat": 22.4666473, "lon": 70.0599118, "tags": {"addr:city": "Jamnagar", "addr:housenumber": "1", "addr:postcode": "361005", "addr:street": "Summair Club Road", "name": "Hodexo.com", "opening_hours": "24/7", "phone": "+919712111118", "shop": "supermarket"}}, {"type": "node", "id": 4267969813, "lat": 22.4715078, "lon": 70.0490357, "tags": {"addr:city": "Jamnagar", "name": "Crystal mall", "shop": "mall"}}, {"type": "node", "id": 4271207143, "lat": 22.4794477, "lon": 70.1184034, "tags": {"addr:city": "Jamnagar", "name": "Atul motors", "opening_hours": "09:00-20:00", "shop": "car"}}, {"type": "node", "id": 4314218233, "lat": 22.4788618, "lon": 70.0577377, "tags": {"name": "Royal saloon", "shop": "hairdresser"}}, {"type": "node", "id": 4314318332, "lat": 22.4831072, "lon": 70.0582453, "tags": {"name": "Levi's store", "shop": "clothes"}}, {"type": "node", "id": 4564961689, "lat": 22.4785811, "lon": 70.0513851, "tags": {"addr:housenumber": "1", "addr:postcode": "361008", "addr:street": "Saru Section Road", "name": "Melena hair saloon", "name:en": "Melena hair saloon", "name:hi": "Melena hair saloon", "opening_hours": "Mo-Su 10:00-22:00", "shop": "hairdresser"}}, {"type": "node", "id": 4711043356, "lat": 22.4691329, "lon": 70.072394}, {"type": "node", "id": 4711043357, "lat": 22.4692538, "lon": 70.072373}, {"type": "node", "id": 4711043358, "lat": 22.469284, "lon": 70.0723497}, {"type": "node", "id": 4711043359, "lat": 22.4695472, "lon": 70.0723123}, {"type": "node", "id": 4711043360, "lat": 22.4695213, "lon": 70.0721862}, {"type": "node", "id": 4711043361, "lat": 22.4695817, "lon": 70.0721722}, {"type": "node", "id": 4711043362, "lat": 22.4696227, "lon": 70.0724034}, {"type": "node", "id": 4711043363, "lat": 22.4696573, "lon": 70.0723987}, {"type": "node", "id": 4711043364, "lat": 22.4696788, "lon": 70.0724874}, {"type": "node", "id": 4711043365, "lat": 22.4696378, "lon": 70.0724944}, {"type": "node", "id": 4711043366, "lat": 22.4696616, "lon": 70.0726369}, {"type": "node", "id": 4711043367, "lat": 22.4697349, "lon": 70.0726205}, {"type": "node", "id": 4711043368, "lat": 22.4697544, "lon": 70.0728237}, {"type": "node", "id": 4711043369, "lat": 22.4696788, "lon": 70.072833}, {"type": "node", "id": 4711043370, "lat": 22.469763, "lon": 70.0732416}, {"type": "node", "id": 4711043371, "lat": 22.4697134, "lon": 70.0733304}, {"type": "node", "id": 4711043372, "lat": 22.4696292, "lon": 70.0733747}, {"type": "node", "id": 4711043373, "lat": 22.4695105, "lon": 70.0733607}, {"type": "node", "id": 4711043374, "lat": 22.4693681, "lon": 70.0733187}, {"type": "node", "id": 4711043375, "lat": 22.4692581, "lon": 70.0732813}, {"type": "node", "id": 4711043376, "lat": 22.4692192, "lon": 70.0731342}, {"type": "node", "id": 4711043377, "lat": 22.4691674, "lon": 70.0727022}, {"type": "node", "id": 4711049094, "lat": 22.4711752, "lon": 70.0714075}, {"type": "node", "id": 4711049095, "lat": 22.4712265, "lon": 70.0714406}, {"type": "node", "id": 4711049096, "lat": 22.4712179, "lon": 70.071456}, {"type": "node", "id": 4711049097, "lat": 22.4712258, "lon": 70.0714606}, {"type": "node", "id": 4711049098, "lat": 22.4711574, "lon": 70.0715808}, {"type": "node", "id": 4711049099, "lat": 22.4711247, "lon": 70.0716355}, {"type": "node", "id": 4711049100, "lat": 22.4711083, "lon": 70.0716355}, {"type": "node", "id": 4711049101, "lat": 22.4710706, "lon": 70.0716239}, {"type": "node", "id": 4711049102, "lat": 22.4710571, "lon": 70.0716124}, {"type": "node", "id": 4711049103, "lat": 22.4711154, "lon": 70.0714991}, {"type": "node", "id": 6687013090, "lat": 22.4738442, "lon": 70.068173, "tags": {"addr:city": "Jamnagar", "addr:housenumber": "G1", "addr:postcode": "361008", "addr:street": "Cross Way Complex, Below Navanagar Bank, P N Marg", "currency:INR": "yes", "name": "City Sports & Stationers", "operator": "Manish Mehta", "payment:cash": "yes", "payment:coins": "yes", "payment:electronic_purses": "yes", "payment:notes": "yes", "phone": "+919099296660", "shop": "sports", "sport": "badminton;cricket;football;swimming;soccer;table_tennis;fitness;basketball;tennis;volleyball;chess;exercise;yoga;skateboard;gymnastics", "website": "https://citysportsjamnagar.business.site/"}}, {"type": "node", "id": 9919660420, "lat": 22.4683195, "lon": 70.0753541, "tags": {"name": "Vidya Bhavan", "shop": "books"}}, {"type": "node", "id": 10996521605, "lat": 22.4744322, "lon": 70.0516305, "tags": {"name": "Ather Space -", "name:en": "Ather Space - Electric Scooter Experience Center", "shop": "motorcycle"}}, {"type": "node", "id": 11001420744, "lat": 22.3985205, "lon": 70.0477703, "tags": {"addr:city": "Jamnagar", "addr:housenumber": "86", "addr:postcode": "361004", "addr:street": "Shrinathji Industrial Park, Lalpur Road,  GIDC Road Phase-II", "contact:facebook": "sokudosaurashtra", "contact:instagram": "sokudosaurashtra", "contact:twitter": "sokudosaurasht", "email": "contact@sokudosaurashtra.com", "name": "Sokudo Electric India - Saurashtra Distributor - XCAP", "opening_hours": "Mo-Su 09:00-18:00", "phone": "+917433098978", "shop": "motorcycle", "website": "https://sokudosaurashtra.com/"}}, {"type": "node", "id": 11015951805, "lat": 22.4250549, "lon": 70.0658861, "tags": {"addr:city": "Jamnagar", "addr:postcode": "361005", "addr:street": "Shop No.2-4, Simandhar Space, Nr. Hyper Mart, Ranjit Sagar Road", "contact:facebook": "sokudosaurashtra", "contact:instagram": "sokudosaurashtra", "contact:twitter": "sokudosaurasht", "email": "contact@sokudosaurashtra.com", "name": "Sokudo Electric India - Experience Center - XCAP Motors", "phone": "+917433098978", "shop": "motorcycle", "website": "https://sokudosaurashtra.com/"}}, {"type": "node", "id": 12057029601, "lat": 22.4609233, "lon": 70.0418511, "tags": {"addr:district": "Jamnagar", "addr:housenumber": "A D Tower Shop No. 5, Opp. HipHop Menswear", "addr:street": "Airforce Road", "name": "Mudra Optic, Jamnagar", "shop": "optician"}}, {"type": "node", "id": 12102005105, "lat": 22.4813289, "lon": 70.0502398, "tags": {"name": "Jamnagar BMC, Maahi Milk Producer Company Limited", "shop": "dairy"}}, {"type": "node", "id": 12765892193, "lat": 22.3712565, "lon": 69.8358009}, {"type": "node", "id": 12765892194, "lat": 22.3710213, "lon": 69.835799}, {"type": "node", "id": 12765892195, "lat": 22.3710138, "lon": 69.8368627}, {"type": "node", "id": 12765892196, "lat": 22.3712488, "lon": 69.8368647}, {"type": "node", "id": 12866613423, "lat": 22.4694241, "lon": 70.0731157}, {"type": "node", "id": 12866613424, "lat": 22.4693405, "lon": 70.0731121}, {"type": "node", "id": 12866613425, "lat": 22.4693421, "lon": 70.0731387}, {"type": "node", "id": 12866613426, "lat": 22.4694044, "lon": 70.0731493}, {"type": "node", "id": 12866613427, "lat": 22.4694257, "lon": 70.073144}, {"type": "node", "id": 13275038101, "lat": 22.4655154, "lon": 70.0584195, "tags": {"addr:postcode": "361005", "addr:street": "Patel Samaj Road", "name": "Jain Vijay Farsan & Sweet Shop", "shop": "confectionery"}}, {"type": "way", "id": 356909212, "nodes": [3623066307, 3623066308, 3623066309, 3623066310, 3623066311, 3623066312, 3623066307], "tags": {"addr:city": "Jamnagar", "addr:street": "G.G Hospital Road", "building": "yes", "name": "Relince Mall", "opening_hours": "09:30-22:00", "operator": "Relince", "shop": "mall"}}, {"type": "way", "id": 356928909, "nodes": [3623290602, 3623290603, 3623290604, 3623290605, 3623290606, 3623290602], "tags": {"addr:city": "jamnagar", "addr:street": "Bedi Road", "building": "yes", "name": "Thakers cloathing", "shop": "clothes"}}, {"type": "way", "id": 477801847, "nodes": [4711043356, 4711043357, 4711043358, 4711043359, 4711043360, 4711043361, 4711043362, 4711043363, 4711043364, 4711043365, 4711043366, 4711043367, 4711043368, 4711043369, 4711043370, 4711043371, 4711043372, 4711043373, 4711043374, 4711043375, 4711043376, 4711043377, 4711043356], "tags": {"addr:city": "Jamnagar", "addr:street": "Super market road", "building": "yes", "name": "Super market", "shop": "supermarket"}}, {"type": "way", "id": 477802121, "nodes": [4711049094, 4711049095, 4711049096, 4711049097, 4711049098, 4711049099, 4711049100, 4711049101, 4711049102, 4711049103, 4711049094], "tags": {"addr:city": "Jamnagar", "addr:street": "Teenbatti road", "building": "yes", "name": "morden bakery", "shop": "bakery"}}, {"type": "way", "id": 1370786371, "nodes": [12765892193, 12765892194, 12765892195, 12765892196, 12765892193], "tags": {"brand": "Reliance Fresh", "brand:wikidata": "Q7311014", "building": "yes", "layer": "1", "loc_name": "Reliance Mart", "name": "Reliance Fresh", "shop": "supermarket"}}, {"type": "way", "id": 1390057034, "nodes": [12866613423, 12866613424, 12866613425, 12866613426, 12866613427, 12866613423], "tags": {"addr:city": "Jamnagar", "addr:district": "Jamnagar Gujarat", "addr:housenumber": "Hariom Dresses", "addr:postcode": "361001", "addr:street": "Super market Bedi Gate Road", "building": "yes", "clothes": "women;fashion", "name": "Hariom Dresses", "shop": "clothes"}}]}