{"version": 0.6, "generator": "Overpass API 0.7.62.8 e802775f", "osm3s": {"timestamp_osm_base": "2025-11-29T17:16:58Z", "copyright": "The data included in this document is from www.openstreetmap.org. The data is made available under ODbL."}, "elements": [{"type": "node", "id": 12595698567, "lat": 14.4889172, "lon": 76.4073044, "tags": {"addr:city": "Donnehalli", "addr:district": "Davanagere", "addr:postcode": "577528", "addr:street": "Donnehalli, 577528, Davangere, Karnataka, India", "amenity": "school", "name": "Sharana Shri Private School"}}, {"type": "node", "id": 12595914026, "lat": 14.4888856, "lon": 76.405505, "tags": {"addr:city": "Donnehalli", "addr:district": "Davanagere", "addr:postcode": "577528", "addr:street": "Donnehalli, jagalur road - 577528", "amenity": "school", "grades": "1-7", "name": "Governament Primary School"}}, {"type": "node", "id": 12596007495, "lat": 14.4920008, "lon": 76.4003504, "tags": {"addr:city": "Donnehalli", "addr:district": "Davanagere", "addr:postcode": "577528", "addr:street": "Donnehalli, jagalur road - 577528", "amenity": "school", "name": "Governament High school Donnehalli", "religion": "hindu"}}, {"type": "node", "id": 12596025330, "lat": 14.4757317, "lon": 76.378861, "tags": {"addr:city": "Honnamaradi", "addr:postcode": "577528", "addr:street": "Donnehalli, jagalur road - 577528", "amenity": "school", "name": "Governament Primary school, honnamaradi", "religion": "hindu"}}, {"type": "node", "id": 12596164821, "lat": 14.5187238, "lon": 76.3355368, "tags": {"amenity": "school", "name": "GJS JAGALUR"}}]}