{"version": 0.6, "generator": "Overpass API 0.7.62.8 e802775f", "osm3s": {"timestamp_osm_base": "2025-11-29T17:14:00Z", "copyright": "The data included in this document is from www.openstreetmap.org. The data is made available under ODbL."}, "elements": [{"type": "node", "id": 2482233308, "lat": 16.7473928, "lon": 77.1321428, "tags": {"name": "Ravi Book Shop", "name:kn": "\u0cb0\u0cb5\u0cbf \u0cac\u0cc1\u0c95\u0ccd \u0cb6\u0cbe\u0caa\u0ccd", "opening_hours": "Mo-Fr 08:30-20:00", "shop": "books"}}, {"type": "node", "id": 2482233311, "lat": 16.7521901, "lon": 77.1359654, "tags": {"name": "Sri Balaji Supermarket", "name:kn": "\u0cb6\u0ccd\u0cb0\u0cc0\u0cac\u0cbe\u0cb2\u0cbe\u0c9c\u0cbf \u0cae\u0cbe\u0cb0\u0ccd\u0c95\u0cc6\u0c9f\u0ccd", "opening_hours": "Tu-Su 08:00-15:00;Sa 08:00-12:00", "shop": "supermarket"}}, {"type": "node", "id": 2634802285, "lat": 16.64268, "lon": 77.082612, "tags": {"is_in": "Ullesugur", "name": "Kerosene Store", "shop": "department_store"}}, {"type": "node", "id": 2635030520, "lat": 16.5890374, "lon": 76.814587, "tags": {"is_in": "Shardahalli", "name": "Ration Store (45)", "shop": "department_store"}}, {"type": "node", "id": 2635030521, "lat": 16.602711, "lon": 76.881608, "tags": {"is_in": "Hattigudur", "name": "Ration Store (46)", "shop": "department_store"}}, {"type": "node", "id": 2635030522, "lat": 16.631423, "lon": 76.854693, "tags": {"is_in": "Rasthapur", "name": "Ration Store (47)", "shop": "department_store"}}, {"type": "node", "id": 2635030523, "lat": 16.60129, "lon": 76.881385, "tags": {"is_in": "Hattigudur", "name": "Ration Store (85)", "shop": "department_store"}}, {"type": "node", "id": 2933888235, "lat": 16.7012045, "lon": 76.8439404, "tags": {"addr:street": "Basaveshwar Chowk", "name": "Agrimart", "shop": "garden_centre"}}, {"type": "node", "id": 2933888238, "lat": 16.6931853, "lon": 76.8463639, "tags": {"brand": "Ashok Leyland", "name": "Ashok Leyland Show Room", "shop": "car"}}, {"type": "node", "id": 2933888241, "lat": 16.6964784, "lon": 76.8447284, "tags": {"name": "Bajaj Show Room", "shop": "bicycle"}}, {"type": "node", "id": 2933888242, "lat": 16.6849633, "lon": 76.8494206, "tags": {"name": "Basava Wheel Alignment", "operator": "Private", "shop": "tyres"}}, {"type": "node", "id": 2933888255, "lat": 16.7015814, "lon": 76.8436547, "tags": {"name": "Hiremath Automobiles", "shop": "hardware"}}, {"type": "node", "id": 2933888256, "lat": 16.695841, "lon": 76.844687, "tags": {"name": "Honda Show Room", "shop": "bicycle"}}, {"type": "node", "id": 2933888262, "lat": 16.6870182, "lon": 76.8481905, "tags": {"brand": "John Deer", "name": "John Deer Tractor Show room", "shop": "car"}}, {"type": "node", "id": 2933888264, "lat": 16.6903639, "lon": 76.8473626, "tags": {"name": "Kattige Hadda", "shop": "furniture"}}, {"type": "node", "id": 2933888265, "lat": 16.6951036, "lon": 76.8447436, "tags": {"name": "Keonics Computer Centre", "shop": "computer"}}, {"type": "node", "id": 2933888267, "lat": 16.696837, "lon": 76.844559, "tags": {"name": "MSIL Liquor shop", "shop": "alcohol"}}, {"type": "node", "id": 2933888268, "lat": 16.701229, "lon": 76.843983, "tags": {"name": "Mahalaxmi Co-Operative Society", "shop": "department_store"}}, {"type": "node", "id": 2933888271, "lat": 16.6987417, "lon": 76.8443478, "tags": {"name": "Mahindra Tractor Show Room", "shop": "car"}}, {"type": "node", "id": 2933888287, "lat": 16.699574, "lon": 76.843976, "tags": {"name": "Sahara Hero Show room", "shop": "bicycle"}}, {"type": "node", "id": 2933888296, "lat": 16.683289, "lon": 76.851048, "tags": {"name": "Sriram Engg Works", "shop": "hardware"}}, {"type": "node", "id": 2933888300, "lat": 16.6969063, "lon": 76.8446441, "tags": {"brand": "Tafe", "name": "Tafe Tractor Show Room", "shop": "car"}}, {"type": "node", "id": 2933889102, "lat": 16.686451, "lon": 76.8488516, "tags": {"brand": "Tata", "name": "Tata Motors", "name:kn": "\u0c9f\u0cbe\u0c9f\u0cbe \u0cae\u0ccb\u0c9f\u0cca\u0cb0\u0ccd\u0cb8\u0ccd", "operator": "Private", "shop": "car"}}, {"type": "node", "id": 2933889109, "lat": 16.6957263, "lon": 76.8444898, "tags": {"name": "Yamaha Show Room", "shop": "bicycle"}}, {"type": "node", "id": 2933889178, "lat": 16.7016534, "lon": 76.8431491, "tags": {"name": "2 Co-operative Soceity", "shop": "department_store"}}, {"type": "node", "id": 2935090224, "lat": 16.5612915, "lon": 76.8679845, "tags": {"name": "Public Distribution Shop", "name:kn": "\u0ca8\u0ccd\u0caf\u0cbe\u0caf \u0cac\u0cc6\u0cb2\u0cc6 \u0c85\u0c82\u0c97\u0ca1\u0cbf", "operator": "Government", "shop": "convenience"}}, {"type": "node", "id": 2962256269, "lat": 16.5692272, "lon": 77.0593887, "tags": {"shop": "yes"}}, {"type": "node", "id": 3372777368, "lat": 16.5524006, "lon": 76.9299347, "tags": {"is_in": "Madarakal", "name": "Public Distribution Shop", "name:kn": "\u0ca8\u0ccd\u0caf\u0cbe\u0caf \u0cac\u0cc6\u0cb2\u0cc6 \u0c85\u0c82\u0c97\u0ca1\u0cbf", "operator": "Government", "shop": "convenience"}}, {"type": "node", "id": 3372824428, "lat": 16.5369556, "lon": 76.956102, "tags": {"addr:place": "Yakchinti", "name": "Public Distribution Shop", "name:kn": "\u0ca8\u0ccd\u0caf\u0cbe\u0caf \u0cac\u0cc6\u0cb2\u0cc6 \u0c85\u0c82\u0c97\u0ca1\u0cbf", "operator": "Government", "shop": "convenience"}}, {"type": "node", "id": 3372909640, "lat": 16.5039989, "lon": 76.9121142, "tags": {"addr:place": "Kollur", "name": "Public Distribution Shop", "name:kn": "\u0ca8\u0ccd\u0caf\u0cbe\u0caf \u0cac\u0cc6\u0cb2\u0cc6 \u0c85\u0c82\u0c97\u0ca1\u0cbf", "operator": "Government", "shop": "convenience"}}, {"type": "node", "id": 3376096078, "lat": 16.564605, "lon": 76.958194, "tags": {"name": "Public Distribution Shop", "name:kn": "\u0ca8\u0ccd\u0caf\u0cbe\u0caf \u0cac\u0cc6\u0cb2\u0cc6 \u0c85\u0c82\u0c97\u0ca1\u0cbf", "shop": "convenience"}}, {"type": "node", "id": 3376096079, "lat": 16.563401, "lon": 76.959349, "tags": {"name": "Public Distribution Shop", "name:kn": "\u0ca8\u0ccd\u0caf\u0cbe\u0caf \u0cac\u0cc6\u0cb2\u0cc6 \u0c85\u0c82\u0c97\u0ca1\u0cbf", "shop": "convenience"}}, {"type": "node", "id": 3382350602, "lat": 16.569149, "lon": 76.993198, "tags": {"addr:place": "Aikura", "name": "Public Distribution Shop", "name:kn": "\u0ca8\u0ccd\u0caf\u0cbe\u0caf \u0cac\u0cc6\u0cb2\u0cc6 \u0c85\u0c82\u0c97\u0ca1\u0cbf", "operator": "Government", "shop": "convenience"}}, {"type": "node", "id": 3382357930, "lat": 16.557845, "lon": 77.011243, "tags": {"addr:place": "Anakasugur", "name": "Public Distribution Shop", "name:kn": "\u0ca8\u0ccd\u0caf\u0cbe\u0caf \u0cac\u0cc6\u0cb2\u0cc6 \u0c85\u0c82\u0c97\u0ca1\u0cbf", "operator": "Government", "shop": "convenience"}}, {"type": "node", "id": 3382375707, "lat": 16.5381565, "lon": 77.0414457, "tags": {"addr:place": "Konkal", "name": "Public Distribution Shop", "name:kn": "\u0ca8\u0ccd\u0caf\u0cbe\u0caf \u0cac\u0cc6\u0cb2\u0cc6 \u0c85\u0c82\u0c97\u0ca1\u0cbf", "operator": "Government", "shop": "convenience"}}, {"type": "node", "id": 3382397415, "lat": 16.5349893, "lon": 77.0203081, "tags": {"addr:place": "Goudur", "name": "Public Distribution Shop", "name:kn": "\u0ca8\u0ccd\u0caf\u0cbe\u0caf \u0cac\u0cc6\u0cb2\u0cc6 \u0c85\u0c82\u0c97\u0ca1\u0cbf", "operator": "Government", "shop": "convenience"}}]}