{"version": 0.6, "generator": "Overpass API 0.7.62.8 e802775f", "osm3s": {"timestamp_osm_base": "2025-11-29T17:17:56Z", "copyright": "The data included in this document is from www.openstreetmap.org. The data is made available under ODbL."}, "elements": [{"type": "node", "id": 2573370804, "lat": 16.32847, "lon": 76.33909, "tags": {"amenity": "school", "name": "Aided Yarakihal Tanda", "operator": "Government", "school_code": "29330821902", "taluk": "Shorapur"}}, {"type": "node", "id": 2573370842, "lat": 16.30628, "lon": 76.32313, "tags": {"amenity": "school", "name": "Government High School Yanniwadagera", "name:kn": "\u0cb8\u0cb0\u0ccd\u0c95\u0cbe\u0cb0\u0cbf \u0caa\u0ccd\u0cb0\u0ccc\u0ca1 \u0cb6\u0cbe\u0cb2\u0cc6 \u0c8e\u0ca3\u0ccd\u0ca3\u0cbf\u0cb5\u0ca1\u0c97\u0cc7\u0cb0\u0cbf", "operator": "Government", "school_code": "29330821801", "taluk": "Shorapur"}}, {"type": "node", "id": 2573371035, "lat": 16.30636, "lon": 76.32222, "tags": {"amenity": "school", "name": "Government Higher Primary School Yenniwadagera", "name:kn": "\u0cb8\u0cb0\u0ccd\u0c95\u0cbe\u0cb0\u0cbf \u0cb9\u0cbf\u0cb0\u0cbf\u0caf \u0caa\u0ccd\u0cb0\u0cbe\u0ca5\u0cae\u0cbf\u0c95 \u0cb6\u0cbe\u0cb2\u0cc6 \u0c8e\u0ca3\u0ccd\u0ca3\u0cbf\u0cb5\u0ca1\u0c97\u0cc7\u0cb0\u0cbf", "operator": "Government", "school_code": "29330821802", "taluk": "Shorapur"}}, {"type": "node", "id": 2573371224, "lat": 16.30187, "lon": 76.32728, "tags": {"amenity": "school", "name": "Government Lower Primary School Komlapur", "name:kn": "\u0cb8\u0cb0\u0ccd\u0c95\u0cbe\u0cb0\u0cbf \u0c95\u0cbf\u0cb0\u0cbf\u0caf \u0caa\u0ccd\u0cb0\u0cbe\u0ca5\u0cae\u0cbf\u0c95 \u0cb6\u0cbe\u0cb2\u0cc6 \u0c95\u0cae\u0cb2\u0cbe\u0caa\u0cc2\u0cb0", "operator": "Government", "school_code": "29330812701", "taluk": "Shorapur"}}]}