{"version": 0.6, "generator": "Overpass API 0.7.62.8 e802775f", "osm3s": {"timestamp_osm_base": "2025-11-29T17:32:21Z", "copyright": "The data included in this document is from www.openstreetmap.org. The data is made available under ODbL."}, "elements": [{"type": "node", "id": 2901187456, "lat": 12.944066, "lon": 78.27281, "tags": {"name": "Hero Motors", "shop": "car_repair"}}, {"type": "node", "id": 9289611419, "lat": 12.9576189, "lon": 78.2759037, "tags": {"addr:postcode": "563122", "addr:street": "Geetha Road", "name": "Varsh Computers", "opening_hours": "Mo-Su 10:00-20:00", "shop": "computer"}}, {"type": "node", "id": 9310692818, "lat": 12.9574474, "lon": 78.2725062, "tags": {"addr:postcode": "563122", "addr:street": "1st Cross Road", "name": "Mamtha", "opening_hours": "We-Mo 10:00-20:00", "shop": "clothes"}}, {"type": "node", "id": 9310707417, "lat": 12.9596725, "lon": 78.2787743, "tags": {"addr:postcode": "563122", "addr:street": "Robertsonpet", "name": "Tirumala bakery", "opening_hours": "Mo-Su 09:00-21:00", "shop": "bakery"}}, {"type": "node", "id": 9420040270, "lat": 13.1963012, "lon": 78.530568, "tags": {"name": "Aqsa Diesel Works", "phone": "+919701830607", "shop": "car_repair"}}, {"type": "node", "id": 9946858118, "lat": 12.9571539, "lon": 78.2721651, "tags": {"name": "Sudharshan mobiles", "shop": "mobile_phone"}}, {"type": "node", "id": 9946858617, "lat": 12.9571095, "lon": 78.2718546, "tags": {"name": "Iyengar Bakery", "shop": "bakery"}}, {"type": "node", "id": 9946858717, "lat": 12.9570833, "lon": 78.2716628, "tags": {"name": "Eswari", "shop": "books"}}, {"type": "node", "id": 9946862117, "lat": 12.9571143, "lon": 78.2720206, "tags": {"name": "Mi store", "shop": "mobile_phone"}}, {"type": "node", "id": 9946862118, "lat": 12.9571003, "lon": 78.2717154, "tags": {"name": "Impala", "shop": "books"}}, {"type": "node", "id": 9946862119, "lat": 12.9571676, "lon": 78.2722532, "tags": {"name": "HP store", "name:en": "HP world", "shop": "computer"}}, {"type": "node", "id": 9946864518, "lat": 12.9571672, "lon": 78.2722934, "tags": {"name": "Arihant fashion", "shop": "clothes"}}, {"type": "node", "id": 9946867817, "lat": 12.957193, "lon": 78.2725357, "tags": {"name": "Sony", "shop": "computer"}}, {"type": "node", "id": 12051676069, "lat": 13.1481326, "lon": 78.2896254, "tags": {"opening_hours": "24/7", "shop": "tea"}}]}