{"version": 0.6, "generator": "Overpass API 0.7.62.8 e802775f", "osm3s": {"timestamp_osm_base": "2025-11-29T17:16:58Z", "copyright": "The data included in this document is from www.openstreetmap.org. The data is made available under ODbL."}, "elements": [{"type": "node", "id": 2387328285, "lat": 16.2000426, "lon": 76.6623353}, {"type": "node", "id": 2495183330, "lat": 16.1912796, "lon": 76.665704, "tags": {"amenity": "school", "name": "Little Angels School", "name:kn": "\u0cb2\u0cbf\u0c9f\u0cbf\u0cb2\u0ccd \u0c8e\u0c82\u0c9c\u0cb2\u0ccd\u0cb8\u0ccd \u0cb6\u0cbe\u0cb2\u0cc6"}}, {"type": "node", "id": 2498049652, "lat": 16.1908313, "lon": 76.6600628, "tags": {"amenity": "school", "name": "Basava Samithi School", "name:kn": "\u0cac\u0cb8\u0cb5 \u0cb8\u0cae\u0cbf\u0ca4\u0cbf \u0cb6\u0cbe\u0cb2\u0cc6"}}, {"type": "node", "id": 2498049659, "lat": 16.1967753, "lon": 76.6597942, "tags": {"amenity": "school", "name": "Government High School, Hutti", "name:kn": "\u0cb8\u0cb0\u0ccd\u0c95\u0cbe\u0cb0\u0cbf \u0caa\u0ccd\u0cb0\u0ccc\u0ca1 \u0cb6\u0cbe\u0cb2\u0cc6 \u0cb9\u0cc1\u0c9f\u0ccd\u0c9f\u0cbf", "type": "Secondary"}}, {"type": "node", "id": 2498049660, "lat": 16.1965501, "lon": 76.6594687, "tags": {"amenity": "school", "name": "Government Higher Primary School", "name:kn": "\u0cb8\u0cb0\u0ccd\u0c95\u0cbe\u0cb0\u0cbf \u0cb9\u0cbf\u0cb0\u0cbf\u0caf \u0caa\u0ccd\u0cb0\u0cbe\u0ca5\u0cae\u0cbf\u0c95 \u0cb6\u0cbe\u0cb2\u0cc6", "operator": "Government"}}, {"type": "node", "id": 2498049661, "lat": 16.1968265, "lon": 76.6560013, "tags": {"amenity": "school", "name": "Government Telugu School", "name:kn": "\u0cb8\u0cb0\u0ccd\u0c95\u0cbe\u0cb0\u0cbf \u0ca4\u0cc6\u0cb2\u0cc1\u0c97\u0cc1 \u0cb6\u0cbe\u0cb2\u0cc6"}}, {"type": "node", "id": 2498049662, "lat": 16.1963952, "lon": 76.659148, "tags": {"amenity": "school", "name": "Government Urdu School, Hutti", "name:kn": "\u0cb8\u0cb0\u0ccd\u0c95\u0cbe\u0cb0\u0cbf \u0c89\u0cb0\u0ccd\u0ca6\u0cc1 \u0cb6\u0cbe\u0cb2\u0cc6 \u0cb9\u0cc1\u0c9f\u0ccd\u0c9f\u0cbf"}}, {"type": "node", "id": 2498049671, "lat": 16.1998154, "lon": 76.6638857, "tags": {"amenity": "school", "name": "Siddarooda School", "name:kn": "\u0cb8\u0cbf\u0ca6\u0ccd\u0ca7\u0cb0\u0cc2\u0ca2 \u0cb6\u0cbe\u0cb2\u0cc6"}}, {"type": "node", "id": 2498049725, "lat": 16.1960959, "lon": 76.660188}, {"type": "node", "id": 2498049735, "lat": 16.1963916, "lon": 76.6602414}, {"type": "node", "id": 2498049738, "lat": 16.1963435, "lon": 76.6588514}, {"type": "node", "id": 2498049739, "lat": 16.19644, "lon": 76.658822}, {"type": "node", "id": 2498049759, "lat": 16.1971087, "lon": 76.6599592}, {"type": "node", "id": 2573370803, "lat": 16.25774, "lon": 76.35857, "tags": {"amenity": "school", "name": "Aided Lower Primary School Narayanpur I.B.Tanda", "operator": "Government", "school_code": "29330816703", "taluk": "Shorapur"}}, {"type": "node", "id": 2573370820, "lat": 16.32572, "lon": 76.37037, "tags": {"amenity": "school", "name": "Aided Lower Primary School Mavinagidada Tanda", "operator": "Government", "school_code": "29330823901", "taluk": "Shorapur"}}, {"type": "node", "id": 2573370835, "lat": 16.25591, "lon": 76.3693, "tags": {"amenity": "school", "name": "Government Junior College", "name:kn": "\u0cb8\u0cb0\u0ccd\u0c95\u0cbe\u0cb0\u0cbf \u0c9c\u0cc2\u0ca8\u0cbf\u0caf\u0cb0\u0ccd \u0c95\u0cbe\u0cb2\u0cc7\u0c9c\u0cc1", "operator": "Government", "school_code": "29330816708", "taluk": "Shorapur"}}, {"type": "node", "id": 2573370868, "lat": 16.32745, "lon": 76.50767, "tags": {"amenity": "school", "name": "Government Higher Primary School Geddalamari", "name:kn": "\u0cb8\u0cb0\u0ccd\u0c95\u0cbe\u0cb0\u0cbf \u0cb9\u0cbf\u0cb0\u0cbf\u0caf \u0caa\u0ccd\u0cb0\u0cbe\u0ca5\u0cae\u0cbf\u0c95 \u0cb6\u0cbe\u0cb2\u0cc6 \u0c97\u0cc6\u0ca6\u0ccd\u0ca6\u0cb2\u0cae\u0cb0\u0cbf", "operator": "Government", "school_code": "29330806001", "taluk": "Shorapur"}}, {"type": "node", "id": 2573370875, "lat": 16.30863, "lon": 76.44982, "tags": {"amenity": "school", "name": "Government Higher Primary School Hanumasagar", "name:kn": "\u0cb8\u0cb0\u0ccd\u0c95\u0cbe\u0cb0\u0cbf \u0cb9\u0cbf\u0cb0\u0cbf\u0caf \u0caa\u0ccd\u0cb0\u0cbe\u0ca5\u0cae\u0cbf\u0c95 \u0cb6\u0cbe\u0cb2\u0cc6 \u0cb9\u0ca3\u0cae\u0cb8\u0cbe\u0c97\u0cb0", "operator": "Government", "school_code": "29330807801", "taluk": "Shorapur"}}, {"type": "node", "id": 2573370880, "lat": 16.22735, "lon": 76.37447, "tags": {"amenity": "school", "name": "Government Higher Primary School Jaginagaddi", "name:kn": "\u0cb8\u0cb0\u0ccd\u0c95\u0cbe\u0cb0\u0cbf \u0cb9\u0cbf\u0cb0\u0cbf\u0caf \u0caa\u0ccd\u0cb0\u0cbe\u0ca5\u0cae\u0cbf\u0c95 \u0cb6\u0cbe\u0cb2\u0cc6, \u0c9c\u0c82\u0c97\u0cbf\u0ca8\u0c97\u0ca1\u0ccd\u0ca1\u0cbf", "operator": "Government", "school_code": "29330809801", "taluk": "Shorapur"}}, {"type": "node", "id": 2573370882, "lat": 16.30522, "lon": 76.46687, "tags": {"amenity": "school", "name": "Government Higher Primary School Jamalpur Tanda", "name:kn": "\u0cb8\u0cb0\u0ccd\u0c95\u0cbe\u0cb0\u0cbf \u0cb9\u0cbf\u0cb0\u0cbf\u0caf \u0caa\u0ccd\u0cb0\u0cbe\u0ca5\u0cae\u0cbf\u0c95 \u0cb6\u0cbe\u0cb2\u0cc6", "operator": "Government", "school_code": "29330810201", "taluk": "Shorapur"}}, {"type": "node", "id": 2573370883, "lat": 16.29972, "lon": 76.36376, "tags": {"amenity": "school", "name": "Government Higher Primary School Jogundabhavi", "name:kn": "\u0cb8\u0cb0\u0ccd\u0c95\u0cbe\u0cb0\u0cbf \u0cb9\u0cbf\u0cb0\u0cbf\u0caf \u0caa\u0ccd\u0cb0\u0cbe\u0ca5\u0cae\u0cbf\u0c95 \u0cb6\u0cbe\u0cb2\u0cc6 \u0c9c\u0ccb\u0c97\u0cc1\u0c82\u0ca1\u0cad\u0cbe\u0cb5\u0cbf", "operator": "Government", "school_code": "29330810001", "taluk": "Shorapur"}}, {"type": "node", "id": 2573370920, "lat": 16.31956, "lon": 76.34824, "tags": {"amenity": "school", "name": "Government Higher Primary School Marnal", "name:kn": "\u0cb8\u0cb0\u0ccd\u0c95\u0cbe\u0cb0\u0cbf \u0cb9\u0cbf\u0cb0\u0cbf\u0caf \u0caa\u0ccd\u0cb0\u0cbe\u0ca5\u0cae\u0cbf\u0c95 \u0cb6\u0cbe\u0cb2\u0cc6 \u0cae\u0cbe\u0cb0\u0ca8\u0cbe\u0cb3", "operator": "Government", "school_code": "29330815701", "taluk": "Shorapur"}}, {"type": "node", "id": 2573370937, "lat": 16.25593, "lon": 76.36835, "tags": {"amenity": "school", "name": "Government Higher Primary School Narayanpur Camp", "name:kn": "\u0cb8\u0cb0\u0ccd\u0c95\u0cbe\u0cb0\u0cbf \u0cb9\u0cbf\u0cb0\u0cbf\u0caf \u0caa\u0ccd\u0cb0\u0cbe\u0ca5\u0cae\u0cbf\u0c95 \u0cb6\u0cbe\u0cb2\u0cc6  \u0ca8\u0cbe\u0cb0\u0cbe\u0caf\u0ca3\u0caa\u0cc1\u0cb0", "operator": "Government", "school_code": "29330816701", "taluk": "Shorapur"}}, {"type": "node", "id": 2573370940, "lat": 16.2578, "lon": 76.37911, "tags": {"amenity": "school", "name": "Government Higher Primary School Narayanpur Halli", "name:kn": "\u0cb8\u0cb0\u0ccd\u0c95\u0cbe\u0cb0\u0cbf \u0cb9\u0cbf\u0cb0\u0cbf\u0caf \u0caa\u0ccd\u0cb0\u0cbe\u0ca5\u0cae\u0cbf\u0c95 \u0cb6\u0cbe\u0cb2\u0cc6, \u0ca8\u0cbe\u0cb0\u0cbe\u0caf\u0ca3\u0caa\u0cc1\u0cb0", "operator": "Government", "school_code": "29330816702", "taluk": "Shorapur"}}, {"type": "node", "id": 2573370967, "lat": 16.28988, "lon": 76.40546, "tags": {"amenity": "school", "name": "Government Higher Primary School Rayangola", "name:kn": "\u0cb8\u0cb0\u0ccd\u0c95\u0cbe\u0cb0\u0cbf \u0cb9\u0cbf\u0cb0\u0cbf\u0caf \u0caa\u0ccd\u0cb0\u0cbe\u0ca5\u0cae\u0cbf\u0c95 \u0cb6\u0cbe\u0cb2\u0cc6 \u0cb0\u0cbe\u0caf\u0ca8\u0c97\u0ccb\u0cb3", "operator": "Government", "ref": "29330818501", "taluk": "Shorapur"}}, {"type": "node", "id": 2573371042, "lat": 16.29285, "lon": 76.42983, "tags": {"amenity": "school", "name": "Government Lower Primary School Ammapur S K", "name:kn": "\u0cb8\u0cb0\u0ccd\u0c95\u0cbe\u0cb0\u0cbf \u0c95\u0cbf\u0cb0\u0cbf\u0caf \u0caa\u0ccd\u0cb0\u0cbe\u0ca5\u0cae\u0cbf\u0c95 \u0cb6\u0cbe\u0cb2\u0cc6 \u0c85\u0cae\u0ccd\u0cae\u0cbe\u0caa\u0cc2\u0cb0", "operator": "Government", "school_code": "29330800801", "taluk": "Shorapur"}}, {"type": "node", "id": 2573371046, "lat": 16.30798, "lon": 76.35411, "tags": {"amenity": "school", "name": "Government Lower Primary School B.G.Tanda", "name:kn": "\u0cb8\u0cb0\u0ccd\u0c95\u0cbe\u0cb0\u0cbf \u0c95\u0cbf\u0cb0\u0cbf\u0caf \u0caa\u0ccd\u0cb0\u0cbe\u0ca5\u0cae\u0cbf\u0c95 \u0cb6\u0cbe\u0cb2\u0cc6", "operator": "Government", "school_code": "29330801101", "taluk": "Shorapur"}}, {"type": "node", "id": 2573371052, "lat": 16.28022, "lon": 76.36851, "tags": {"amenity": "school", "name": "Government Lower Primary School Basarigidad Tanda", "name:kn": "\u0cb8\u0cb0\u0ccd\u0c95\u0cbe\u0cb0\u0cbf \u0c95\u0cbf\u0cb0\u0cbf\u0caf \u0caa\u0ccd\u0cb0\u0cbe\u0ca5\u0cae\u0cbf\u0c95 \u0cb6\u0cbe\u0cb2\u0cc6", "operator": "Government", "school_code": "29330802501", "taluk": "Shorapur"}}, {"type": "node", "id": 2573371103, "lat": 16.28151, "lon": 76.34483, "tags": {"amenity": "school", "name": "Government Lower Primary School Chapi Tanda", "name:kn": "\u0cb8\u0cb0\u0ccd\u0c95\u0cbe\u0cb0\u0cbf \u0c95\u0cbf\u0cb0\u0cbf\u0caf \u0caa\u0ccd\u0cb0\u0cbe\u0ca5\u0cae\u0cbf\u0c95 \u0cb6\u0cbe\u0cb2\u0cc6", "operator": "Government", "school_code": "29330804801", "taluk": "Shorapur"}}, {"type": "node", "id": 2573371206, "lat": 16.30207, "lon": 76.48139, "tags": {"amenity": "school", "name": "Government Lower Primary School Jumalpur", "name:kn": "\u0cb8\u0cb0\u0ccd\u0c95\u0cbe\u0cb0\u0cbf \u0c95\u0cbf\u0cb0\u0cbf\u0caf \u0caa\u0ccd\u0cb0\u0cbe\u0ca5\u0cae\u0cbf\u0c95 \u0cb6\u0cbe\u0cb2\u0cc6 \u0c9c\u0cae\u0cbe\u0cb2\u0caa\u0cc1\u0cb0", "operator": "Government", "school_code": "29330810101", "taluk": "Shorapur"}}, {"type": "node", "id": 2573371227, "lat": 16.26966, "lon": 76.37209, "tags": {"amenity": "school", "name": "Government Lower Primary School Kotegudda", "name:kn": "\u0cb8\u0cb0\u0ccd\u0c95\u0cbe\u0cb0\u0cbf \u0c95\u0cbf\u0cb0\u0cbf\u0caf \u0caa\u0ccd\u0cb0\u0cbe\u0ca5\u0cae\u0cbf\u0c95 \u0cb6\u0cbe\u0cb2\u0cc6, \u0c95\u0cca\u0c9f\u0cc6\u0c97\u0cc1\u0ca1\u0ccd\u0ca1", "operator": "Government", "school_code": "29330812901", "taluk": "Shorapur"}}, {"type": "node", "id": 2573371255, "lat": 16.31984, "lon": 76.36129, "tags": {"amenity": "school", "name": "Government Lower Primary School Marnal Tanda", "name:kn": "\u0cb8\u0cb0\u0ccd\u0c95\u0cbe\u0cb0\u0cbf \u0c95\u0cbf\u0cb0\u0cbf\u0caf \u0caa\u0ccd\u0cb0\u0cbe\u0ca5\u0cae\u0cbf\u0c95 \u0cb6\u0cbe\u0cb2\u0cc6 \u0cae\u0cbe\u0cb0\u0ca8\u0cbe\u0cb3 \u0ca4\u0cbe\u0c82\u0ca1", "operator": "Government", "school_code": "29330815801", "taluk": "Shorapur"}}, {"type": "node", "id": 2573371261, "lat": 16.22135, "lon": 76.36767, "tags": {"amenity": "school", "name": "Government Lower Primary School Melinagaddi", "name:kn": "\u0cb8\u0cb0\u0ccd\u0c95\u0cbe\u0cb0\u0cbf \u0cb9\u0cbf\u0cb0\u0cbf\u0caf \u0caa\u0ccd\u0cb0\u0cbe\u0ca5\u0cae\u0cbf\u0c95 \u0cb6\u0cbe\u0cb2\u0cc6, \u0cae\u0cc7\u0cb2\u0cbf\u0ca8 \u0c97\u0ca1\u0ccd\u0ca1\u0cbf", "operator": "Government", "school_code": "29330816001", "taluk": "Shorapur"}}, {"type": "node", "id": 2573371295, "lat": 16.3158, "lon": 76.37011, "tags": {"amenity": "school", "name": "Government Lower Primary School R.N Nagar Tanda", "name:kn": "\u0cb8\u0cb0\u0ccd\u0c95\u0cbe\u0cb0\u0cbf \u0c95\u0cbf\u0cb0\u0cbf\u0caf \u0caa\u0ccd\u0cb0\u0cbe\u0ca5\u0cae\u0cbf\u0c95 \u0cb6\u0cbe\u0cb2\u0cc6", "operator": "Government", "school_code": "29330802403", "taluk": "Shorapur"}}, {"type": "node", "id": 2573371338, "lat": 16.28778, "lon": 76.40512, "tags": {"amenity": "school", "name": "Government Lower Primary School Tangada Bail", "name:kn": "\u0cb8\u0cb0\u0ccd\u0c95\u0cbe\u0cb0\u0cbf \u0c95\u0cbf\u0cb0\u0cbf\u0caf \u0caa\u0ccd\u0cb0\u0cbe\u0ca5\u0cae\u0cbf\u0c95 \u0cb6\u0cbe\u0cb2\u0cc6", "operator": "Government", "school_code": "29330824901", "taluk": "Shorapur"}}, {"type": "node", "id": 2573371422, "lat": 16.3201119, "lon": 76.5035009, "tags": {"amenity": "school", "name": "Government High School Geddalmari", "name:kn": "\u0cb8\u0cb0\u0ccd\u0c95\u0cbe\u0cb0\u0cbf \u0caa\u0ccd\u0cb0\u0ccc\u0ca1 \u0cb6\u0cbe\u0cb2\u0cc6 \u0c97\u0cc6\u0ca6\u0ccd\u0ca6\u0cb2\u0cae\u0cb0\u0cbf", "operator": "Government", "school_code": "29330806004", "taluk": "Shorapur"}}, {"type": "node", "id": 2573371431, "lat": 16.30142, "lon": 76.36491, "tags": {"amenity": "school", "name": "Government High School Jogandabhavi", "name:kn": "\u0cb8\u0cb0\u0ccd\u0c95\u0cbe\u0cb0\u0cbf \u0caa\u0ccd\u0cb0\u0ccc\u0ca1\u0cb6\u0cbe\u0cb2\u0cc6 \u0c9c\u0ccb\u0c97\u0cc1\u0c82\u0ca1\u0cad\u0cbe\u0cb5\u0cbf", "operator": "Government", "school_code": "29330810006", "taluk": "Shorapur"}}, {"type": "node", "id": 2573371485, "lat": 16.3209, "lon": 76.45698, "tags": {"amenity": "school", "name": "Government Higher Primary School Rajawal Tanda", "name:kn": "\u0cb8\u0cb0\u0ccd\u0c95\u0cbe\u0cb0\u0cbf \u0cb9\u0cbf\u0cb0\u0cbf\u0caf \u0caa\u0ccd\u0cb0\u0cbe\u0ca5\u0cae\u0cbf\u0c95 \u0cb6\u0cbe\u0cb2\u0cc6", "operator": "Government", "school_code": "29330818101", "taluk": "Shorapur"}}, {"type": "node", "id": 2573371493, "lat": 16.31775, "lon": 76.51458, "tags": {"amenity": "school", "name": "Government Lower Primary School Ambedakar Doddi(Geddalamari)", "name:kn": "\u0cb8\u0cb0\u0ccd\u0c95\u0cbe\u0cb0\u0cbf \u0c95\u0cbf\u0cb0\u0cbf\u0caf \u0caa\u0ccd\u0cb0\u0cbe\u0ca5\u0cae\u0cbf\u0c95 \u0cb6\u0cbe\u0cb2\u0cc6", "operator": "Government", "school_code": "29330806003", "taluk": "Shorapur"}}, {"type": "node", "id": 2573371496, "lat": 16.29275, "lon": 76.36625, "tags": {"amenity": "school", "name": "Government Lower Primary School Beligunda Tanda Jogandabhavi", "name:kn": "\u0cb8\u0cb0\u0ccd\u0c95\u0cbe\u0cb0\u0cbf \u0c95\u0cbf\u0cb0\u0cbf\u0caf \u0caa\u0ccd\u0cb0\u0cbe\u0ca5\u0cae\u0cbf\u0c95 \u0cb6\u0cbe\u0cb2\u0cc6", "operator": "Government", "school_code": "29330810004", "taluk": "Shorapur"}}, {"type": "node", "id": 2573371497, "lat": 16.28332, "lon": 76.34866, "tags": {"amenity": "school", "name": "Government Lower Primary School Chatru Sahukar Tanda", "name:kn": "\u0cb8\u0cb0\u0ccd\u0c95\u0cbe\u0cb0\u0cbf \u0c95\u0cbf\u0cb0\u0cbf\u0caf \u0caa\u0ccd\u0cb0\u0cbe\u0ca5\u0cae\u0cbf\u0c95 \u0cb6\u0cbe\u0cb2\u0cc6", "operator": "Government", "school_code": "29330810003", "taluk": "Shorapur"}}, {"type": "node", "id": 2573371499, "lat": 16.31344, "lon": 76.36133, "tags": {"amenity": "school", "name": "Government Lower Primary School Dibbi Camp Marnal", "name:kn": "\u0cb8\u0cb0\u0ccd\u0c95\u0cbe\u0cb0\u0cbf \u0c95\u0cbf\u0cb0\u0cbf\u0caf \u0caa\u0ccd\u0cb0\u0cbe\u0ca5\u0cae\u0cbf\u0c95 \u0cb6\u0cbe\u0cb2\u0cc6", "operator": "Government", "school_code": "29330815702", "taluk": "Shorapur"}}, {"type": "node", "id": 2573371506, "lat": 16.28493, "lon": 76.36312, "tags": {"amenity": "school", "name": "Government Lower Primary School Gaddada Tanda Jogandabhavi", "name:kn": "\u0cb8\u0cb0\u0ccd\u0c95\u0cbe\u0cb0\u0cbf \u0c95\u0cbf\u0cb0\u0cbf\u0caf \u0caa\u0ccd\u0cb0\u0cbe\u0ca5\u0cae\u0cbf\u0c95 \u0cb6\u0cbe\u0cb2\u0cc6", "operator": "Government", "school_code": "29330810005", "taluk": "Shorapur"}}, {"type": "node", "id": 2573371528, "lat": 16.32198, "lon": 76.47767, "tags": {"amenity": "school", "name": "Government Lower Primary School Kadadal Tanda", "name:kn": "\u0cb8\u0cb0\u0ccd\u0c95\u0cbe\u0cb0\u0cbf \u0c95\u0cbf\u0cb0\u0cbf\u0caf \u0caa\u0ccd\u0cb0\u0cbe\u0ca5\u0cae\u0cbf\u0c95 \u0cb6\u0cbe\u0cb2\u0cc6", "note": "Appears to be misplaced.", "operator": "Government", "school_code": "29330824002", "taluk": "Shorapur"}}, {"type": "node", "id": 2573371547, "lat": 16.28227, "lon": 76.37767, "tags": {"amenity": "school", "name": "Government Lower Primary School Lakshmankere Laxmapur", "name:kn": "\u0cb8\u0cb0\u0ccd\u0c95\u0cbe\u0cb0\u0cbf \u0c95\u0cbf\u0cb0\u0cbf\u0caf \u0caa\u0ccd\u0cb0\u0cbe\u0ca5\u0cae\u0cbf\u0c95 \u0cb6\u0cbe\u0cb2\u0cc6", "operator": "Government", "school_code": "29330813603", "taluk": "Shorapur"}}, {"type": "node", "id": 2573371550, "lat": 16.2601, "lon": 76.37681, "tags": {"amenity": "school", "name": "Government Lower Primary School Mouneshwar Camp Narayanpur", "name:kn": "\u0cb8\u0cb0\u0ccd\u0c95\u0cbe\u0cb0\u0cbf \u0c95\u0cbf\u0cb0\u0cbf\u0caf \u0caa\u0ccd\u0cb0\u0cbe\u0ca5\u0cae\u0cbf\u0c95 \u0cb6\u0cbe\u0cb2\u0cc6", "operator": "Government", "school_code": "29330816707", "taluk": "Shorapur"}}, {"type": "node", "id": 2573371558, "lat": 16.33317, "lon": 76.37719, "tags": {"amenity": "school", "name": "Government Lower Primary School Rk Nagar Tanda", "name:kn": "\u0cb8\u0cb0\u0ccd\u0c95\u0cbe\u0cb0\u0cbf \u0c95\u0cbf\u0cb0\u0cbf\u0caf \u0caa\u0ccd\u0cb0\u0cbe\u0ca5\u0cae\u0cbf\u0c95 \u0cb6\u0cbe\u0cb2\u0cc6", "operator": "Government", "school_code": "29330802404", "taluk": "Shorapur"}}, {"type": "node", "id": 2573371575, "lat": 16.25426, "lon": 76.3739, "tags": {"amenity": "school", "name": "Government Lower Primary School Urdu Narayanpur Camp", "name:kn": "\u0cb8\u0cb0\u0ccd\u0c95\u0cbe\u0cb0\u0cbf \u0c95\u0cbf\u0cb0\u0cbf\u0caf \u0caa\u0ccd\u0cb0\u0cbe\u0ca5\u0cae\u0cbf\u0c95 \u0c89\u0cb0\u0ccd\u0ca6\u0cc1 \u0cb6\u0cbe\u0cb2\u0cc6", "operator": "Government", "school_code": "29330816706", "taluk": "Shorapur"}}, {"type": "node", "id": 2573371622, "lat": 16.25704, "lon": 76.36983, "tags": {"amenity": "school", "name": "J S Deshmukh Kan Lower Primary School N.Pur", "name:kn": "\u0cb8\u0cb0\u0ccd\u0c95\u0cbe\u0cb0\u0cbf \u0c95\u0cbf\u0cb0\u0cbf\u0caf \u0caa\u0ccd\u0cb0\u0cbe\u0ca5\u0cae\u0cbf\u0c95 \u0c95\u0ca8\u0ccd\u0ca8\u0ca1 \u0cb6\u0cbe\u0cb2\u0cc6", "operator": "Government", "school_code": "29330816705", "taluk": "Shorapur"}}, {"type": "node", "id": 2573371947, "lat": 16.25408, "lon": 76.37619, "tags": {"addr:city": "Narayanapur rural", "addr:postcode": "585219", "addr:street": "Shiva temple", "amenity": "school", "name": "Aided Lower Primary School B.E.S.N.Pur", "operator": "Government", "operator:type": "government", "religion": "hindu", "school_code": "29330816704", "taluk": "Shorapur"}}, {"type": "node", "id": 3353495935, "lat": 16.2000951, "lon": 76.6661382, "tags": {"amenity": "school", "denomination": "catholic", "grades": "1-10", "name": "St. Ann's School", "name:kn": "\u0cb8\u0c82\u0ca4 \u0c86\u0ca8\u0ccd\u0cb8\u0ccd \u0cb6\u0cbe\u0cb2\u0cc6", "operator:type": "private", "religion": "christian"}}, {"type": "node", "id": 3353645998, "lat": 16.1998643, "lon": 76.6623384}, {"type": "node", "id": 3353645999, "lat": 16.1996118, "lon": 76.6623518}, {"type": "node", "id": 3353646000, "lat": 16.199617, "lon": 76.662443}, {"type": "node", "id": 3353646001, "lat": 16.199872, "lon": 76.6624296}, {"type": "node", "id": 3353646002, "lat": 16.1994702, "lon": 76.6623626}, {"type": "node", "id": 3353646003, "lat": 16.1993929, "lon": 76.6623653}, {"type": "node", "id": 3353646004, "lat": 16.1993852, "lon": 76.6627381}, {"type": "node", "id": 3353646005, "lat": 16.1994573, "lon": 76.66273}, {"type": "node", "id": 3353646006, "lat": 16.1993697, "lon": 76.6619978}, {"type": "node", "id": 3353646007, "lat": 16.1993903, "lon": 76.6620407}, {"type": "node", "id": 3353646008, "lat": 16.1992821, "lon": 76.6620863}, {"type": "node", "id": 3353646009, "lat": 16.1992641, "lon": 76.6620434}, {"type": "node", "id": 3361135182, "lat": 16.1899593, "lon": 76.6649151, "tags": {"amenity": "school", "name": "Wesley World Residential School", "name:kn": "\u0cb5\u0cc6\u0cb8\u0ccd\u0cb2\u0cbf \u0cb5\u0cb0\u0ccd\u0cb2\u0ccd\u0ca1\u0ccd \u0cb6\u0cbe\u0cb2\u0cc6"}}, {"type": "node", "id": 3496766792, "lat": 16.1562253, "lon": 76.5230547}, {"type": "node", "id": 3496788693, "lat": 16.1561583, "lon": 76.5234624}, {"type": "node", "id": 3496788694, "lat": 16.1562098, "lon": 76.5234731}, {"type": "node", "id": 3496788695, "lat": 16.1561944, "lon": 76.5235858}, {"type": "node", "id": 3496788696, "lat": 16.1560243, "lon": 76.5235536}, {"type": "node", "id": 3496788697, "lat": 16.1559419, "lon": 76.5236233}, {"type": "node", "id": 3496788698, "lat": 16.1556843, "lon": 76.5235804}, {"type": "node", "id": 3496788699, "lat": 16.155777, "lon": 76.5230708}, {"type": "node", "id": 3496788700, "lat": 16.155844, "lon": 76.5230922}, {"type": "node", "id": 3496788701, "lat": 16.1558646, "lon": 76.5230279}, {"type": "node", "id": 3496788702, "lat": 16.1561325, "lon": 76.5230869}, {"type": "node", "id": 3496788703, "lat": 16.156148, "lon": 76.5230279}, {"type": "node", "id": 3496788704, "lat": 16.1561016, "lon": 76.5231727}, {"type": "node", "id": 3496788705, "lat": 16.1559316, "lon": 76.5231352}, {"type": "node", "id": 3496788706, "lat": 16.1558595, "lon": 76.5231513}, {"type": "node", "id": 3496788707, "lat": 16.1558079, "lon": 76.5234624}, {"type": "node", "id": 3496788708, "lat": 16.1560037, "lon": 76.5234892}, {"type": "node", "id": 3496788709, "lat": 16.1560604, "lon": 76.523457}, {"type": "node", "id": 4207621435, "lat": 16.1948964, "lon": 76.642557, "tags": {"amenity": "school", "name": "Kendriya Vidyalaya", "name:kn": "\u0c95\u0cc7\u0c82\u0ca6\u0ccd\u0cb0\u0cbf\u0caf \u0cb5\u0cbf\u0ca6\u0ccd\u0caf\u0cbe\u0cb2\u0caf", "opening_hours": "09:30-16:30", "operator": "KVS", "wheelchair": "limited"}}, {"type": "node", "id": 4207683228, "lat": 16.1996199, "lon": 76.6626575}, {"type": "node", "id": 4207683229, "lat": 16.1996264, "lon": 76.6627453}, {"type": "node", "id": 4207683230, "lat": 16.199857, "lon": 76.6624524}, {"type": "node", "id": 4207683231, "lat": 16.1999153, "lon": 76.6626521}, {"type": "node", "id": 4207683232, "lat": 16.1999165, "lon": 76.6627326}, {"type": "node", "id": 4207683233, "lat": 16.199932, "lon": 76.663493}, {"type": "node", "id": 4207683234, "lat": 16.199932, "lon": 76.6635654}, {"type": "node", "id": 4207683235, "lat": 16.199933, "lon": 76.6624229}, {"type": "node", "id": 4207683236, "lat": 16.1999616, "lon": 76.6627447}, {"type": "node", "id": 4207683237, "lat": 16.2000376, "lon": 76.6627152}, {"type": "node", "id": 4207683238, "lat": 16.2000737, "lon": 76.663493}, {"type": "node", "id": 4207683239, "lat": 16.2000737, "lon": 76.6635654}, {"type": "node", "id": 4207718676, "lat": 16.1987575, "lon": 76.6634286}, {"type": "node", "id": 4207718677, "lat": 16.199167, "lon": 76.662742}, {"type": "node", "id": 4207718678, "lat": 16.1997234, "lon": 76.662801}, {"type": "node", "id": 4207718679, "lat": 16.199744, "lon": 76.6634635}, {"type": "node", "id": 4207718680, "lat": 16.1997543, "lon": 76.6632355}, {"type": "node", "id": 4207718681, "lat": 16.1999526, "lon": 76.6632355}, {"type": "node", "id": 4207718682, "lat": 16.1999526, "lon": 76.6634555}, {"type": "node", "id": 4519259197, "lat": 16.2021821, "lon": 76.6634508}, {"type": "node", "id": 4519259198, "lat": 16.2021098, "lon": 76.6634522}, {"type": "node", "id": 4519259199, "lat": 16.202103, "lon": 76.6630553}, {"type": "node", "id": 4519259200, "lat": 16.2021754, "lon": 76.663054}, {"type": "node", "id": 8091210107, "lat": 16.2000878, "lon": 76.6624337}, {"type": "node", "id": 8091210108, "lat": 16.2000486, "lon": 76.6624703}, {"type": "node", "id": 8091210109, "lat": 16.2000657, "lon": 76.6625121}, {"type": "node", "id": 8091210110, "lat": 16.2000737, "lon": 76.6625539}, {"type": "node", "id": 8091210111, "lat": 16.2000034, "lon": 76.6625853}, {"type": "node", "id": 8091210112, "lat": 16.2000597, "lon": 76.6627516}, {"type": "node", "id": 8091210113, "lat": 16.200121, "lon": 76.6627276}, {"type": "node", "id": 8091210114, "lat": 16.200129, "lon": 76.6627579}, {"type": "node", "id": 8091210115, "lat": 16.2000627, "lon": 76.6627903}, {"type": "node", "id": 8091210116, "lat": 16.20013, "lon": 76.663033}, {"type": "node", "id": 8091274417, "lat": 16.2001852, "lon": 76.6630225}, {"type": "node", "id": 8091274418, "lat": 16.2002073, "lon": 76.663124}, {"type": "node", "id": 8091274419, "lat": 16.200121, "lon": 76.663147}, {"type": "node", "id": 8091274420, "lat": 16.200142, "lon": 76.6632715}, {"type": "node", "id": 8091274421, "lat": 16.2002013, "lon": 76.6632725}, {"type": "node", "id": 8091274422, "lat": 16.2002033, "lon": 76.6633322}, {"type": "node", "id": 8091274423, "lat": 16.2000607, "lon": 76.6633447}, {"type": "node", "id": 8091274424, "lat": 16.2000838, "lon": 76.6634964}, {"type": "node", "id": 8091274425, "lat": 16.2000818, "lon": 76.6635811}, {"type": "node", "id": 8091274426, "lat": 16.199915, "lon": 76.6635863}, {"type": "node", "id": 8091274427, "lat": 16.1997142, "lon": 76.6635842}, {"type": "node", "id": 8091274428, "lat": 16.1996961, "lon": 76.6638248}, {"type": "node", "id": 8091274429, "lat": 16.1994341, "lon": 76.6651969}, {"type": "node", "id": 8091274430, "lat": 16.1987644, "lon": 76.6651271}, {"type": "node", "id": 8091274431, "lat": 16.1978809, "lon": 76.6649286}, {"type": "node", "id": 8091274432, "lat": 16.1976903, "lon": 76.6648562}, {"type": "node", "id": 8091274433, "lat": 16.1979994, "lon": 76.6641213}, {"type": "node", "id": 8091274434, "lat": 16.1983239, "lon": 76.6634105}, {"type": "node", "id": 8091274435, "lat": 16.198736, "lon": 76.6625763}, {"type": "node", "id": 8091274436, "lat": 16.1989859, "lon": 76.6619782}, {"type": "node", "id": 8091274437, "lat": 16.1992074, "lon": 76.6614793}, {"type": "node", "id": 8091274438, "lat": 16.1994134, "lon": 76.6615973}, {"type": "node", "id": 8091274439, "lat": 16.1994469, "lon": 76.6619702}, {"type": "node", "id": 8091274440, "lat": 16.1996968, "lon": 76.6618924}, {"type": "node", "id": 8091274441, "lat": 16.1998539, "lon": 76.6622303}, {"type": "node", "id": 8091274442, "lat": 16.1999168, "lon": 76.6622895}, {"type": "node", "id": 8091274443, "lat": 16.199973, "lon": 76.662362}, {"type": "node", "id": 8091274444, "lat": 16.2001221, "lon": 76.6632568}, {"type": "node", "id": 8091274445, "lat": 16.2001247, "lon": 76.6633084}, {"type": "node", "id": 8091274446, "lat": 16.2000011, "lon": 76.6633245}, {"type": "node", "id": 8091274447, "lat": 16.1999998, "lon": 76.6632649}, {"type": "node", "id": 8091274448, "lat": 16.2000371, "lon": 76.6633507}, {"type": "node", "id": 8091274449, "lat": 16.1999708, "lon": 76.6633574}, {"type": "node", "id": 8091274450, "lat": 16.1999695, "lon": 76.6634164}, {"type": "node", "id": 8091274451, "lat": 16.2000436, "lon": 76.6634097}, {"type": "node", "id": 8091274464, "lat": 16.2000375, "lon": 76.6623704}, {"type": "node", "id": 8091274465, "lat": 16.2000688, "lon": 76.6624322}, {"type": "node", "id": 8091274466, "lat": 16.1999889, "lon": 76.662476}, {"type": "node", "id": 8091274467, "lat": 16.1999609, "lon": 76.6624041}, {"type": "node", "id": 8091274468, "lat": 16.2000586, "lon": 76.6624947, "tags": {"entrance": "main"}}, {"type": "node", "id": 8091274469, "lat": 16.2001249, "lon": 76.6627424, "tags": {"entrance": "yes"}}, {"type": "node", "id": 8091274470, "lat": 16.1998505, "lon": 76.6624698}, {"type": "node", "id": 8091274471, "lat": 16.1998667, "lon": 76.6626217}, {"type": "node", "id": 8091274472, "lat": 16.1995207, "lon": 76.6626524}, {"type": "node", "id": 8091274473, "lat": 16.1995207, "lon": 76.6624589}, {"type": "node", "id": 9036199160, "lat": 16.0234067, "lon": 76.3896239}, {"type": "node", "id": 9036199161, "lat": 16.0235098, "lon": 76.3925743}, {"type": "node", "id": 9036199162, "lat": 16.0202822, "lon": 76.3926709}, {"type": "node", "id": 9036199163, "lat": 16.0201687, "lon": 76.3906538}, {"type": "way", "id": 242304548, "nodes": [2498049739, 2498049759, 2498049735, 2498049725, 2498049738, 2498049739], "tags": {"amenity": "school", "name": "Government School", "name:kn": "\u0cb8\u0cb0\u0ccd\u0c95\u0cbe\u0cb0\u0cbf \u0cb6\u0cbe\u0cb2\u0cc6"}}, {"type": "way", "id": 328537469, "nodes": [3353645998, 3353645999, 3353646000, 3353646001, 3353645998], "tags": {"building": "school", "building:levels": "1"}}, {"type": "way", "id": 328537470, "nodes": [3353646002, 3353646003, 3353646004, 3353646005, 3353646002], "tags": {"building": "school", "building:levels": "1"}}, {"type": "way", "id": 328537471, "nodes": [3353646006, 3353646007, 3353646008, 3353646009, 3353646006], "tags": {"access": "private", "amenity": "toilets", "building": "yes", "changing_table": "no", "female": "yes", "toilets:disposal": "pitlatrine", "toilets:handwashing": "yes", "wheelchair": "limited"}}, {"type": "way", "id": 342712841, "nodes": [3496766792, 3496788693, 3496788694, 3496788695, 3496788696, 3496788697, 3496788698, 3496788699, 3496788700, 3496788701, 3496788702, 3496788703, 3496766792]}, {"type": "way", "id": 342712842, "nodes": [3496788704, 3496788705, 3496788706, 3496788707, 3496788708, 3496788709, 3496788704], "tags": {"building": "yes"}}, {"type": "way", "id": 420872448, "nodes": [4207683237, 4207683236, 4207683230, 4207683235, 4207683237], "tags": {"building": "school", "building:levels": "1"}}, {"type": "way", "id": 420872449, "nodes": [4207683231, 4207683232, 4207683229, 4207683228, 4207683231], "tags": {"building": "school", "building:levels": "1"}}, {"type": "way", "id": 420872450, "nodes": [4207683233, 4207683238, 4207683239, 4207683234, 4207683233], "tags": {"building": "school"}}, {"type": "way", "id": 420877368, "nodes": [4207718678, 4207718680, 4207718681, 4207718682, 4207718679, 4207718676, 4207718677, 4207718678], "tags": {"description": "School playground of Seamands School", "leisure": "fitness_station", "name": "Seamands School Ground", "operator": "Dr E A Seamands School", "wheelchair": "limited"}}, {"type": "way", "id": 455533268, "nodes": [4519259200, 4519259197, 4519259198, 4519259199, 4519259200], "tags": {"amenity": "school", "building": "yes", "name": "Shekamma Narayana Girls School", "name:kn": "\u0cb6\u0cc6\u0c95\u0cae\u0ccd\u0cae \u0ca8\u0cbe\u0cb0\u0cbe\u0caf\u0ca3 \u0cb6\u0cbe\u0cb2\u0cc6"}}, {"type": "way", "id": 868058271, "nodes": [2387328285, 8091210107, 8091210108, 8091274468, 8091210109, 8091210110, 8091210111, 8091210112, 8091210113, 8091274469, 8091210114, 8091210115, 8091210116, 8091274417, 8091274418, 8091274419, 8091274420, 8091274421, 8091274422, 8091274423, 8091274424, 8091274425, 8091274426, 8091274427, 8091274428, 8091274429, 8091274430, 8091274431, 8091274432, 8091274433, 8091274434, 8091274435, 8091274436, 8091274437, 8091274438, 8091274439, 8091274440, 8091274441, 8091274442, 8091274443, 2387328285]}, {"type": "way", "id": 868058272, "nodes": [8091274444, 8091274445, 8091274446, 8091274447, 8091274444], "tags": {"amenity": "kindergarten", "building": "school", "preschool": "yes"}}, {"type": "way", "id": 868058273, "nodes": [8091274448, 8091274449, 8091274450, 8091274451, 8091274448], "tags": {"building": "school"}}, {"type": "way", "id": 868058277, "nodes": [8091274464, 8091274465, 8091274466, 8091274467, 8091274464], "tags": {"access": "private", "amenity": "bicycle_parking", "covered": "no", "fee": "no"}}, {"type": "way", "id": 868058278, "nodes": [8091274470, 8091274471, 8091274472, 8091274473, 8091274470], "tags": {"access": "permissive", "leisure": "pitch", "name": "Assembly area", "name:kn": "\u0c85\u0cb8\u0cc6\u0c82\u0cac\u0ccd\u0cb2\u0cbf", "surface": "paved"}}, {"type": "way", "id": 976466424, "nodes": [9036199163, 9036199162, 9036199161, 9036199160, 9036199163], "tags": {"amenity": "school"}}, {"type": "relation", "id": 4863121, "members": [{"type": "way", "ref": 342712841, "role": "outer"}, {"type": "way", "ref": 342712842, "role": "inner"}], "tags": {"amenity": "school", "building": "college", "building:levels": "2", "name": "Government Degree College", "name:kn": "\u0cb8\u0cb0\u0ccd\u0c95\u0cbe\u0cb0\u0cbf \u0caa\u0ccd\u0cb0\u0ca5\u0cae \u0ca6\u0cb0\u0ccd\u0c9c\u0cc6 \u0c95\u0cbe\u0cb2\u0cc7\u0c9c\u0cc1", "type": "multipolygon"}}, {"type": "relation", "id": 11847856, "members": [{"type": "way", "ref": 868058271, "role": "outer"}, {"type": "way", "ref": 420877368, "role": "inner"}, {"type": "way", "ref": 328537470, "role": "inner"}, {"type": "way", "ref": 328537469, "role": "inner"}, {"type": "way", "ref": 420872449, "role": "inner"}, {"type": "way", "ref": 420872448, "role": "inner"}, {"type": "way", "ref": 420872450, "role": "inner"}, {"type": "way", "ref": 868058272, "role": "inner"}, {"type": "way", "ref": 868058273, "role": "inner"}, {"type": "way", "ref": 328537471, "role": "inner"}, {"type": "way", "ref": 868058277, "role": "inner"}, {"type": "way", "ref": 868058278, "role": "inner"}], "tags": {"addr:postcode": "584115", "amenity": "school", "denomination": "methodist", "designation": "Private", "fee": "yes", "grades": "1-10", "max_age": "16", "min_age": "4", "name": "Dr. E. A Seamands School", "name:kn": "\u0ca1\u0cbe||.\u0c87.\u0c8e.\u0cb8\u0cc0\u0cae\u0cc6\u0c82\u0ca1\u0ccd\u0cb8\u0ccd \u0cb6\u0cbe\u0cb2\u0cc6", "religion": "christian", "type": "multipolygon"}}]}