{"version": 0.6, "generator": "Overpass API 0.7.62.8 e802775f", "osm3s": {"timestamp_osm_base": "2025-11-29T17:16:58Z", "copyright": "The data included in this document is from www.openstreetmap.org. The data is made available under ODbL."}, "elements": [{"type": "node", "id": 2385037111, "lat": 15.5723349, "lon": 76.4162971}, {"type": "node", "id": 2385037155, "lat": 15.572648, "lon": 76.4145109}, {"type": "node", "id": 2385037170, "lat": 15.5736791, "lon": 76.4144453}, {"type": "node", "id": 2385037172, "lat": 15.5737107, "lon": 76.416458}, {"type": "node", "id": 2385037178, "lat": 15.5738689, "lon": 76.4161067}, {"type": "node", "id": 4443461945, "lat": 15.766653, "lon": 76.7712814, "tags": {"addr:city": "sindhanur", "addr:housenumber": "Plot No. : 694, 694/1,", "addr:postcode": "584128", "addr:street": "Sukalpet, Sindhnoor", "amenity": "school", "name": "Sri Kanakadasa School", "name:kn": "\u0cb6\u0ccd\u0cb0\u0cc0 \u0c95\u0ca8\u0c95\u0ca6\u0cbe\u0cb8 \u0cb6\u0cbe\u0cb2\u0cc6", "phone": "08535-221455", "website": "www.srikanakadasaeducationtrust.com"}}, {"type": "node", "id": 4445124399, "lat": 15.7640031, "lon": 76.740768, "tags": {"addr:city": "sindhanur", "addr:housenumber": "15", "addr:postcode": "584128", "addr:street": "31st main canal, ganganagar sindhanur", "amenity": "school", "name": "Vikasa Bharathi School", "name:kn": "\u0cb5\u0cbf\u0c95\u0cbe\u0cb8 \u0cad\u0cbe\u0cb0\u0ca4\u0cbf \u0cb6\u0cbe\u0cb2\u0cc6", "phone": "+91 9880419522", "website": "vikasabharathischool.com"}}, {"type": "node", "id": 4445164961, "lat": 15.765773, "lon": 76.752118, "tags": {"addr:city": "sindhanur", "addr:housenumber": "16", "addr:postcode": "584128", "addr:street": "ward no.16, Adarsha colony sindhnaur", "amenity": "school", "name": "Venkateshwara High School", "name:kn": "\u0cb5\u0cc6\u0c82\u0c95\u0c9f\u0cc7\u0cb6\u0ccd\u0cb5\u0cb0 \u0caa\u0ccd\u0cb0\u0ccc\u0ca2\u0cb6\u0cbe\u0cb2\u0cc6", "phone": "08535-230068", "website": "venkateshwaraschool.com"}}, {"type": "node", "id": 4445179403, "lat": 15.772802, "lon": 76.7495106, "tags": {"addr:city": "sindhnur", "addr:housenumber": "11", "addr:postcode": "584128", "addr:street": "nataraj colony sindhanur-584128", "amenity": "school", "name": "Glory English Medium School", "phone": "08535-220037", "website": "gloryeducationinstitute.com"}}, {"type": "node", "id": 4445198628, "lat": 15.7687513, "lon": 76.7522519, "tags": {"addr:city": "sindhanur", "addr:housenumber": "16", "addr:postcode": "584128", "addr:street": "adarsha colony, sindhanur-584128", "amenity": "school", "name": "Anand Public School", "phone": "08535-220018", "website": "anandjaineducationtrust.com"}}, {"type": "node", "id": 4445211452, "lat": 15.7856455, "lon": 76.7735761, "tags": {"addr:city": "sindhanur", "addr:housenumber": "2", "addr:postcode": "584128", "addr:street": "valabellary main road, pwd camp sindhanur", "amenity": "school", "name": "Duddupudi School", "phone": "08535-220044", "website": "https://www.duddupudi.com/"}}, {"type": "node", "id": 4445521747, "lat": 15.7710905, "lon": 76.7591593, "tags": {"addr:city": "sindhnur", "addr:housenumber": "9", "addr:postcode": "584128", "addr:street": "mahaboobiya colony sindhanur", "amenity": "school", "name": "RGM school", "phone": "08535-221223", "website": "roudragoudaEDUtrust.com"}}, {"type": "node", "id": 4445531498, "lat": 15.7656481, "lon": 76.7492856, "tags": {"addr:city": "sindhanur", "addr:housenumber": "17", "addr:postcode": "584128", "addr:street": "w.no.17, venkateshwara nagar sindhanur-", "amenity": "school", "name": "Sarvodaya School", "name:kn": "\u0cb8\u0cb0\u0ccd\u0cb5\u0ccb\u0ca6\u0caf \u0cb6\u0cbe\u0cb2\u0cc6", "phone": "08535-221007", "website": "mmallapaedutrust.com"}}, {"type": "node", "id": 4445565682, "lat": 15.7637439, "lon": 76.7506501, "tags": {"addr:city": "sindhnur", "addr:housenumber": "19", "addr:postcode": "584128", "addr:street": "w.no.17 venkateshwara colony sindhanur", "amenity": "school", "name": "Indirapriya Priyadarshini high school", "name:kn": "\u0c87\u0c82\u0ca6\u0cbf\u0cb0\u0cbe \u0caa\u0ccd\u0cb0\u0cbf\u0caf\u0ca6\u0cb0\u0ccd\u0cb6\u0cbf\u0ca8\u0cbf \u0caa\u0ccd\u0cb0\u0ccc\u0ca1\u0cb6\u0cbe\u0cb2\u0cc6", "phone": "08535-222345", "website": "indirapriyadarshinischool.com"}}, {"type": "node", "id": 4445584961, "lat": 15.7426367, "lon": 76.7481378, "tags": {"addr:city": "sindhnur", "addr:housenumber": "20", "addr:postcode": "584128", "addr:street": "hosahalli ej cross gvt road, sindhanur", "amenity": "school", "name": "Daffodials concept  school", "phone": "08535-200238", "website": "daffodialsconceptschool.com"}}, {"type": "node", "id": 4445600541, "lat": 15.7533595, "lon": 76.7520702, "tags": {"addr:city": "sindhnur", "addr:housenumber": "20", "addr:postcode": "584128", "addr:street": "anand complex, gk gopal nagar gvt road, sindhanur", "amenity": "school", "name": "MDN future school", "phone": "088846 86777"}}, {"type": "node", "id": 4445616435, "lat": 15.7654306, "lon": 76.7528191, "tags": {"addr:city": "sindhanur", "addr:housenumber": "161", "addr:postcode": "584128", "addr:street": "wno. 16 adarsha colony, sirndhanur", "amenity": "school", "name": "Sahana abc montessari school", "phone": "08535-221614", "website": "sahanamontessarischool.com"}}, {"type": "node", "id": 4445628942, "lat": 15.7633887, "lon": 76.7565225, "tags": {"addr:city": "sindhnur", "addr:housenumber": "191", "addr:postcode": "584128", "addr:street": "w.no.19 ramakishore colony sindhanur-", "amenity": "school", "name": "Holy Family High School", "phone": "08535-221414"}}, {"type": "node", "id": 4445642160, "lat": 15.7661118, "lon": 76.751868, "tags": {"addr:city": "sindhanur", "addr:housenumber": "162", "addr:postcode": "584128", "addr:street": "adarsha colony, sindhanur", "amenity": "school", "name": "Meenakshi school", "name:kn": "\u0cae\u0cc0\u0ca8\u0cbe\u0c95\u0ccd\u0cb7\u0cbf \u0cb6\u0cbe\u0cb2\u0cc6", "phone": "08535-221512"}}, {"type": "node", "id": 4445666331, "lat": 15.7723683, "lon": 76.7547912, "tags": {"addr:city": "sindhnur", "addr:housenumber": "07", "addr:postcode": "584128", "addr:street": "w.no.07, dhangar wadi sindhanur", "amenity": "school", "name": "Adams school", "phone": "08535-221919", "website": "adamsschool.com"}}, {"type": "node", "id": 4446529873, "lat": 15.737541, "lon": 76.7475409, "tags": {"addr:city": "Raichur", "addr:postcode": "584128", "addr:street": "Koppal Rd, Hosalli Camp", "amenity": "school", "name": "Sri Krishna Devaraya High School", "name:kn": "\u0c95\u0cc3\u0cb7\u0ccd\u0ca3 \u0ca6\u0cc7\u0cb5\u0cbe\u0cb2\u0caf \u0caa\u0ccd\u0cb0\u0ccc\u0ca1\u0cb6\u0cbe\u0cb2\u0cc6"}}, {"type": "node", "id": 7538397374, "lat": 15.7657505, "lon": 76.4024194, "tags": {"amenity": "school", "name": "Panchayat office", "office": "government"}}, {"type": "node", "id": 7538397375, "lat": 15.76907, "lon": 76.4054033, "tags": {"amenity": "school", "name:en": "Government High School"}}, {"type": "node", "id": 7850790779, "lat": 15.7802569, "lon": 76.3950312, "tags": {"amenity": "school", "name": "Government Lower Primary School"}}, {"type": "way", "id": 229965730, "nodes": [2385037155, 2385037111, 2385037172, 2385037178, 2385037170, 2385037155], "tags": {"amenity": "school"}}]}