{"version": 0.6, "generator": "Overpass API 0.7.62.8 e802775f", "osm3s": {"timestamp_osm_base": "2025-11-29T17:32:21Z", "copyright": "The data included in this document is from www.openstreetmap.org. The data is made available under ODbL."}, "elements": [{"type": "node", "id": 2085614253, "lat": 17.0245624, "lon": 81.7754814}, {"type": "node", "id": 2085614255, "lat": 17.0245624, "lon": 81.7755934}, {"type": "node", "id": 2085614367, "lat": 17.0246754, "lon": 81.7756214}, {"type": "node", "id": 2085614393, "lat": 17.0246843, "lon": 81.7755001}, {"type": "node", "id": 2103842590, "lat": 17.0017549, "lon": 81.7716164}, {"type": "node", "id": 2103842624, "lat": 17.0017509, "lon": 81.7714579}, {"type": "node", "id": 2103842625, "lat": 17.001885, "lon": 81.7714542}, {"type": "node", "id": 2103842759, "lat": 17.001889, "lon": 81.7716127}, {"type": "node", "id": 2152912082, "lat": 16.8439378, "lon": 81.6890708, "tags": {"amenity": "bank", "atm": "no", "brand:wikidata": "Q2003789", "brand:wikipedia": "en:Indian Bank", "name": "Indian Bank", "name:en": "Indian Bank", "website": "https://www.indianbank.in/"}}, {"type": "node", "id": 2152912087, "lat": 16.8444998, "lon": 81.6875028, "tags": {"amenity": "bank", "atm": "no", "name": "Primary Agricultural Cooperative Society", "name_1": "\u0c2a\u0c4d\u0c30\u0c3e\u0c27\u0c2e\u0c3f\u0c15 \u0c35\u0c4d\u0c2f\u0c35\u0c38\u0c3e\u0c2f \u0c38\u0c39\u0c15\u0c3e\u0c30 \u0c2a\u0c30\u0c2a\u0c24\u0c3f \u0c38\u0c02\u0c18\u0c02 \u0c32\u0c3f\u0c2e\u0c3f\u0c1f\u0c46\u0c21\u0c4d"}}, {"type": "node", "id": 2155590885, "lat": 17.0174856, "lon": 81.7816299}, {"type": "node", "id": 2155591001, "lat": 17.0176475, "lon": 81.7814008}, {"type": "node", "id": 2155591042, "lat": 17.0176793, "lon": 81.7817573}, {"type": "node", "id": 2155591175, "lat": 17.0178229, "lon": 81.781512}, {"type": "node", "id": 2387687365, "lat": 17.0044679, "lon": 81.794865, "tags": {"amenity": "bank", "name": "Aryapuram Co-op Bank"}}, {"type": "node", "id": 2387755692, "lat": 17.0077804, "lon": 81.7954593, "tags": {"addr:city": "Rajahmundry", "addr:postcode": "533103", "addr:street": "Jayasree Gardens 2nd Street", "amenity": "bank", "name": "Chaitanya Godavari Garameena Bank"}}, {"type": "node", "id": 3240536130, "lat": 17.0075665, "lon": 81.793628, "tags": {"addr:city": "Rajahmundry", "addr:housenumber": "79-1-3/1", "addr:postcode": "533103", "addr:street": "Jawahalal Nehru Road", "amenity": "bank", "name": "Citizen Co-Operative Society Ltd"}}, {"type": "node", "id": 3950385638, "lat": 16.7687305, "lon": 81.9547015}, {"type": "node", "id": 3950385639, "lat": 16.7687022, "lon": 81.9547981}, {"type": "node", "id": 3950385640, "lat": 16.7685918, "lon": 81.9547793}, {"type": "node", "id": 3950385641, "lat": 16.7686098, "lon": 81.9546693}, {"type": "node", "id": 4173946479, "lat": 16.9957799, "lon": 81.6680026}, {"type": "node", "id": 4173946480, "lat": 16.9956414, "lon": 81.6680066}, {"type": "node", "id": 4173946481, "lat": 16.9956414, "lon": 81.6681327}, {"type": "node", "id": 4173946482, "lat": 16.9957837, "lon": 81.6681233}, {"type": "node", "id": 5588884524, "lat": 17.006597, "lon": 81.7950972, "tags": {"amenity": "bank", "building:levels": "0", "name": "Canara"}}, {"type": "node", "id": 7088103768, "lat": 16.9964944, "lon": 81.8013635}, {"type": "node", "id": 7088103769, "lat": 16.9967112, "lon": 81.8015194}, {"type": "node", "id": 7088103770, "lat": 16.9965718, "lon": 81.8017319}, {"type": "node", "id": 7088103771, "lat": 16.9963608, "lon": 81.80157}, {"type": "node", "id": 7088103772, "lat": 16.9965718, "lon": 81.8015396, "tags": {"amenity": "bank", "name": "SBI atm"}}, {"type": "node", "id": 8113807186, "lat": 17.0242308, "lon": 81.8023411, "tags": {"addr:city": "Rajahmundry", "addr:postcode": "533106", "addr:street": "Rajahmundry - Lalacheruvu Road", "amenity": "bank", "atm": "yes", "brand": "State Bank of India", "brand:wikidata": "Q1340361", "brand:wikipedia": "en:State Bank of India", "name": "State Bank of India"}}, {"type": "node", "id": 8116542286, "lat": 16.7530869, "lon": 81.6923365, "tags": {"amenity": "bank", "name": "SBI Bank and ATM"}}, {"type": "node", "id": 8116542289, "lat": 16.7505386, "lon": 81.6876128}, {"type": "node", "id": 8116542290, "lat": 16.7505103, "lon": 81.6877242}, {"type": "node", "id": 8116542291, "lat": 16.7503491, "lon": 81.6876924}, {"type": "node", "id": 8116542292, "lat": 16.7503796, "lon": 81.687565}, {"type": "node", "id": 8116542293, "lat": 16.7506581, "lon": 81.6879071, "tags": {"amenity": "bank", "brand": "Corporation Bank", "brand:wikidata": "Q2003387", "brand:wikipedia": "en:Corporation Bank", "name": "Corporation Bank"}}, {"type": "node", "id": 8116992457, "lat": 16.762089, "lon": 81.6860165, "tags": {"amenity": "bank", "brand": "Andhra Bank", "brand:wikidata": "Q2003476", "brand:wikipedia": "en:Andhra Bank", "name": "Andhra Bank"}}, {"type": "node", "id": 8116992470, "lat": 16.7614154, "lon": 81.6842027, "tags": {"amenity": "bank", "brand": "Axis Bank", "brand:wikidata": "Q2003549", "brand:wikipedia": "en:Axis Bank", "name": "Axis Bank"}}, {"type": "node", "id": 8116996335, "lat": 16.7570311, "lon": 81.6754567, "tags": {"amenity": "bank", "name": "Andhra Bank, Sajjapuram"}}, {"type": "node", "id": 8116996337, "lat": 16.7567225, "lon": 81.6767479, "tags": {"amenity": "bank", "name": "Canera Bank"}}, {"type": "node", "id": 8116996338, "lat": 16.7565088, "lon": 81.6765388, "tags": {"amenity": "bank", "brand": "State Bank of India", "brand:wikidata": "Q1340361", "brand:wikipedia": "en:State Bank of India", "name": "State Bank of India"}}, {"type": "node", "id": 11401542843, "lat": 16.9289266, "lon": 81.9247893}, {"type": "node", "id": 11401542844, "lat": 16.9289147, "lon": 81.9249946}, {"type": "node", "id": 11401542845, "lat": 16.9287894, "lon": 81.9249946}, {"type": "node", "id": 11401542846, "lat": 16.9288081, "lon": 81.9247857}, {"type": "node", "id": 11401542847, "lat": 16.9288203, "lon": 81.9251355}, {"type": "node", "id": 11401542848, "lat": 16.9288125, "lon": 81.9250035}, {"type": "node", "id": 11401542849, "lat": 16.9287354, "lon": 81.9249989}, {"type": "node", "id": 11401542850, "lat": 16.928741, "lon": 81.9250479}, {"type": "node", "id": 11401542851, "lat": 16.9286952, "lon": 81.9250584}, {"type": "node", "id": 11401542852, "lat": 16.9287008, "lon": 81.9251495}, {"type": "node", "id": 11413476392, "lat": 16.9301807, "lon": 81.9246533}, {"type": "node", "id": 11413476393, "lat": 16.9300645, "lon": 81.9246147}, {"type": "node", "id": 11413476394, "lat": 16.9299945, "lon": 81.9248418}, {"type": "node", "id": 11413476395, "lat": 16.9301048, "lon": 81.9248774}, {"type": "node", "id": 11417970737, "lat": 16.9292706, "lon": 81.9250091}, {"type": "node", "id": 11417970738, "lat": 16.929216, "lon": 81.9249967}, {"type": "node", "id": 11417970739, "lat": 16.9292084, "lon": 81.9250578}, {"type": "node", "id": 11417970740, "lat": 16.9292656, "lon": 81.9250595}, {"type": "node", "id": 11418005537, "lat": 16.9287307, "lon": 81.9250018}, {"type": "node", "id": 11418005538, "lat": 16.9286857, "lon": 81.9249982}, {"type": "node", "id": 11418005539, "lat": 16.9286872, "lon": 81.9250561}, {"type": "node", "id": 11418005540, "lat": 16.928737, "lon": 81.9250452}, {"type": "node", "id": 11627446960, "lat": 16.6055599, "lon": 81.8334041, "tags": {"addr:city": "Kodamanchili", "addr:district": "West Godavari", "addr:postcode": "534269", "addr:street": "Mainroad", "amenity": "bank", "atm": "yes", "drive_through": "yes", "name": "State Bank of India SBI", "wikidata": "Q65957567"}}, {"type": "node", "id": 11648189563, "lat": 17.0116951, "lon": 81.797578, "tags": {"amenity": "bank", "brand": "State Bank of India", "brand:wikidata": "Q1340361", "check_date": "2024-02-21", "name": "State Bank of India", "short_name": "SBI"}}, {"type": "node", "id": 11648189565, "lat": 17.0098633, "lon": 81.7951791, "tags": {"amenity": "bank", "brand": "ICICI Bank", "brand:wikidata": "Q1653258", "check_date": "2024-02-21", "name": "ICICI Bank", "short_name": "ICICI"}}, {"type": "node", "id": 11787426552, "lat": 16.7631481, "lon": 81.8424569, "tags": {"amenity": "bank", "brand": "HDFC Bank", "brand:wikidata": "Q631047", "check_date": "2024-06-21", "name": "HDFC Bank", "short_name": "HDFC"}}, {"type": "node", "id": 11787460744, "lat": 16.788268, "lon": 81.889585, "tags": {"amenity": "bank", "brand": "Axis Bank", "brand:wikidata": "Q2003549", "name": "Axis Bank", "wikidata": "Q73753365"}}, {"type": "node", "id": 12103834368, "lat": 16.8318481, "lon": 81.7883753, "tags": {"addr:city": "Atreyapuram", "addr:district": "East Godavari", "addr:postcode": "533235", "addr:street": "Opposite Busstop", "amenity": "bank", "atm": "yes", "brand": "IDBI Bank", "brand:wikidata": "Q3633485", "drive_through": "yes", "name": "IDBI Bank", "short_name": "IDBI"}}, {"type": "node", "id": 12103834990, "lat": 16.8318911, "lon": 81.7915881, "tags": {"addr:city": "Atreyapuram", "addr:district": "East Godavari", "addr:postcode": "533235", "addr:street": "Beside Main Road", "amenity": "bank", "atm": "yes", "brand": "State Bank of India", "brand:wikidata": "Q1340361", "drive_through": "yes", "name": "State Bank of India", "short_name": "SBI"}}, {"type": "node", "id": 12254702267, "lat": 16.9586875, "lon": 81.7361601, "tags": {"amenity": "bank", "atm": "yes"}}, {"type": "node", "id": 12270857654, "lat": 17.0068571, "lon": 81.7831906, "tags": {"air_conditioning": "yes", "amenity": "bank", "check_date": "2024-10-20", "level": "1", "name": "Union Bank", "operator": "Union Bank"}}, {"type": "node", "id": 12270860096, "lat": 17.0061205, "lon": 81.7856796, "tags": {"amenity": "bank", "level": "0", "name": "Bandhan Bank"}}, {"type": "node", "id": 12270860097, "lat": 17.0059819, "lon": 81.785669, "tags": {"amenity": "bank", "level": "0", "name": "Punjab And Sind Bank"}}, {"type": "node", "id": 12270870693, "lat": 17.0051163, "lon": 81.7852227, "tags": {"amenity": "bank", "atm": "yes", "level": "1", "name": "HDFC", "operator": "HDFC Bank"}}, {"type": "node", "id": 12270931765, "lat": 17.0071595, "lon": 81.7856438, "tags": {"amenity": "bank", "atm": "yes", "branch": "Danvaipeta", "name": "SBI", "operator": "State Bank"}}, {"type": "node", "id": 12270943146, "lat": 17.0077027, "lon": 81.7853259, "tags": {"amenity": "bank", "atm": "yes", "level": "0", "name": "ICICI Bank", "operator": "ICICI"}}, {"type": "node", "id": 12270961634, "lat": 17.0078243, "lon": 81.7833924, "tags": {"amenity": "bank", "atm": "yes", "check_date": "2024-10-20", "level": "0", "name": "HDFC Bank", "operator": "HDFC Bank"}}, {"type": "node", "id": 13088354359, "lat": 16.8445527, "lon": 81.6878425, "tags": {"amenity": "bank", "brand": "Indian Bank", "brand:wikidata": "Q2003789", "name": "Indian Bank", "operator": "Indian Bank"}}, {"type": "node", "id": 13088371186, "lat": 16.8652489, "lon": 81.9274916, "tags": {"amenity": "bank", "name": "Union Bank"}}, {"type": "node", "id": 13088371187, "lat": 16.8654136, "lon": 81.92734, "tags": {"amenity": "bank", "branch": "of India", "brand": "Union Bank of India", "brand:wikidata": "Q2004078", "name": "Union Bank of India"}}, {"type": "node", "id": 13088371188, "lat": 16.8656273, "lon": 81.9270956, "tags": {"amenity": "bank", "brand": "Central Bank of India", "brand:wikidata": "Q2007090", "name": "Central Bank of India"}}, {"type": "node", "id": 13088385667, "lat": 16.7990427, "lon": 81.6715314, "tags": {"amenity": "bank", "brand": "Central Bank of India", "brand:wikidata": "Q2007090", "name": "Central Bank of India"}}, {"type": "node", "id": 13088408944, "lat": 16.6994218, "lon": 82.0368724, "tags": {"amenity": "bank", "name": "South Indian Bank", "not:brand:wikidata": "Q2044973"}}, {"type": "node", "id": 13088470819, "lat": 16.848084, "lon": 81.6913484, "tags": {"amenity": "bank", "name": "SBI"}}, {"type": "node", "id": 13335596120, "lat": 17.0137187, "lon": 81.771957, "tags": {"amenity": "bank", "brand": "Union Bank of India", "brand:wikidata": "Q2004078", "name": "Union Bank of India"}}, {"type": "way", "id": 198432011, "nodes": [2085614393, 2085614367, 2085614255, 2085614253, 2085614393], "tags": {"amenity": "bank", "brand": "State Bank of India", "brand:wikidata": "Q1340361", "building": "yes", "name": "State Bank of India", "short_name": "SBI"}}, {"type": "way", "id": 200392830, "nodes": [2103842625, 2103842759, 2103842590, 2103842624, 2103842625], "tags": {"amenity": "bank", "building": "yes"}}, {"type": "way", "id": 205584876, "nodes": [2155591175, 2155591042, 2155590885, 2155591001, 2155591175], "tags": {"addr:housenumber": "25-8-1", "addr:street": "8TH STREET", "amenity": "bank", "building": "SHOP", "name": "ANDHRA BANK,SWEET SHOP,PAN SHOP,XEROX & INTERNET,MIRCHI HOTEL", "opening_hours": "Mo-Fr 08:00-16:00; Sa 08:00-12:00"}}, {"type": "way", "id": 391789517, "nodes": [3950385638, 3950385639, 3950385640, 3950385641, 3950385638], "tags": {"amenity": "bank", "brand:wikidata": "Q2003476", "brand:wikipedia": "en:Andhra Bank", "building": "yes", "name": "Andhra Bank", "name:en": "Andhra Bank", "website": "https://www.andhrabank.in"}}, {"type": "way", "id": 416657007, "nodes": [4173946479, 4173946480, 4173946481, 4173946482, 4173946479], "tags": {"addr:postcode": "534342", "amenity": "bank", "atm": "yes", "brand:wikidata": "Q1340361", "brand:wikipedia": "en:State Bank of India", "building": "yes", "name": "State Bank of India", "short_name": "SBI", "website": "https://www.sbi.co.in"}}, {"type": "way", "id": 758915978, "nodes": [7088103768, 7088103769, 7088103770, 7088103771, 7088103768], "tags": {"amenity": "bank", "building": "yes", "name": "SBI atm"}}, {"type": "way", "id": 871380990, "nodes": [8116542289, 8116542290, 8116542291, 8116542292, 8116542289], "tags": {"amenity": "bank", "brand": "State Bank of India", "brand:wikidata": "Q1340361", "brand:wikipedia": "en:State Bank of India", "building": "yes", "name": "State Bank of India"}}, {"type": "way", "id": 1229515797, "nodes": [11401542843, 11401542844, 11401542845, 11401542846, 11401542843], "tags": {"addr:city": "Dwarapudi", "addr:district": "DR.BR.konaseema district", "addr:housenumber": "02", "addr:postcode": "533341", "addr:street": "Tokada- Dwarapudi Road", "air_conditioning": "yes", "amenity": "bank", "atm": "yes", "brand": "State Bank of India", "brand:wikidata": "Q1340361", "building": "yes", "name": "State Bank of India", "opening_hours": "Mo-Sa 09:00-17:00", "operator": "Government", "short_name": "SBI", "wheelchair": "no"}}, {"type": "way", "id": 1229515798, "nodes": [11401542847, 11401542848, 11401542849, 11401542850, 11401542851, 11401542852, 11401542847], "tags": {"addr:city": "Dwarapudi", "addr:district": "DR.BR.konaseema district", "addr:housenumber": "03", "addr:postcode": "533341", "addr:street": "Tokada- Dwarapudi Road", "amenity": "bank", "atm": "yes", "building": "yes", "name": "Union Bank Of India", "opening_hours": "Mo-Sa 07:00-16:00", "operator": "Private", "wheelchair": "no"}}, {"type": "way", "id": 1230706677, "nodes": [11413476392, 11413476393, 11413476394, 11413476395, 11413476392], "tags": {"amenity": "bank", "building": "yes", "building:levels": "2", "name": "Society Bank"}}, {"type": "way", "id": 1231165622, "nodes": [11417970737, 11417970738, 11417970739, 11417970740, 11417970737], "tags": {"amenity": "bank", "brand": "State Bank of India", "brand:wikidata": "Q1340361", "building": "yes", "name": "State Bank of India", "short_name": "SBI"}}, {"type": "way", "id": 1231169981, "nodes": [11418005537, 11418005538, 11418005539, 11418005540, 11418005537], "tags": {"amenity": "bank", "atm": "yes", "brand": "Union Bank of India", "brand:wikidata": "Q2004078", "building": "yes", "name": "Union Bank of India"}}]}