{"version": 0.6, "generator": "Overpass API 0.7.62.8 e802775f", "osm3s": {"timestamp_osm_base": "2025-11-29T17:16:58Z", "copyright": "The data included in this document is from www.openstreetmap.org. The data is made available under ODbL."}, "elements": [{"type": "node", "id": 2587675394, "lat": 16.8012, "lon": 76.77912, "tags": {"amenity": "school", "name": "Government Lower Primary School Ambedkar Nagar Madriki", "name:kn": "\u0cb8\u0cb0\u0ccd\u0c95\u0cbe\u0cb0\u0cbf \u0c95\u0cbf\u0cb0\u0cbf\u0caf \u0caa\u0ccd\u0cb0\u0cbe\u0ca5\u0cae\u0cbf\u0c95 \u0cb6\u0cbe\u0cb2\u0cc6 \u0cae\u0ca6\u0ccd\u0cb0\u0cbf\u0c95\u0cbf", "operator": "Government", "school_code": "29330709603", "taluk": "Shahapur"}}, {"type": "node", "id": 2587675436, "lat": 16.8022, "lon": 76.76968, "tags": {"amenity": "school", "name": "Government Lower Primary School Syednagar Maddi Maddarki", "name:kn": "\u0cb8\u0cb0\u0ccd\u0c95\u0cbe\u0cb0\u0cbf \u0c95\u0cbf\u0cb0\u0cbf\u0caf \u0caa\u0ccd\u0cb0\u0cbe\u0ca5\u0cae\u0cbf\u0c95 \u0cb6\u0cbe\u0cb2\u0cc6", "operator": "Government", "school_code": "29330709607", "taluk": "Shahapur"}}, {"type": "node", "id": 2587675446, "lat": 16.80239, "lon": 76.77538, "tags": {"amenity": "school", "name": "Government Lower Primary Urdu School, Madriki", "name:kn": "\u0cb8\u0cb0\u0ccd\u0c95\u0cbe\u0cb0\u0cbf \u0c95\u0cbf\u0cb0\u0cbf\u0caf \u0caa\u0ccd\u0cb0\u0cbe\u0ca5\u0cae\u0cbf\u0c95 \u0c89\u0cb0\u0ccd\u0ca6\u0cc1 \u0cb6\u0cbe\u0cb2\u0cc6", "operator": "Government", "school_code": "29330709604", "taluk": "Shahapur"}}, {"type": "node", "id": 2587675757, "lat": 16.80517, "lon": 76.77913, "tags": {"amenity": "school", "name": "Government Higher Primary School Maddarki", "name:kn": "\u0cb8\u0cb0\u0ccd\u0c95\u0cbe\u0cb0\u0cbf \u0cb9\u0cbf\u0cb0\u0cbf\u0caf \u0caa\u0ccd\u0cb0\u0cbe\u0ca5\u0cae\u0cbf\u0c95 \u0cb6\u0cbe\u0cb2\u0cc6 \u0cae\u0ca6\u0ccd\u0cb0\u0cbf\u0c95\u0cbf", "operator": "Government", "school_code": "29330709601", "taluk": "Shahapur"}}, {"type": "node", "id": 2587675966, "lat": 16.82594, "lon": 76.80478, "tags": {"amenity": "school", "name": "Government High School, Mudabala", "name:kn": "\u0cb8\u0cb0\u0ccd\u0c95\u0cbe\u0cb0\u0cbf \u0caa\u0ccd\u0cb0\u0ccc\u0ca1 \u0cb6\u0cbe\u0cb2\u0cc6, \u0cae\u0cc1\u0ca6\u0cb5\u0cbe\u0cb3", "operator": "Government", "school_code": "29330710405", "taluk": "Shahapur"}}, {"type": "node", "id": 2587676020, "lat": 16.78759, "lon": 76.79774, "tags": {"amenity": "school", "name": "Government Lower Primary School, Aralahalli", "name:kn": "\u0cb8\u0cb0\u0ccd\u0c95\u0cbe\u0cb0\u0cbf \u0c95\u0cbf\u0cb0\u0cbf\u0caf \u0caa\u0ccd\u0cb0\u0cbe\u0ca5\u0cae\u0cbf\u0c95 \u0cb6\u0cbe\u0cb2\u0cc6 \u0c85\u0cb0\u0cb2\u0cb9\u0cb3\u0ccd\u0cb3\u0cbf", "operator": "Government", "school_code": "29330700701"}}, {"type": "node", "id": 2587676171, "lat": 16.76716, "lon": 76.70089, "tags": {"amenity": "school", "name": "Government Lower Primary School Maddi Tanda", "name:kn": "\u0cb8\u0cb0\u0ccd\u0c95\u0cbe\u0cb0\u0cbf \u0c95\u0cbf\u0cb0\u0cbf\u0caf \u0caa\u0ccd\u0cb0\u0cbe\u0ca5\u0cae\u0cbf\u0c95 \u0cb6\u0cbe\u0cb2\u0cc6", "operator": "Government", "school_code": "29330705502"}}, {"type": "node", "id": 2587676224, "lat": 16.76329, "lon": 76.67367, "tags": {"addr:place": "R. N Tanda Ukkinal", "amenity": "school", "name": "Lower Primary School", "name:kn": "\u0c95\u0cbf\u0cb0\u0cbf\u0caf \u0caa\u0ccd\u0cb0\u0cbe\u0ca5\u0cae\u0cbf\u0c95 \u0cb6\u0cbe\u0cb2\u0cc6", "operator": "Government", "school_code": "29330713802"}}, {"type": "node", "id": 2587676241, "lat": 16.77737, "lon": 76.78724, "tags": {"amenity": "school", "name": "Government Lower Primary School Sadyapura", "name:kn": "\u0cb8\u0cb0\u0ccd\u0c95\u0cbe\u0cb0\u0cbf \u0c95\u0cbf\u0cb0\u0cbf\u0caf \u0caa\u0ccd\u0cb0\u0cbe\u0ca5\u0cae\u0cbf\u0c95 \u0cb6\u0cbe\u0cb2\u0cc6", "operator": "Government", "school_code": "29330715601"}}, {"type": "node", "id": 2963946920, "lat": 16.8002177, "lon": 76.7768209}, {"type": "node", "id": 2963946921, "lat": 16.799907, "lon": 76.7771562}, {"type": "node", "id": 2963946922, "lat": 16.8006516, "lon": 76.7778375}, {"type": "node", "id": 2963946923, "lat": 16.8009238, "lon": 76.777521}, {"type": "node", "id": 2963946924, "lat": 16.8004642, "lon": 76.7772018, "tags": {"amenity": "school", "name": "Nisarga Lower Primary School", "name:kn": "\u0c95\u0cbf\u0cb0\u0cbf\u0caf \u0caa\u0ccd\u0cb0\u0cbe\u0ca5\u0cae\u0cbf\u0c95 \u0cb6\u0cbe\u0cb2\u0cc6"}}, {"type": "way", "id": 292834068, "nodes": [2963946920, 2963946921, 2963946922, 2963946923, 2963946920], "tags": {"amenity": "school"}}]}