{"version": 0.6, "generator": "Overpass API 0.7.62.8 e802775f", "osm3s": {"timestamp_osm_base": "2025-11-29T17:07:44Z", "copyright": "The data included in this document is from www.openstreetmap.org. The data is made available under ODbL."}, "elements": [{"type": "node", "id": 2573218252, "lat": 16.50419, "lon": 77.12495, "tags": {"amenity": "school", "name": "Government  Lower Primary School Habasihal Gate", "name:kn": "\u0cb8\u0cb0\u0ccd\u0c95\u0cbe\u0cb0\u0cbf \u0c95\u0cbf\u0cb0\u0cbf\u0caf \u0caa\u0ccd\u0cb0\u0cbe\u0ca5\u0cae\u0cbf\u0c95 \u0cb6\u0cbe\u0cb2\u0cc6", "operator": "Government"}}, {"type": "node", "id": 2573218253, "lat": 16.49319, "lon": 77.12486, "tags": {"amenity": "school", "name": "Government Lower Primary School Habasihal", "name:kn": "\u0cb8\u0cb0\u0ccd\u0c95\u0cbe\u0cb0\u0cbf \u0c95\u0cbf\u0cb0\u0cbf\u0caf \u0caa\u0ccd\u0cb0\u0cbe\u0ca5\u0cae\u0cbf\u0c95 \u0cb6\u0cbe\u0cb2\u0cc6 \u0cb9\u0cac\u0cbf\u0cb6\u0cbf\u0cb9\u0cbe\u0cb3", "operator": "Government"}}, {"type": "node", "id": 2573218285, "lat": 16.43098, "lon": 77.23525, "tags": {"amenity": "school", "name": "Government High School Shivapur", "name:kn": "\u0cb8\u0cb0\u0ccd\u0c95\u0cbe\u0cb0\u0cbf \u0caa\u0ccd\u0cb0\u0ccc\u0ca1 \u0cb6\u0cbe\u0cb2\u0cc6 \u0cb6\u0cb9\u0cbe\u0caa\u0cc1\u0cb0", "operator": "Government", "ref": "SH128", "school_code": "29330712802", "taluk": "Shahapur"}}, {"type": "node", "id": 2573218320, "lat": 16.5111418, "lon": 76.9510552, "tags": {"addr:place": "Goudoor", "amenity": "school", "name": "Lower Primary School", "name:kn": "\u0cb8\u0cb0\u0ccd\u0c95\u0cbe\u0cb0\u0cbf \u0c95\u0cbf\u0cb0\u0cbf\u0caf \u0caa\u0ccd\u0cb0\u0cbe\u0ca5\u0cae\u0cbf\u0c95 \u0cb6\u0cbe\u0cb2\u0cc6", "operator": "Government"}}, {"type": "node", "id": 2573218341, "lat": 16.48762, "lon": 77.21692, "tags": {"amenity": "school", "name": "Government Higher Primary School Joladjedagi", "name:kn": "\u0cb8\u0cb0\u0ccd\u0c95\u0cbe\u0cb0\u0cbf \u0cb9\u0cbf\u0cb0\u0cbf\u0caf \u0caa\u0ccd\u0cb0\u0cbe\u0ca5\u0cae\u0cbf\u0c95 \u0cb6\u0cbe\u0cb2\u0cc6, \u0c9c\u0ccb\u0cb3\u0ca6\u0ca1\u0c97\u0cbf", "operator": "Government", "school_code": "29330706901", "taluk": "Shahapur"}}, {"type": "node", "id": 2573218350, "lat": 16.45993, "lon": 77.2397, "tags": {"amenity": "school", "name": "Government Higher Primary School Konganda [W]", "name:kn": "\u0cb8\u0cb0\u0ccd\u0c95\u0cbe\u0cb0\u0cbf \u0cb9\u0cbf\u0cb0\u0cbf\u0caf \u0caa\u0ccd\u0cb0\u0cbe\u0ca5\u0cae\u0cbf\u0c95 \u0cb6\u0cbe\u0cb2\u0cc6, \u0c95\u0cca\u0c82\u0c97\u0c82\u0ca1\u0cbf", "operator": "Government", "school_code": "29330708501", "taluk": "Shahapur"}}, {"type": "node", "id": 2573218372, "lat": 16.43109, "lon": 77.23513, "tags": {"amenity": "school", "name": "Government Higher Primary School Shivapur", "name:kn": "\u0cb8\u0cb0\u0ccd\u0c95\u0cbe\u0cb0\u0cbf \u0cb9\u0cbf\u0cb0\u0cbf\u0caf \u0caa\u0ccd\u0cb0\u0cbe\u0ca5\u0cae\u0cbf\u0c95 \u0cb6\u0cbe\u0cb2\u0cc6 \u0cb6\u0cb9\u0cbe\u0caa\u0cc1\u0cb0", "operator": "Government", "ref": "SH128", "school_code": "29330712801", "taluk": "Shahapur"}}, {"type": "node", "id": 2573218379, "lat": 16.512, "lon": 76.9342, "tags": {"addr:place": "Tonnur", "amenity": "school", "name": "Higher Primary School", "name:kn": "\u0cb8\u0cb0\u0ccd\u0c95\u0cbe\u0cb0\u0cbf \u0cb9\u0cbf\u0cb0\u0cbf\u0caf \u0caa\u0ccd\u0cb0\u0cbe\u0ca5\u0cae\u0cbf\u0c95 \u0cb6\u0cbe\u0cb2\u0cc6, \u0c9f\u0cc2\u0ca3\u0ccd\u0ca3\u0cc2\u0cb0\u0cc1", "operator": "Government"}}, {"type": "node", "id": 2573218380, "lat": 16.51668, "lon": 77.08885, "tags": {"amenity": "school", "name": "Government Higher Primary School Tumakur", "name:kn": "\u0cb8\u0cb0\u0ccd\u0c95\u0cbe\u0cb0\u0cbf \u0cb9\u0cbf\u0cb0\u0cbf\u0caf \u0caa\u0ccd\u0cb0\u0cbe\u0ca5\u0cae\u0cbf\u0c95 \u0cb6\u0cbe\u0cb2\u0cc6 \u0ca4\u0cc1\u0cae\u0c95\u0cc1\u0cb0", "operator": "Government"}}, {"type": "node", "id": 2573218398, "lat": 16.51251, "lon": 77.08839, "tags": {"amenity": "school", "name": "Government Lower Primary School Urdu Tumakur", "name:kn": "\u0cb8\u0cb0\u0ccd\u0c95\u0cbe\u0cb0\u0cbf \u0c95\u0cbf\u0cb0\u0cbf\u0caf \u0caa\u0ccd\u0cb0\u0cbe\u0ca5\u0cae\u0cbf\u0c95 \u0c89\u0cb0\u0ccd\u0ca6\u0cc1 \u0cb6\u0cbe\u0cb2\u0cc6 \u0ca4\u0cc1\u0cae\u0c95\u0cc1\u0cb0", "operator": "Government"}}, {"type": "node", "id": 2573218399, "lat": 16.42689, "lon": 77.2572, "tags": {"amenity": "school", "name": "Government Lower Primary School Aganihal", "name:kn": "\u0cb8\u0cb0\u0ccd\u0c95\u0cbe\u0cb0\u0cbf \u0c95\u0cbf\u0cb0\u0cbf\u0caf \u0caa\u0ccd\u0cb0\u0cbe\u0ca5\u0cae\u0cbf\u0c95 \u0cb6\u0cbe\u0cb2\u0cc6, \u0c85\u0c97\u0ccd\u0ca8\u0cbf\u0cb9\u0cbe\u0cb3", "operator": "Government", "school_code": "29330700101", "taluk": "Shahapur"}}, {"type": "node", "id": 2573218403, "lat": 16.47755, "lon": 77.1674338, "tags": {"amenity": "school", "name": "Government Lower Primary School Amdbedkar Nagar Bandebembali", "name:kn": "\u0c95\u0cbf\u0cb0\u0cbf\u0caf \u0caa\u0ccd\u0cb0\u0cbe\u0ca5\u0cae\u0cbf\u0c95 \u0cb6\u0cbe\u0cb2\u0cc6", "operator": "Government"}}, {"type": "node", "id": 2573218413, "lat": 16.5171, "lon": 77.19402, "tags": {"amenity": "school", "name": "Government Lower Primary School Benakanahalli(K)", "name:kn": "\u0cb8\u0cb0\u0ccd\u0c95\u0cbe\u0cb0\u0cbf \u0c95\u0cbf\u0cb0\u0cbf\u0caf \u0caa\u0ccd\u0cb0\u0cbe\u0ca5\u0cae\u0cbf\u0c95 \u0cb6\u0cbe\u0cb2\u0cc6, \u0cac\u0cc6\u0ca8\u0c95\u0ca8\u0cb9\u0cb3\u0ccd\u0cb3\u0cbf", "operator": "Government", "school_code": "29330701801", "taluk": "Shahapur"}}, {"type": "node", "id": 2573218423, "lat": 16.5138437, "lon": 77.0205643, "tags": {"addr:place": "Channura", "amenity": "school", "name": "Lower Primary School", "name:kn": "\u0cb8\u0cb0\u0ccd\u0c95\u0cbe\u0cb0\u0cbf \u0c95\u0cbf\u0cb0\u0cbf\u0caf \u0caa\u0ccd\u0cb0\u0cbe\u0ca5\u0cae\u0cbf\u0c95 \u0cb6\u0cbe\u0cb2\u0cc6, \u0c9a\u0ca8\u0ccd\u0ca8\u0cc2\u0cb0", "operator": "Government"}}, {"type": "node", "id": 2573218435, "lat": 16.4331, "lon": 77.21924, "tags": {"amenity": "school", "name": "Government Lower Primary School Gonal", "name:kn": "\u0cb8\u0cb0\u0ccd\u0c95\u0cbe\u0cb0\u0cbf \u0c95\u0cbf\u0cb0\u0cbf\u0caf \u0caa\u0ccd\u0cb0\u0cbe\u0ca5\u0cae\u0cbf\u0c95 \u0cb6\u0cbe\u0cb2\u0cc6, \u0c97\u0ccb\u0ca8\u0cbe\u0cb2", "operator": "Government", "school_code": "29330704101", "taluk": "Shahapur"}}, {"type": "node", "id": 2573218436, "lat": 16.5351738, "lon": 77.0200714, "tags": {"addr:place": "Goudur", "amenity": "school", "name": "Lower Primary School", "name:kn": "\u0cb8\u0cb0\u0ccd\u0c95\u0cbe\u0cb0\u0cbf \u0c95\u0cbf\u0cb0\u0cbf\u0caf \u0caa\u0ccd\u0cb0\u0cbe\u0ca5\u0cae\u0cbf\u0c95 \u0cb6\u0cbe\u0cb2\u0cc6, \u0c97\u0ccc\u0ca1\u0cc2\u0cb0", "operator": "Government"}}, {"type": "node", "id": 2573218437, "lat": 16.42151, "lon": 77.25741, "tags": {"amenity": "school", "name": "Government Lower Primary School Gundaloor", "name:kn": "\u0cb8\u0cb0\u0ccd\u0c95\u0cbe\u0cb0\u0cbf \u0c95\u0cbf\u0cb0\u0cbf\u0caf \u0caa\u0ccd\u0cb0\u0cbe\u0ca5\u0cae\u0cbf\u0c95 \u0cb6\u0cbe\u0cb2\u0cc6, \u0c97\u0cc1\u0c82\u0ca1\u0ccd\u0cb2\u0cc2\u0cb0\u0cc1", "operator": "Government", "school_code": "29330704801", "taluk": "Shahapur"}}, {"type": "node", "id": 2573218448, "lat": 16.502, "lon": 77.1107, "tags": {"amenity": "school", "name": "Government Lower Primary School Itaga", "name:kn": "\u0cb8\u0cb0\u0ccd\u0c95\u0cbe\u0cb0\u0cbf \u0c95\u0cbf\u0cb0\u0cbf\u0caf \u0caa\u0ccd\u0cb0\u0cbe\u0ca5\u0cae\u0cbf\u0c95 \u0cb6\u0cbe\u0cb2\u0cc6, \u0c87\u0c9f\u0c97\u0cbe", "operator": "Government"}}, {"type": "node", "id": 2573218449, "lat": 16.48633, "lon": 77.14817, "tags": {"amenity": "school", "name": "Government Lower Primary School Kadarapur", "name:kn": "\u0cb8\u0cb0\u0ccd\u0c95\u0cbe\u0cb0\u0cbf \u0c95\u0cbf\u0cb0\u0cbf\u0caf \u0caa\u0ccd\u0cb0\u0cbe\u0ca5\u0cae\u0cbf\u0c95 \u0cb6\u0cbe\u0cb2\u0cc6 \u0c95\u0ca6\u0cb0\u0cbe\u0caa\u0cc2\u0cb0", "operator": "Government"}}, {"type": "node", "id": 2573218487, "lat": 16.49354, "lon": 77.13539, "tags": {"amenity": "school", "name": "Government Lower Primary School Rotanadagi", "name:kn": "\u0cb8\u0cb0\u0ccd\u0c95\u0cbe\u0cb0\u0cbf \u0c95\u0cbf\u0cb0\u0cbf\u0caf \u0caa\u0ccd\u0cb0\u0cbe\u0ca5\u0cae\u0cbf\u0c95 \u0cb6\u0cbe\u0cb2\u0cc6 \u0cb0\u0ccb\u0c9f\u0ccd\u0ca8\u0ca1\u0c97\u0cbf", "operator": "Government"}}, {"type": "node", "id": 2573218492, "lat": 16.49973, "lon": 77.2026, "tags": {"amenity": "school", "name": "Government Lower Primary School Shivanoor", "name:kn": "\u0cb8\u0cb0\u0ccd\u0c95\u0cbe\u0cb0\u0cbf \u0c95\u0cbf\u0cb0\u0cbf\u0caf \u0caa\u0ccd\u0cb0\u0cbe\u0ca5\u0cae\u0cbf\u0c95 \u0cb6\u0cbe\u0cb2\u0cc6, \u0cb6\u0cbf\u0cb5\u0ca8\u0cc2\u0cb0", "operator": "Government", "ref": "SH127", "school_code": "29330712701", "taluk": "Shahapur"}}, {"type": "node", "id": 2573218494, "lat": 16.45321, "lon": 77.25169, "tags": {"amenity": "school", "name": "Government Lower Primary School Sugur", "name:kn": "\u0cb8\u0cb0\u0ccd\u0c95\u0cbe\u0cb0\u0cbf \u0c95\u0cbf\u0cb0\u0cbf\u0caf \u0caa\u0ccd\u0cb0\u0cbe\u0ca5\u0cae\u0cbf\u0c95 \u0cb6\u0cbe\u0cb2\u0cc6, \u0cb8\u0cc2\u0c97\u0cc2\u0cb0\u0cc1", "operator": "Government", "school_code": "29330713001", "taluk": "Shahapur"}}, {"type": "node", "id": 2573218513, "lat": 16.4794951, "lon": 77.1642038, "tags": {"amenity": "school", "name": "Government Model Primary School Bendebembali", "name:kn": "\u0cb8\u0cb0\u0ccd\u0c95\u0cbe\u0cb0\u0cbf \u0cae\u0cbe\u0ca6\u0cb0\u0cbf \u0caa\u0ccd\u0cb0\u0cbe\u0ca5\u0cae\u0cbf\u0c95 \u0cb6\u0cbe\u0cb2\u0cc6 \u0cac\u0cc6\u0c82\u0ca1\u0cac\u0cc6\u0c82\u0cac\u0cb3\u0cbf", "operator": "Government"}}, {"type": "node", "id": 2573218520, "lat": 16.48173, "lon": 77.1657611, "tags": {"amenity": "school", "name": "Government Urdu Lower Primary School Bendebemballi", "name:kn": "\u0cb8\u0cb0\u0ccd\u0c95\u0cbe\u0cb0\u0cbf \u0c95\u0cbf\u0cb0\u0cbf\u0caf \u0caa\u0ccd\u0cb0\u0cbe\u0ca5\u0cae\u0cbf\u0c95 \u0c89\u0cb0\u0ccd\u0ca6\u0cc1 \u0cb6\u0cbe\u0cb2\u0cc6 \u0cac\u0cc6\u0c82\u0ca1\u0cac\u0cc6\u0c82\u0cac\u0cb3\u0cbf", "operator": "Government"}}, {"type": "node", "id": 2573448367, "lat": 16.5065, "lon": 77.20999, "tags": {"amenity": "school", "name": "Government Higher Primary School Gondadgi", "name:kn": "\u0cb8\u0cb0\u0ccd\u0c95\u0cbe\u0cb0\u0cbf \u0cb9\u0cbf\u0cb0\u0cbf\u0caf \u0caa\u0ccd\u0cb0\u0cbe\u0ca5\u0cae\u0cbf\u0c95 \u0cb6\u0cbe\u0cb2\u0cc6 \u0c97\u0cca\u0c82\u0ca6\u0ca1\u0c97\u0cbf", "operator": "Government", "school_code": "29331003801", "taluk": "Yadgir"}}, {"type": "node", "id": 2573448377, "lat": 16.48437, "lon": 77.24199, "tags": {"amenity": "school", "name": "Government Higher Primary School Gudoor", "name:kn": "\u0cb8\u0cb0\u0ccd\u0c95\u0cbe\u0cb0\u0cbf \u0cb9\u0cbf\u0cb0\u0cbf\u0caf \u0caa\u0ccd\u0cb0\u0cbe\u0ca5\u0cae\u0cbf\u0c95 \u0cb6\u0cbe\u0cb2\u0cc6", "operator": "Government", "school_code": "29331004201", "taluk": "Yadgir"}}, {"type": "node", "id": 2573448723, "lat": 16.51934, "lon": 77.25991, "tags": {"amenity": "school", "name": "Government Lower Primary School Kondapura", "name:kn": "\u0cb8\u0cb0\u0ccd\u0c95\u0cbe\u0cb0\u0cbf \u0c95\u0cbf\u0cb0\u0cbf\u0caf \u0caa\u0ccd\u0cb0\u0cbe\u0ca5\u0cae\u0cbf\u0c95 \u0cb6\u0cbe\u0cb2\u0cc6, \u0c95\u0cca\u0c82\u0ca1\u0cbe\u0caa\u0cc1\u0cb0", "operator": "Government", "school_code": "29331006801", "taluk": "Yadgir"}}, {"type": "node", "id": 2573448755, "lat": 16.52852, "lon": 77.25587, "tags": {"amenity": "school", "name": "Government Lower Primary School Sangawara", "name:kn": "\u0cb8\u0cb0\u0ccd\u0c95\u0cbe\u0cb0\u0cbf \u0c95\u0cbf\u0cb0\u0cbf\u0caf \u0caa\u0ccd\u0cb0\u0cbe\u0ca5\u0cae\u0cbf\u0c95 \u0cb6\u0cbe\u0cb2\u0cc6, \u0cb8\u0c82\u0c97\u0cb5\u0cbe\u0cb0", "operator": "Government", "school_code": "29331011301", "taluk": "Yadgir"}}, {"type": "node", "id": 2587675377, "lat": 16.44812, "lon": 76.81717, "tags": {"amenity": "school", "name": "Government High School Suguru", "name:kn": "\u0cb8\u0cb0\u0ccd\u0c95\u0cbe\u0cb0\u0cbf \u0caa\u0ccd\u0cb0\u0ccc\u0ca1\u0cb6\u0cbe\u0cb2\u0cc6 \u0cb8\u0cc1\u0c97\u0cc2\u0cb0\u0cc1", "operator": "Government", "school_code": "29330820102"}}, {"type": "node", "id": 2587675475, "lat": 16.5062141, "lon": 76.9106902, "tags": {"addr:place": "Kollur", "amenity": "school", "name": "Higher Primary School", "name:kn": "\u0cb8\u0cb0\u0ccd\u0c95\u0cbe\u0cb0\u0cbf \u0cb9\u0cbf\u0cb0\u0cbf\u0caf \u0caa\u0ccd\u0cb0\u0cbe\u0ca5\u0cae\u0cbf\u0c95 \u0cb6\u0cbe\u0cb2\u0cc6 \u0c95\u0cca\u0cb2\u0ccd\u0cb2\u0cc2\u0cb0", "operator": "Government"}}, {"type": "node", "id": 2587675478, "lat": 16.50419, "lon": 77.12495, "tags": {"amenity": "school", "name": "Government Lower Primary School Abasihal Gate", "name:kn": "\u0cb8\u0cb0\u0ccd\u0c95\u0cbe\u0cb0\u0cbf \u0c95\u0cbf\u0cb0\u0cbf\u0caf \u0caa\u0ccd\u0cb0\u0cbe\u0ca5\u0cae\u0cbf\u0c95 \u0cb6\u0cbe\u0cb2\u0cc6", "operator": "Government", "school_code": "29330704902"}}, {"type": "node", "id": 2587675675, "lat": 16.50611, "lon": 76.85155, "tags": {"amenity": "school", "name": "Government Higher Primary School Hemanura", "name:kn": "\u0cb8\u0cb0\u0ccd\u0c95\u0cbe\u0cb0\u0cbf \u0cb9\u0cbf\u0cb0\u0cbf\u0caf \u0caa\u0ccd\u0cb0\u0cbe\u0ca5\u0cae\u0cbf\u0c95 \u0cb6\u0cbe\u0cb2\u0cc6 \u0cb9\u0cc7\u0cae\u0ca8\u0cc2\u0cb0", "operator": "Government", "school_code": "29330808501"}}, {"type": "node", "id": 2587675719, "lat": 16.48558, "lon": 76.84427, "tags": {"amenity": "school", "name": "Government Higher Primary School Karnal", "name:kn": "\u0cb8\u0cb0\u0ccd\u0c95\u0cbe\u0cb0\u0cbf \u0cb9\u0cbf\u0cb0\u0cbf\u0caf \u0caa\u0ccd\u0cb0\u0cbe\u0ca5\u0cae\u0cbf\u0c95 \u0cb6\u0cbe\u0cb2\u0cc6 \u0c95\u0cb0\u0ccd\u0ca8\u0cbe\u0cb3", "operator": "Government", "school_code": "29330811601"}}, {"type": "node", "id": 2587675743, "lat": 16.49253, "lon": 76.80824, "tags": {"amenity": "school", "name": "Government Higher Primary School Kupagal", "name:kn": "\u0cb8\u0cb0\u0ccd\u0c95\u0cbe\u0cb0\u0cbf \u0cb9\u0cbf\u0cb0\u0cbf\u0caf \u0caa\u0ccd\u0cb0\u0cbe\u0ca5\u0cae\u0cbf\u0c95 \u0cb6\u0cbe\u0cb2\u0cc6 \u0c95\u0cc1\u0caa\u0c97\u0cb2\u0ccd", "operator": "Government", "school_code": "29330813301"}}, {"type": "node", "id": 2587675868, "lat": 16.43967, "lon": 76.81675, "tags": {"amenity": "school", "name": "Government Higher Primary School Suguru", "name:kn": "\u0cb8\u0cb0\u0ccd\u0c95\u0cbe\u0cb0\u0cbf \u0cb9\u0cbf\u0cb0\u0cbf\u0caf \u0caa\u0ccd\u0cb0\u0cbe\u0ca5\u0cae\u0cbf\u0c95 \u0cb6\u0cbe\u0cb2\u0cc6 \u0cb8\u0cc1\u0c97\u0cc2\u0cb0\u0cc1", "operator": "Government", "school_code": "29330820101"}}, {"type": "node", "id": 2587675946, "lat": 16.48224, "lon": 77.16698, "tags": {"amenity": "school", "name": "Government HS Bendebembli", "name:kn": "\u0cb8\u0cb0\u0ccd\u0c95\u0cbe\u0cb0\u0cbf \u0caa\u0ccd\u0cb0\u0ccc\u0ca1\u0cb6\u0cbe\u0cb2\u0cc6 \u0cac\u0cc6\u0c82\u0ca1\u0cac\u0cc6\u0c82\u0cac\u0cb3\u0cbf", "operator": "Government", "school_code": "29330701403", "taluk": "Shahapur"}}, {"type": "node", "id": 2587676009, "lat": 16.45272, "lon": 76.83777, "tags": {"amenity": "school", "name": "Government Lower Primary School Addadagi", "name:kn": "\u0cb8\u0cb0\u0ccd\u0c95\u0cbe\u0cb0\u0cbf \u0c95\u0cbf\u0cb0\u0cbf\u0caf \u0caa\u0ccd\u0cb0\u0cbe\u0ca5\u0cae\u0cbf\u0c95 \u0cb6\u0cbe\u0cb2\u0cc6 \u0c85\u0ca1\u0ccd\u0ca1\u0cca\u0ca1\u0c97\u0cbf", "operator": "Government", "school_code": "29330800501"}}, {"type": "node", "id": 2587676066, "lat": 16.45508, "lon": 76.84254, "tags": {"amenity": "school", "name": "Government Lower Primary School Chowdeshwarhal", "name:kn": "\u0cb8\u0cb0\u0ccd\u0c95\u0cbe\u0cb0\u0cbf \u0c95\u0cbf\u0cb0\u0cbf\u0caf \u0caa\u0ccd\u0cb0\u0cbe\u0ca5\u0cae\u0cbf\u0c95 \u0cb6\u0cbe\u0cb2\u0cc6", "operator": "Government", "school_code": "29330804701"}}, {"type": "node", "id": 2587676101, "lat": 16.5053, "lon": 76.83528, "tags": {"amenity": "school", "name": "Government Lower Primary School Halageri", "name:kn": "\u0cb8\u0cb0\u0ccd\u0c95\u0cbe\u0cb0\u0cbf \u0c95\u0cbf\u0cb0\u0cbf\u0caf \u0caa\u0ccd\u0cb0\u0cbe\u0ca5\u0cae\u0cbf\u0c95 \u0cb6\u0cbe\u0cb2\u0cc6, \u0cb9\u0cbe\u0cb2\u0c97\u0cc7\u0cb0\u0cbe", "operator": "Government", "school_code": "29330807401"}}, {"type": "node", "id": 2587676110, "lat": 16.44155, "lon": 76.82985, "tags": {"amenity": "school", "name": "Government Lower Primary School Hemmadagi", "name:kn": "\u0cb8\u0cb0\u0ccd\u0c95\u0cbe\u0cb0\u0cbf \u0c95\u0cbf\u0cb0\u0cbf\u0caf \u0caa\u0ccd\u0cb0\u0cbe\u0ca5\u0cae\u0cbf\u0c95 \u0cb6\u0cbe\u0cb2\u0cc6 \u0cb9\u0cc6\u0cae\u0ccd\u0cae\u0ca1\u0c97\u0cbf", "operator": "Government", "school_code": "29330808401"}}, {"type": "node", "id": 2587676168, "lat": 16.49481, "lon": 76.82259, "tags": {"amenity": "school", "name": "Government Lower Primary School Lingadalli [s.h.]", "name:kn": "\u0cb8\u0cb0\u0ccd\u0c95\u0cbe\u0cb0\u0cbf \u0c95\u0cbf\u0cb0\u0cbf\u0caf \u0caa\u0ccd\u0cb0\u0cbe\u0ca5\u0cae\u0cbf\u0c95 \u0cb6\u0cbe\u0cb2\u0cc6 \u0cb2\u0cbf\u0c82\u0c97\u0ca6\u0cb9\u0cb3\u0ccd\u0cb3\u0cbf", "operator": "Government", "school_code": "29330813701"}}, {"type": "node", "id": 2587676199, "lat": 16.73583, "lon": 76.80741, "tags": {"addr:place": "Mundintanda Hotpeth", "amenity": "school", "name": "Lower Primary School", "name:kn": "\u0cb8\u0cb0\u0ccd\u0c95\u0cbe\u0cb0\u0cbf \u0c95\u0cbf\u0cb0\u0cbf\u0caf \u0caa\u0ccd\u0cb0\u0cbe\u0ca5\u0cae\u0cbf\u0c95 \u0cb6\u0cbe\u0cb2\u0cc6", "operator": "Government", "school_code": "29330714602"}}, {"type": "node", "id": 2587676242, "lat": 16.72818, "lon": 76.8097, "tags": {"amenity": "school", "name": "Government Lower Primary School Sakhapura", "name:kn": "\u0cb8\u0cb0\u0ccd\u0c95\u0cbe\u0cb0\u0cbf \u0c95\u0cbf\u0cb0\u0cbf\u0caf \u0caa\u0ccd\u0cb0\u0cbe\u0ca5\u0cae\u0cbf\u0c95 \u0cb6\u0cbe\u0cb2\u0cc6", "operator": "Government", "school_code": "29330712403"}}, {"type": "node", "id": 2587676248, "lat": 16.51717, "lon": 76.83507, "tags": {"amenity": "school", "name": "Government Lower Primary School Shakapur [s.h.]", "name:kn": "\u0cb8\u0cb0\u0ccd\u0c95\u0cbe\u0cb0\u0cbf \u0c95\u0cbf\u0cb0\u0cbf\u0caf \u0caa\u0ccd\u0cb0\u0cbe\u0ca5\u0cae\u0cbf\u0c95 \u0cb6\u0cbe\u0cb2\u0cc6", "operator": "Government", "school_code": "29330819101"}}, {"type": "node", "id": 2587676623, "lat": 16.73526, "lon": 76.80895, "tags": {"addr:place": "Shakapur Tanda", "amenity": "school", "name": "Higher Primary School", "name:kn": "\u0cb9\u0cbf\u0cb0\u0cbf\u0caf \u0caa\u0ccd\u0cb0\u0cbe\u0ca5\u0cae\u0cbf\u0c95 \u0cb6\u0cbe\u0cb2\u0cc6", "school_code": "29330712404"}}, {"type": "node", "id": 2632326047, "lat": 16.72905, "lon": 76.87879, "tags": {"amenity": "school", "name": "Government Higher Primary School Bevinahalli", "name:kn": "\u0cb8\u0cb0\u0ccd\u0c95\u0cbe\u0cb0\u0cbf \u0cb9\u0cbf\u0cb0\u0cbf\u0caf \u0caa\u0ccd\u0cb0\u0cbe\u0ca5\u0cae\u0cbf\u0c95 \u0cb6\u0cbe\u0cb2\u0cc6 \u0cac\u0cc7\u0cb5\u0cbf\u0ca8\u0cb9\u0cb3\u0ccd\u0cb3\u0cbf", "operator": "Government"}}, {"type": "node", "id": 2632327244, "lat": 16.70554, "lon": 76.83744, "tags": {"amenity": "school", "name": "Indira Gandhi Kannada Higher Primary School", "name:etymology:wikidata": "Q1149", "name:kn": "\u0c87\u0c82\u0ca6\u0cbf\u0cb0\u0cbe \u0c97\u0cbe\u0c82\u0ca7\u0cbf \u0c95\u0ca8\u0ccd\u0ca8\u0ca1 \u0caa\u0ccd\u0cb0\u0cbe\u0ca5\u0cae\u0cbf\u0c95 \u0cb6\u0cbe\u0cb2\u0cc6", "operator": "Government"}}, {"type": "node", "id": 2642228795, "lat": 16.7522277, "lon": 77.1288801, "tags": {"addr:city": "Yadgir", "addr:postcode": "585201", "amenity": "school", "name": "Dhoka CBSE School", "name:kn": "\u0ca7\u0ccb\u0c96 \u0cb8\u0cbf\u0cac\u0cbf\u0c8e\u0cb8\u0ccd\u0c87 \u0cb6\u0cbe\u0cb2\u0cc6", "operator": "Private"}}, {"type": "node", "id": 2933888293, "lat": 16.687246, "lon": 76.8480634, "tags": {"amenity": "school", "name": "Sri Jaidev School"}}, {"type": "node", "id": 2934128674, "lat": 16.5949645, "lon": 77.0562041, "tags": {"addr:city": "Basavanagar", "amenity": "school", "name": "Higher Primary School", "name:kn": "\u0cb9\u0cbf\u0cb0\u0cbf\u0caf \u0caa\u0ccd\u0cb0\u0cbe\u0ca5\u0cae\u0cbf\u0c95 \u0cb6\u0cbe\u0cb2\u0cc6", "operator": "Government"}}, {"type": "node", "id": 2934130737, "lat": 16.644085, "lon": 77.0788456, "tags": {"addr:place": "Ullesugur", "amenity": "school", "name": "Lower Primary Urdu School", "name:kn": "\u0c95\u0cbf\u0cb0\u0cbf\u0caf \u0caa\u0ccd\u0cb0\u0cbe\u0ca5\u0cae\u0cbf\u0c95 \u0c89\u0cb0\u0ccd\u0ca6\u0cc1 \u0cb6\u0cbe\u0cb2\u0cc6", "operator": "Government"}}, {"type": "node", "id": 2935090068, "lat": 16.5607087, "lon": 76.8639978, "tags": {"amenity": "school", "name": "Lower Primary School", "name:kn": "\u0cb8\u0cb0\u0ccd\u0c95\u0cbe\u0cb0\u0cbf \u0c95\u0cbf\u0cb0\u0cbf\u0caf \u0caa\u0ccd\u0cb0\u0cbe\u0ca5\u0cae\u0cbf\u0c95 \u0cb6\u0cbe\u0cb2\u0cc6", "operator": "Government"}}, {"type": "node", "id": 2935090221, "lat": 16.5614814, "lon": 76.8680137, "tags": {"amenity": "school", "name": "Lower Primary School", "name:kn": "\u0cb8\u0cb0\u0ccd\u0c95\u0cbe\u0cb0\u0cbf \u0c95\u0cbf\u0cb0\u0cbf\u0caf \u0caa\u0ccd\u0cb0\u0cbe\u0ca5\u0cae\u0cbf\u0c95 \u0cb6\u0cbe\u0cb2\u0cc6", "operator": "Government"}}, {"type": "node", "id": 2935115729, "lat": 16.5460963, "lon": 76.8789616, "tags": {"addr:place": "Biranura", "amenity": "school", "name": "Higher Primary School", "name:kn": "\u0cb8\u0cb0\u0ccd\u0c95\u0cbe\u0cb0\u0cbf \u0cb9\u0cbf\u0cb0\u0cbf\u0caf \u0caa\u0ccd\u0cb0\u0cbe\u0ca5\u0cae\u0cbf\u0c95 \u0cb6\u0cbe\u0cb2\u0cc6", "operator": "Government"}}, {"type": "node", "id": 2935115747, "lat": 16.5387835, "lon": 76.8725263, "tags": {"amenity": "school", "name": "Lower Primary School", "name:kn": "\u0cb8\u0cb0\u0ccd\u0c95\u0cbe\u0cb0\u0cbf \u0c95\u0cbf\u0cb0\u0cbf\u0caf \u0caa\u0ccd\u0cb0\u0cbe\u0ca5\u0cae\u0cbf\u0c95 \u0cb6\u0cbe\u0cb2\u0cc6", "operator": "Government"}}, {"type": "node", "id": 2935374187, "lat": 16.5023008, "lon": 76.8902825, "tags": {"amenity": "school", "name": "Lower Primary School", "name:kn": "\u0cb8\u0cb0\u0ccd\u0c95\u0cbe\u0cb0\u0cbf \u0c95\u0cbf\u0cb0\u0cbf\u0caf \u0caa\u0ccd\u0cb0\u0cbe\u0ca5\u0cae\u0cbf\u0c95 \u0cb6\u0cbe\u0cb2\u0cc6", "operator": "Government"}}, {"type": "node", "id": 2958863902, "lat": 16.5619233, "lon": 77.2622083, "tags": {"addr:place": "Saidapur", "amenity": "school", "name": "Government High School", "name:kn": "\u0cb8\u0cb0\u0ccd\u0c95\u0cbe\u0cb0\u0cbf \u0caa\u0ccd\u0cb0\u0ccc\u0ca1\u0cb6\u0cbe\u0cb2\u0cc6"}}, {"type": "node", "id": 2962358348, "lat": 16.5688358, "lon": 77.0589147, "tags": {"amenity": "school", "building": "school", "name": "Government Lower Primary School", "name:kn": "\u0cb8\u0cb0\u0ccd\u0c95\u0cbe\u0cb0\u0cbf \u0c95\u0cbf\u0cb0\u0cbf\u0caf \u0caa\u0ccd\u0cb0\u0cbe\u0ca5\u0cae\u0cbf\u0c95 \u0cb6\u0cbe\u0cb2\u0cc6"}}, {"type": "node", "id": 2962358350, "lat": 16.5689501, "lon": 77.0601904}, {"type": "node", "id": 2962358351, "lat": 16.5689325, "lon": 77.0602911}, {"type": "node", "id": 2962358352, "lat": 16.5687087, "lon": 77.0602519}, {"type": "node", "id": 2962358353, "lat": 16.5687213, "lon": 77.060165}, {"type": "node", "id": 2965473529, "lat": 16.6512733, "lon": 77.0383459}, {"type": "node", "id": 2965473530, "lat": 16.651419, "lon": 77.0386925}, {"type": "node", "id": 2965473531, "lat": 16.6511533, "lon": 77.0386447}, {"type": "node", "id": 2965473532, "lat": 16.6511873, "lon": 77.0385562}, {"type": "node", "id": 2999102225, "lat": 16.7497288, "lon": 77.1318925}, {"type": "node", "id": 2999102226, "lat": 16.749522, "lon": 77.1319985}, {"type": "node", "id": 2999102227, "lat": 16.7495387, "lon": 77.1320119}, {"type": "node", "id": 2999102228, "lat": 16.7497558, "lon": 77.132032}, {"type": "node", "id": 3371325311, "lat": 16.6788098, "lon": 77.0654949}, {"type": "node", "id": 3371325312, "lat": 16.6788334, "lon": 77.0654045}, {"type": "node", "id": 3371325313, "lat": 16.6790813, "lon": 77.0655729}, {"type": "node", "id": 3371325314, "lat": 16.679101, "lon": 77.0654949}, {"type": "node", "id": 3371336281, "lat": 16.6610289, "lon": 77.0757527}, {"type": "node", "id": 3371336282, "lat": 16.6610335, "lon": 77.0758634}, {"type": "node", "id": 3371336284, "lat": 16.6610987, "lon": 77.0757496}, {"type": "node", "id": 3371336285, "lat": 16.6611033, "lon": 77.0758603}, {"type": "node", "id": 3371400291, "lat": 16.6488008, "lon": 77.040733}, {"type": "node", "id": 3371400292, "lat": 16.6488404, "lon": 77.0406193}, {"type": "node", "id": 3371403112, "lat": 16.6512394, "lon": 77.0384486}, {"type": "node", "id": 3371403113, "lat": 16.6513338, "lon": 77.0385875}, {"type": "node", "id": 3371403114, "lat": 16.6513724, "lon": 77.0384844}, {"type": "node", "id": 3371403115, "lat": 16.6514883, "lon": 77.0383814}, {"type": "node", "id": 3371405893, "lat": 16.6488501, "lon": 77.0407517}, {"type": "node", "id": 3371405894, "lat": 16.6488897, "lon": 77.040638}, {"type": "node", "id": 3371411233, "lat": 16.6409452, "lon": 77.0900094}, {"type": "node", "id": 3371411234, "lat": 16.6409554, "lon": 77.0899369}, {"type": "node", "id": 3371411236, "lat": 16.6411068, "lon": 77.0900343}, {"type": "node", "id": 3371411237, "lat": 16.641117, "lon": 77.0899617}, {"type": "node", "id": 3371422057, "lat": 16.5998895, "lon": 77.0354155}, {"type": "node", "id": 3371422058, "lat": 16.5998895, "lon": 77.0355267}, {"type": "node", "id": 3371422059, "lat": 16.5999613, "lon": 77.0354155}, {"type": "node", "id": 3371422060, "lat": 16.5999613, "lon": 77.0355267}, {"type": "node", "id": 3371428069, "lat": 16.5687201, "lon": 77.0589815}, {"type": "node", "id": 3371428070, "lat": 16.5687513, "lon": 77.0589969}, {"type": "node", "id": 3371428071, "lat": 16.5687702, "lon": 77.0588711}, {"type": "node", "id": 3371428073, "lat": 16.5688014, "lon": 77.0588865}, {"type": "node", "id": 3371428075, "lat": 16.5688406, "lon": 77.0602273}, {"type": "node", "id": 3371428076, "lat": 16.5688406, "lon": 77.0602612}, {"type": "node", "id": 3371428079, "lat": 16.5688986, "lon": 77.060283}, {"type": "node", "id": 3371428080, "lat": 16.5689009, "lon": 77.0602346}, {"type": "node", "id": 3372129188, "lat": 16.6606777, "lon": 76.8571486}, {"type": "node", "id": 3372129189, "lat": 16.6606815, "lon": 76.8570462}, {"type": "node", "id": 3372129190, "lat": 16.6607715, "lon": 76.8571523}, {"type": "node", "id": 3372129191, "lat": 16.6607753, "lon": 76.85705}, {"type": "node", "id": 3372151962, "lat": 16.6346452, "lon": 76.8562537}, {"type": "node", "id": 3372151963, "lat": 16.6346475, "lon": 76.8561656}, {"type": "node", "id": 3372151964, "lat": 16.6347709, "lon": 76.856743}, {"type": "node", "id": 3372151965, "lat": 16.6347736, "lon": 76.856542}, {"type": "node", "id": 3372151966, "lat": 16.6347736, "lon": 76.8568256}, {"type": "node", "id": 3372151967, "lat": 16.6347789, "lon": 76.8564511}, {"type": "node", "id": 3372151968, "lat": 16.6349187, "lon": 76.8567375}, {"type": "node", "id": 3372151969, "lat": 16.6349266, "lon": 76.8565447}, {"type": "node", "id": 3372151970, "lat": 16.634982, "lon": 76.8564594}, {"type": "node", "id": 3372151971, "lat": 16.634982, "lon": 76.8568283}, {"type": "node", "id": 3372151972, "lat": 16.6349875, "lon": 76.8562633}, {"type": "node", "id": 3372151973, "lat": 16.6349897, "lon": 76.8561752}, {"type": "node", "id": 3372173661, "lat": 16.6005493, "lon": 76.881929}, {"type": "node", "id": 3372173662, "lat": 16.6005888, "lon": 76.8817433}, {"type": "node", "id": 3372173663, "lat": 16.600623, "lon": 76.8819461}, {"type": "node", "id": 3372173664, "lat": 16.6006625, "lon": 76.8817604}, {"type": "node", "id": 3372193453, "lat": 16.5769485, "lon": 76.8505441}, {"type": "node", "id": 3372193454, "lat": 16.576953, "lon": 76.8503592}, {"type": "node", "id": 3372193455, "lat": 16.5769575, "lon": 76.8501702}, {"type": "node", "id": 3372193456, "lat": 16.5770402, "lon": 76.8505486}, {"type": "node", "id": 3372193457, "lat": 16.5770488, "lon": 76.8503554}, {"type": "node", "id": 3372193458, "lat": 16.5770652, "lon": 76.8501747}, {"type": "node", "id": 3372196270, "lat": 16.5751643, "lon": 76.8360701}, {"type": "node", "id": 3372196271, "lat": 16.5751701, "lon": 76.8360059}, {"type": "node", "id": 3372196272, "lat": 16.5752303, "lon": 76.8360765}, {"type": "node", "id": 3372196273, "lat": 16.5752361, "lon": 76.8360123}, {"type": "node", "id": 3372208444, "lat": 16.588324, "lon": 76.8141918}, {"type": "node", "id": 3372208445, "lat": 16.5883451, "lon": 76.8140344}, {"type": "node", "id": 3372208446, "lat": 16.5883873, "lon": 76.8141949}, {"type": "node", "id": 3372208447, "lat": 16.5883994, "lon": 76.8141037}, {"type": "node", "id": 3372208448, "lat": 16.5885261, "lon": 76.8142075}, {"type": "node", "id": 3372208449, "lat": 16.5885322, "lon": 76.8140974}, {"type": "node", "id": 3372208450, "lat": 16.5886015, "lon": 76.814047}, {"type": "node", "id": 3372208451, "lat": 16.5886196, "lon": 76.8142012}, {"type": "node", "id": 3372775758, "lat": 16.5601991, "lon": 76.9125833, "tags": {"amenity": "school", "is_in": "Nandihalli", "name": "Lower Primary School", "name:kn": "\u0cb8\u0cb0\u0ccd\u0c95\u0cbe\u0cb0\u0cbf \u0c95\u0cbf\u0cb0\u0cbf\u0caf \u0caa\u0ccd\u0cb0\u0cbe\u0ca5\u0cae\u0cbf\u0c95 \u0cb6\u0cbe\u0cb2\u0cc6", "operator": "Government"}}, {"type": "node", "id": 3372777365, "lat": 16.55216, "lon": 76.930274, "tags": {"amenity": "school", "is_in": "Madarakal", "name": "Higher Primary School", "name:kn": "\u0cb8\u0cb0\u0ccd\u0c95\u0cbe\u0cb0\u0cbf \u0cb9\u0cbf\u0cb0\u0cbf\u0caf \u0caa\u0ccd\u0cb0\u0cbe\u0ca5\u0cae\u0cbf\u0c95 \u0cb6\u0cbe\u0cb2\u0cc6", "operator": "Government"}}, {"type": "node", "id": 3372824423, "lat": 16.5371531, "lon": 76.9557216, "tags": {"addr:place": "Yakchinti", "amenity": "school", "name": "Lower Primary School", "name:kn": "\u0cb8\u0cb0\u0ccd\u0c95\u0cbe\u0cb0\u0cbf \u0c95\u0cbf\u0cb0\u0cbf\u0caf \u0caa\u0ccd\u0cb0\u0cbe\u0ca5\u0cae\u0cbf\u0c95 \u0cb6\u0cbe\u0cb2\u0cc6", "operator": "Government"}}, {"type": "node", "id": 3375954970, "lat": 16.6005194, "lon": 76.9169587, "tags": {"addr:place": "Munamatagi", "amenity": "school", "name": "Higher Primary School", "name:kn": "\u0cb8\u0cb0\u0ccd\u0c95\u0cbe\u0cb0\u0cbf \u0cb9\u0cbf\u0cb0\u0cbf\u0caf \u0caa\u0ccd\u0cb0\u0cbe\u0ca5\u0cae\u0cbf\u0c95 \u0cb6\u0cbe\u0cb2\u0cc6"}}, {"type": "node", "id": 3376013350, "lat": 16.5801341, "lon": 76.9252907, "tags": {"addr:place": "Basawantapura", "amenity": "school", "name": "Higher Primary School", "name:kn": "\u0cb8\u0cb0\u0ccd\u0c95\u0cbe\u0cb0\u0cbf \u0cb9\u0cbf\u0cb0\u0cbf\u0caf \u0caa\u0ccd\u0cb0\u0cbe\u0ca5\u0cae\u0cbf\u0c95 \u0cb6\u0cbe\u0cb2\u0cc6", "operator": "Government"}}, {"type": "node", "id": 3376096058, "lat": 16.5621983, "lon": 76.9576972, "tags": {"amenity": "school", "name": "Government Higher Primary School", "name:kn": "\u0cb8\u0cb0\u0ccd\u0c95\u0cbe\u0cb0\u0cbf \u0cb9\u0cbf\u0cb0\u0cbf\u0caf \u0caa\u0ccd\u0cb0\u0cbe\u0ca5\u0cae\u0cbf\u0c95 \u0cb6\u0cbe\u0cb2\u0cc6"}}, {"type": "node", "id": 3376096059, "lat": 16.5675574, "lon": 76.9557819, "tags": {"amenity": "school", "name": "Government High School", "name:kn": "\u0cb8\u0cb0\u0ccd\u0c95\u0cbe\u0cb0\u0cbf \u0caa\u0ccd\u0cb0\u0ccc\u0ca1 \u0cb6\u0cbe\u0cb2\u0cc6"}}, {"type": "node", "id": 3376096064, "lat": 16.5624006, "lon": 76.9545736, "tags": {"amenity": "school", "name": "Hayyal Lingeshwar Lower Primary School", "name:kn": "\u0cb9\u0caf\u0ccd\u0caf\u0cbe\u0cb3 \u0cb2\u0cbf\u0c82\u0c97\u0cc7\u0cb6\u0ccd\u0cb5\u0cb0 \u0c95\u0cbf\u0cb0\u0cbf\u0caf \u0caa\u0ccd\u0cb0\u0cbe\u0ca5\u0cae\u0cbf\u0c95 \u0cb6\u0cbe\u0cb2\u0cc6"}}, {"type": "node", "id": 3382350595, "lat": 16.5707276, "lon": 76.9936998, "tags": {"addr:place": "Aikura", "amenity": "school", "name": "Higher Primary School", "name:kn": "\u0cb8\u0cb0\u0ccd\u0c95\u0cbe\u0cb0\u0cbf \u0cb9\u0cbf\u0cb0\u0cbf\u0caf \u0caa\u0ccd\u0cb0\u0cbe\u0ca5\u0cae\u0cbf\u0c95 \u0cb6\u0cbe\u0cb2\u0cc6", "operator": "Government"}}, {"type": "node", "id": 3382357922, "lat": 16.5586644, "lon": 77.0129166, "tags": {"addr:place": "Anakasugur", "amenity": "school", "name": "Lower Primary School", "name:kn": "\u0c95\u0cbf\u0cb0\u0cbf\u0caf \u0caa\u0ccd\u0cb0\u0cbe\u0ca5\u0cae\u0cbf\u0c95 \u0cb6\u0cbe\u0cb2\u0cc6", "operator": "Government"}}, {"type": "node", "id": 3382378991, "lat": 16.5580227, "lon": 77.0283963, "tags": {"addr:place": "Kurihala", "amenity": "school", "name": "Lower Primary School", "name:kn": "\u0c95\u0cbf\u0cb0\u0cbf\u0caf \u0caa\u0ccd\u0cb0\u0cbe\u0ca5\u0cae\u0cbf\u0c95 \u0cb6\u0cbe\u0cb2\u0cc6", "operator": "Government"}}, {"type": "node", "id": 3382397412, "lat": 16.5371432, "lon": 77.0198118, "tags": {"amenity": "school", "name": "Higher Primary School", "name:kn": "\u0cb8\u0cb0\u0ccd\u0c95\u0cbe\u0cb0\u0cbf \u0cb9\u0cbf\u0cb0\u0cbf\u0caf \u0caa\u0ccd\u0cb0\u0cbe\u0ca5\u0cae\u0cbf\u0c95 \u0cb6\u0cbe\u0cb2\u0cc6", "operator": "Government"}}, {"type": "way", "id": 292699914, "nodes": [2962358350, 2962358351, 3371428079, 3371428080, 3371428075, 3371428076, 2962358352, 2962358353, 2962358350], "tags": {"amenity": "school", "building": "school", "name": "Lower Primary School", "name:kn": "\u0c95\u0cbf\u0cb0\u0cbf\u0caf \u0caa\u0ccd\u0cb0\u0cbe\u0ca5\u0cae\u0cbf\u0c95 \u0cb6\u0cbe\u0cb2\u0cc6", "operator": "Government"}}, {"type": "way", "id": 292988320, "nodes": [2965473529, 3371403115, 2965473530, 2965473531, 2965473532, 3371403113, 3371403114, 3371403112, 2965473529], "tags": {"amenity": "school", "building": "school", "name": "Higher Primary School", "name:kn": "\u0cb9\u0cbf\u0cb0\u0cbf\u0caf \u0caa\u0ccd\u0cb0\u0cbe\u0ca5\u0cae\u0cbf\u0c95 \u0cb6\u0cbe\u0cb2\u0cc6", "operator": "Government"}}, {"type": "way", "id": 296126608, "nodes": [2999102225, 2999102226, 2999102227, 2999102228, 2999102225], "tags": {"amenity": "school"}}, {"type": "way", "id": 330180536, "nodes": [3371325314, 3371325312, 3371325311, 3371325313, 3371325314], "tags": {"addr:place": "Malhalli", "amenity": "school", "building": "school", "is_in": "Malahalli", "name": "Higher Primary School", "name:kn": "\u0cae\u0cbe\u0cb2\u0cb9\u0cb3\u0ccd\u0cb3\u0cbf \u0cb9\u0cbf\u0cb0\u0cbf\u0caf \u0caa\u0ccd\u0cb0\u0cbe\u0ca5\u0cae\u0cbf\u0c95 \u0cb6\u0cbe\u0cb2\u0cc6", "operator": "Government"}}, {"type": "way", "id": 330182730, "nodes": [3371336284, 3371336281, 3371336282, 3371336285, 3371336284], "tags": {"amenity": "school", "building": "school", "name": "Lower Primary School", "name:kn": "\u0c95\u0cbf\u0cb0\u0cbf\u0caf \u0caa\u0ccd\u0cb0\u0cbe\u0ca5\u0cae\u0cbf\u0c95 \u0cb6\u0cbe\u0cb2\u0cc6", "operator": "Government", "place": "Ullesugur Tanda"}}, {"type": "way", "id": 330187665, "nodes": [3371405894, 3371405893, 3371400291, 3371400292, 3371405894], "tags": {"amenity": "school", "building": "school", "name": "Ambedkar Higher Primary School", "name:kn": "\u0c85\u0c82\u0cac\u0cc7\u0ca1\u0ccd\u0c95\u0cb0\u0ccd \u0cb9\u0cbf\u0cb0\u0cbf\u0caf \u0caa\u0ccd\u0cb0\u0cbe\u0ca5\u0cae\u0cbf\u0c95 \u0cb6\u0cbe\u0cb2\u0cc6", "operator": "Government"}}, {"type": "way", "id": 330188832, "nodes": [3371411237, 3371411236, 3371411233, 3371411234, 3371411237], "tags": {"amenity": "school", "building": "school", "name": "Lower Primary School", "name:kn": "\u0c95\u0cbf\u0cb0\u0cbf\u0caf \u0caa\u0ccd\u0cb0\u0cbe\u0ca5\u0cae\u0cbf\u0c95 \u0cb6\u0cbe\u0cb2\u0cc6", "operator": "Government"}}, {"type": "way", "id": 330189890, "nodes": [3371422059, 3371422060, 3371422058, 3371422057, 3371422059], "tags": {"addr:city": "Biranakal", "amenity": "school", "building": "school", "name": "Lower Primary School", "name:kn": "\u0c95\u0cbf\u0cb0\u0cbf\u0caf \u0caa\u0ccd\u0cb0\u0cbe\u0ca5\u0cae\u0cbf\u0c95 \u0cb6\u0cbe\u0cb2\u0cc6", "operator": "Government"}}, {"type": "way", "id": 330190333, "nodes": [3371428073, 3371428070, 3371428069, 3371428071, 3371428073], "tags": {"amenity": "school", "building": "yes"}}, {"type": "way", "id": 330257760, "nodes": [3372129191, 3372129190, 3372129188, 3372129189, 3372129191], "tags": {"amenity": "school", "building": "school", "name": "Lower Primary School", "name:kn": "\u0c95\u0cbf\u0cb0\u0cbf\u0caf \u0caa\u0ccd\u0cb0\u0cbe\u0ca5\u0cae\u0cbf\u0c95 \u0cb6\u0cbe\u0cb2\u0cc6", "operator": "Government"}}, {"type": "way", "id": 330260689, "nodes": [3372151970, 3372151967, 3372151965, 3372151969, 3372151968, 3372151964, 3372151966, 3372151971, 3372151970], "tags": {"amenity": "school", "building": "school", "name": "High School", "name:kn": "\u0caa\u0ccd\u0cb0\u0ccc\u0ca1\u0cbe\u0cb6\u0cbe\u0cb2\u0cc6", "operator": "Government"}}, {"type": "way", "id": 330260690, "nodes": [3372151973, 3372151972, 3372151962, 3372151963, 3372151973], "tags": {"amenity": "school", "building": "yes", "is_in": "Rasthapur", "operator": "Government"}}, {"type": "way", "id": 330262112, "nodes": [3372173664, 3372173663, 3372173661, 3372173662, 3372173664], "tags": {"amenity": "school", "building": "school", "name": "Lower Primary School", "name:kn": "\u0c95\u0cbf\u0cb0\u0cbf\u0caf \u0caa\u0ccd\u0cb0\u0cbe\u0ca5\u0cae\u0cbf\u0c95 \u0cb6\u0cbe\u0cb2\u0cc6", "operator": "Government"}}, {"type": "way", "id": 330264355, "nodes": [3372193458, 3372193457, 3372193454, 3372193455, 3372193458], "tags": {"amenity": "school", "building": "school", "is_in": "Kongandi", "name": "Higher Primary School", "name:kn": "\u0cb9\u0cbf\u0cb0\u0cbf\u0caf \u0caa\u0ccd\u0cb0\u0cbe\u0ca5\u0cae\u0cbf\u0c95 \u0cb6\u0cbe\u0cb2\u0cc6", "operator": "Government"}}, {"type": "way", "id": 330264356, "nodes": [3372193457, 3372193456, 3372193453, 3372193454, 3372193457], "tags": {"amenity": "school", "building": "school", "is_in": "Kongandi", "name": "Higher Primary School", "name:kn": "\u0cb9\u0cbf\u0cb0\u0cbf\u0caf \u0caa\u0ccd\u0cb0\u0cbe\u0ca5\u0cae\u0cbf\u0c95 \u0cb6\u0cbe\u0cb2\u0cc6", "operator": "Government"}}, {"type": "way", "id": 330264574, "nodes": [3372196273, 3372196272, 3372196270, 3372196271, 3372196273], "tags": {"amenity": "school", "building": "school", "name": "Lower Primary School", "name:kn": "\u0c95\u0cbf\u0cb0\u0cbf\u0caf \u0caa\u0ccd\u0cb0\u0cbe\u0ca5\u0cae\u0cbf\u0c95 \u0cb6\u0cbe\u0cb2\u0cc6", "operator": "Government"}}, {"type": "way", "id": 330265287, "nodes": [3372208448, 3372208451, 3372208450, 3372208445, 3372208444, 3372208446, 3372208447, 3372208449, 3372208448], "tags": {"amenity": "school", "building": "school", "name": "Higher Primary School", "name:kn": "\u0cb9\u0cbf\u0cb0\u0cbf\u0caf \u0caa\u0ccd\u0cb0\u0cbe\u0ca5\u0cae\u0cbf\u0c95 \u0cb6\u0cbe\u0cb2\u0cc6", "operator": "Government"}}]}