{"version": 0.6, "generator": "Overpass API 0.7.62.8 e802775f", "osm3s": {"timestamp_osm_base": "2025-11-29T17:09:51Z", "copyright": "The data included in this document is from www.openstreetmap.org. The data is made available under ODbL."}, "elements": [{"type": "node", "id": 2417612834, "lat": 16.864156, "lon": 77.4413148, "tags": {"amenity": "school", "name": "Government High School", "name:kn": "\u0cb8\u0cb0\u0ccd\u0c95\u0cbe\u0cb0\u0cbf \u0caa\u0ccd\u0cb0\u0ccc\u0ca1 \u0cb6\u0cbe\u0cb2\u0cc6", "operator": "Government", "type": "High School"}}, {"type": "node", "id": 2460054524, "lat": 17.1789161, "lon": 77.2852065, "tags": {"amenity": "school", "name": "Govt High School & college"}}, {"type": "node", "id": 2460055521, "lat": 17.1773989, "lon": 77.2877002, "tags": {"amenity": "school", "name": "Matruchaya School & college", "name:kn": "\u0cae\u0ca4\u0ccd\u0cb0\u0cc1\u0c9a\u0cbe\u0caf \u0cb6\u0cbe\u0cb2\u0cc6"}}, {"type": "node", "id": 2460058491, "lat": 17.1674195, "lon": 77.2818663, "tags": {"amenity": "school", "name": "Vivekananda School", "name:kn": "\u0cb5\u0cbf\u0cb5\u0cc7\u0c95\u0ca8\u0c82\u0ca6 \u0cb6\u0cbe\u0cb2\u0cc6"}}, {"type": "node", "id": 2460059779, "lat": 17.156473, "lon": 77.2845157, "tags": {"amenity": "school", "name": "Vasavdatta Vidya Vihar", "name:kn": "\u0cb5\u0cbe\u0cb8\u0cb5\u0ca6\u0ca4\u0ccd\u0ca4 \u0cb5\u0cbf\u0ca6\u0ccd\u0caf \u0cb5\u0cbf\u0cb9\u0cbe\u0cb0"}}, {"type": "node", "id": 2573448330, "lat": 16.823, "lon": 77.43968, "tags": {"amenity": "school", "name": "Government Higher Primary School Dantapur", "name:kn": "\u0cb8\u0cb0\u0ccd\u0c95\u0cbe\u0cb0\u0cbf \u0cb9\u0cbf\u0cb0\u0cbf\u0caf \u0caa\u0ccd\u0cb0\u0cbe\u0ca5\u0cae\u0cbf\u0c95 \u0cb6\u0cbe\u0cb2\u0cc6", "operator": "Government", "school_code": "29331015901", "taluk": "Yadgir"}}, {"type": "node", "id": 2573448454, "lat": 16.8381646, "lon": 77.4308924, "tags": {"amenity": "school", "name": "Government Higher Primary School Keshwar", "name:kn": "\u0cb8\u0cb0\u0ccd\u0c95\u0cbe\u0cb0\u0cbf \u0cb9\u0cbf\u0cb0\u0cbf\u0caf \u0caa\u0ccd\u0cb0\u0cbe\u0ca5\u0cae\u0cbf\u0c95 \u0cb6\u0cbe\u0cb2\u0cc6, \u0c95\u0cc7\u0cb6\u0ccd\u0cb5\u0cbe\u0cb0", "operator": "Government", "school_code": "29331006301", "taluk": "Yadgir"}}, {"type": "node", "id": 2573448487, "lat": 16.84741, "lon": 77.44396, "tags": {"amenity": "school", "name": "Government Higher Primary School Madepalli", "name:kn": "\u0cb8\u0cb0\u0ccd\u0c95\u0cbe\u0cb0\u0cbf \u0cb9\u0cbf\u0cb0\u0cbf\u0caf \u0caa\u0ccd\u0cb0\u0cbe\u0ca5\u0cae\u0cbf\u0c95 \u0cb6\u0cbe\u0cb2\u0cc6, \u0cae\u0ca1\u0cc7\u0caa\u0cb2\u0ccd\u0cb2\u0cbf", "operator": "Government", "school_code": "29331015801", "taluk": "Yadgir"}}, {"type": "node", "id": 2573448506, "lat": 16.79518, "lon": 77.43734, "tags": {"addr:place": "Mallpur Tanda", "amenity": "school", "name": "Government Higher Primary School", "name:kn": "\u0cb8\u0cb0\u0ccd\u0c95\u0cbe\u0cb0\u0cbf \u0cb9\u0cbf\u0cb0\u0cbf\u0caf \u0caa\u0ccd\u0cb0\u0cbe\u0ca5\u0cae\u0cbf\u0c95 \u0cb6\u0cbe\u0cb2\u0cc6", "taluk": "Yadgir"}}, {"type": "node", "id": 2573448577, "lat": 16.8132603, "lon": 77.4551125, "tags": {"addr:place": "Putapak", "amenity": "school", "name": "Government Higher Primary School", "name:kn": "\u0cb8\u0cb0\u0ccd\u0c95\u0cbe\u0cb0\u0cbf \u0cb9\u0cbf\u0cb0\u0cbf\u0caf \u0caa\u0ccd\u0cb0\u0cbe\u0ca5\u0cae\u0cbf\u0c95 \u0cb6\u0cbe\u0cb2\u0cc6 \u0caa\u0cc1\u0c9f\u0caa\u0cbe\u0c95", "operator": "Government", "taluk": "Yadgir"}}, {"type": "node", "id": 2573448580, "lat": 16.81127, "lon": 77.44035, "tags": {"addr:place": "Putapak Tanda", "amenity": "school", "name": "Government Higher Primary School", "name:kn": "\u0cb8\u0cb0\u0ccd\u0c95\u0cbe\u0cb0\u0cbf \u0cb9\u0cbf\u0cb0\u0cbf\u0caf \u0caa\u0ccd\u0cb0\u0cbe\u0ca5\u0cae\u0cbf\u0c95 \u0cb6\u0cbe\u0cb2\u0cc6", "operator": "Government", "taluk": "Yadgir"}}, {"type": "node", "id": 2573448660, "lat": 16.8130276, "lon": 77.455255, "tags": {"addr:place": "Putapak", "amenity": "school", "name": "Government Urdu Higher Primary School", "name:kn": "\u0cb8\u0cb0\u0ccd\u0c95\u0cbe\u0cb0\u0cbf \u0cb9\u0cbf\u0cb0\u0cbf\u0caf \u0caa\u0ccd\u0cb0\u0cbe\u0ca5\u0cae\u0cbf\u0c95 \u0c89\u0cb0\u0ccd\u0ca6\u0cc1 \u0cb6\u0cbe\u0cb2\u0cc6 \u0caa\u0cc1\u0c9f\u0caa\u0cbe\u0c95", "operator": "Government", "taluk": "Yadgir"}}, {"type": "node", "id": 2573448783, "lat": 16.85985, "lon": 77.44063, "tags": {"amenity": "school", "name": "Government Model Primary School Chandarki", "name:kn": "\u0cb8\u0cb0\u0ccd\u0c95\u0cbe\u0cb0\u0cbf \u0cae\u0cbe\u0ca6\u0cb0\u0cbf \u0caa\u0ccd\u0cb0\u0cbe\u0ca5\u0cae\u0cbf\u0c95 \u0cb6\u0cbe\u0cb2\u0cc6 \u0c9a\u0c82\u0ca6\u0cb0\u0c95\u0cbf", "operator": "Government", "school_code": "29331002703", "taluk": "Yadgir"}}, {"type": "node", "id": 2573448816, "lat": 16.81234, "lon": 77.45715, "tags": {"amenity": "school", "name": "Government High School Putpak", "name:kn": "\u0cb8\u0cb0\u0ccd\u0c95\u0cbe\u0cb0\u0cbf \u0caa\u0ccd\u0cb0\u0ccc\u0ca1 \u0cb6\u0cbe\u0cb2\u0cc6 \u0caa\u0cc1\u0c9f\u0caa\u0cbe\u0c95", "operator": "Government", "school_code": "29331010506", "taluk": "Yadgir"}}, {"type": "node", "id": 2573448834, "lat": 16.81978, "lon": 77.42058, "tags": {"amenity": "school", "name": "Government Lower Primary School Keshwar Tanda", "name:kn": "\u0cb8\u0cb0\u0ccd\u0c95\u0cbe\u0cb0\u0cbf \u0c95\u0cbf\u0cb0\u0cbf\u0caf \u0caa\u0ccd\u0cb0\u0cbe\u0ca5\u0cae\u0cbf\u0c95 \u0cb6\u0cbe\u0cb2\u0cc6", "operator": "Government", "school_code": "29331006302", "taluk": "Yadgir"}}, {"type": "node", "id": 2573448840, "lat": 16.86281, "lon": 77.44154, "tags": {"amenity": "school", "name": "Government Lower Primary School Urdu Chandarki", "name:kn": "\u0cb9\u0cbf\u0cb0\u0cbf\u0caf \u0caa\u0ccd\u0cb0\u0cbe\u0ca5\u0cae\u0cbf\u0c95 \u0c89\u0cb0\u0ccd\u0ca6\u0cc1 \u0cb6\u0cbe\u0cb2\u0cc6 \u0c9a\u0c82\u0ca6\u0cb0\u0c95\u0cbf", "operator": "Government", "school_code": "29331002704", "taluk": "Yadgir"}}, {"type": "node", "id": 2573448878, "lat": 16.79811, "lon": 77.42235, "tags": {"addr:place": "Minasapur Tanda", "amenity": "school", "name": "Government Lower Primary School", "name:kn": "\u0cb8\u0cb0\u0ccd\u0c95\u0cbe\u0cb0\u0cbf \u0c95\u0cbf\u0cb0\u0cbf\u0caf \u0caa\u0ccd\u0cb0\u0cbe\u0ca5\u0cae\u0cbf\u0c95 \u0cb6\u0cbe\u0cb2\u0cc6", "operator": "Government", "taluk": "Yadgir"}}, {"type": "node", "id": 2632325852, "lat": 16.77706, "lon": 77.32821, "tags": {"amenity": "school", "name": "Government High School, Kandakur", "name:kn": "\u0cb8\u0cb0\u0ccd\u0c95\u0cbe\u0cb0\u0cbf \u0caa\u0ccd\u0cb0\u0ccc\u0ca1\u0cb6\u0cbe\u0cb2\u0cc6 \u0c95\u0c82\u0ca6\u0c95\u0cc2\u0cb0", "operator": "Government", "taluk": "Yadgir"}}, {"type": "node", "id": 2632325899, "lat": 16.86071, "lon": 77.38918, "tags": {"amenity": "school", "name": "Government Lower Primary School Indira Nagar", "name:kn": "\u0cb8\u0cb0\u0ccd\u0c95\u0cbe\u0cb0\u0cbf \u0c95\u0cbf\u0cb0\u0cbf\u0caf \u0caa\u0ccd\u0cb0\u0cbe\u0ca5\u0cae\u0cbf\u0c95 \u0cb6\u0cbe\u0cb2\u0cc6", "operator": "Government", "taluk": "Yadgir"}}, {"type": "node", "id": 2632325912, "lat": 16.79263, "lon": 77.28152, "tags": {"amenity": "school", "name": "Government Lower Primary School Paspool Tanda", "name:kn": "\u0cb8\u0cb0\u0ccd\u0c95\u0cbe\u0cb0\u0cbf \u0c95\u0cbf\u0cb0\u0cbf\u0caf \u0caa\u0ccd\u0cb0\u0cbe\u0ca5\u0cae\u0cbf\u0c95 \u0cb6\u0cbe\u0cb2\u0cc6, \u0caa\u0cb8\u0caa\u0cc2\u0cb2 \u0ca4\u0cbe\u0c82\u0ca1", "operator": "Government", "taluk": "Yadgir"}}, {"type": "node", "id": 2632326008, "lat": 16.77576, "lon": 77.39485, "tags": {"addr:place": "Ammapanalli", "amenity": "school", "name": "Government Higher Primary School", "name:kn": "\u0cb8\u0cb0\u0ccd\u0c95\u0cbe\u0cb0\u0cbf \u0cb9\u0cbf\u0cb0\u0cbf\u0caf \u0caa\u0ccd\u0cb0\u0cbe\u0ca5\u0cae\u0cbf\u0c95 \u0cb6\u0cbe\u0cb2\u0cc6, \u0c85\u0cae\u0ccd\u0cae\u0cbe\u0caa\u0cb2\u0ccd\u0cb2\u0cbf", "operator": "Government", "taluk": "Yadgir"}}, {"type": "node", "id": 2632326014, "lat": 16.76141, "lon": 77.27052, "tags": {"amenity": "school", "name": "Government Higher Primary School Arakera -k.", "name:kn": "\u0cb8\u0cb0\u0ccd\u0c95\u0cbe\u0cb0\u0cbf \u0cb9\u0cbf\u0cb0\u0cbf\u0caf \u0caa\u0ccd\u0cb0\u0cbe\u0ca5\u0cae\u0cbf\u0c95 \u0cb6\u0cbe\u0cb2\u0cc6 \u0c85\u0cb0\u0c95\u0cc7\u0cb0\u0cbe", "operator": "Government", "taluk": "Yadgir"}}, {"type": "node", "id": 2632326022, "lat": 16.81624, "lon": 77.36231, "tags": {"amenity": "school", "name": "Government Higher Primary School B.M.Halli", "name:kn": "\u0cb8\u0cb0\u0ccd\u0c95\u0cbe\u0cb0\u0cbf \u0cb9\u0cbf\u0cb0\u0cbf\u0caf \u0caa\u0ccd\u0cb0\u0cbe\u0ca5\u0cae\u0cbf\u0c95 \u0cb6\u0cbe\u0cb2\u0cc6", "operator": "Government", "taluk": "Yadgir"}}, {"type": "node", "id": 2632326058, "lat": 16.85254, "lon": 77.36038, "tags": {"amenity": "school", "name": "Government Higher Primary School Budura", "name:kn": "\u0cb8\u0cb0\u0ccd\u0c95\u0cbe\u0cb0\u0cbf \u0cb9\u0cbf\u0cb0\u0cbf\u0caf \u0caa\u0ccd\u0cb0\u0cbe\u0ca5\u0cae\u0cbf\u0c95 \u0cb6\u0cbe\u0cb2\u0cc6, \u0cac\u0cc2\u0ca6\u0cc1\u0cb0\u0cc1", "operator": "Government", "taluk": "Yadgir"}}, {"type": "node", "id": 2632326063, "lat": 16.876199, "lon": 77.3384839, "tags": {"amenity": "school", "name": "Government Higher Primary School Chepatla", "name:kn": "\u0cb8\u0cb0\u0ccd\u0c95\u0cbe\u0cb0\u0cbf \u0cb9\u0cbf\u0cb0\u0cbf\u0caf \u0caa\u0ccd\u0cb0\u0cbe\u0ca5\u0cae\u0cbf\u0c95 \u0cb6\u0cbe\u0cb2\u0cc6 \u0c9a\u0cc6\u0caa\u0ccd\u0caa\u0cc7\u0c9f\u0ccd\u0cb2\u0cbe", "operator": "Government", "taluk": "Yadgir"}}, {"type": "node", "id": 2632326067, "lat": 16.78237, "lon": 77.3756, "tags": {"amenity": "school", "name": "Government Higher Primary School Chinnakar Urdu", "name:kn": "\u0cb8\u0cb0\u0ccd\u0c95\u0cbe\u0cb0\u0cbf \u0cb9\u0cbf\u0cb0\u0cbf\u0caf \u0caa\u0ccd\u0cb0\u0cbe\u0ca5\u0cae\u0cbf\u0c95 \u0c89\u0cb0\u0ccd\u0ca6\u0cc1 \u0cb6\u0cbe\u0cb2\u0cc6 \u0c9a\u0cbf\u0ca8\u0ccd\u0ca8\u0cbe\u0c95\u0cbe\u0cb0", "operator": "Government", "taluk": "Yadgir"}}, {"type": "node", "id": 2632326068, "lat": 16.78258, "lon": 77.37687, "tags": {"amenity": "school", "name": "Government Higher Primary School Chinnakara", "name:kn": "\u0cb8\u0cb0\u0ccd\u0c95\u0cbe\u0cb0\u0cbf \u0cb9\u0cbf\u0cb0\u0cbf\u0caf \u0caa\u0ccd\u0cb0\u0cbe\u0ca5\u0cae\u0cbf\u0c95 \u0cb6\u0cbe\u0cb2\u0cc6 \u0c9a\u0cbf\u0ca8\u0ccd\u0ca8\u0cbe\u0c95\u0cbe\u0cb0", "operator": "Government", "taluk": "Yadgir"}}, {"type": "node", "id": 2632326069, "lat": 16.8076, "lon": 77.32948, "tags": {"amenity": "school", "name": "Government Higher Primary School Chintanahalli", "name:kn": "\u0cb8\u0cb0\u0ccd\u0c95\u0cbe\u0cb0\u0cbf \u0cb9\u0cbf\u0cb0\u0cbf\u0caf \u0caa\u0ccd\u0cb0\u0cbe\u0ca5\u0cae\u0cbf\u0c95 \u0cb6\u0cbe\u0cb2\u0cc6 \u0c9a\u0cbf\u0c82\u0ca4\u0ca8\u0cb9\u0cb3\u0ccd\u0cb3\u0cbf", "operator": "Government", "taluk": "Yadgir"}}, {"type": "node", "id": 2632326070, "lat": 16.86863, "lon": 77.30711, "tags": {"amenity": "school", "name": "Government Higher Primary School D.G. Tanda", "name:kn": "\u0cb8\u0cb0\u0ccd\u0c95\u0cbe\u0cb0\u0cbf \u0cb9\u0cbf\u0cb0\u0cbf\u0caf \u0caa\u0ccd\u0cb0\u0cbe\u0ca5\u0cae\u0cbf\u0c95 \u0cb6\u0cbe\u0cb2\u0cc6", "operator": "Government", "taluk": "Yadgir"}}, {"type": "node", "id": 2632326081, "lat": 16.81792, "lon": 77.37336, "tags": {"amenity": "school", "name": "Government Higher Primary School Dharamapur", "name:kn": "\u0cb8\u0cb0\u0ccd\u0c95\u0cbe\u0cb0\u0cbf \u0cb9\u0cbf\u0cb0\u0cbf\u0caf \u0caa\u0ccd\u0cb0\u0cbe\u0ca5\u0cae\u0cbf\u0c95 \u0cb6\u0cbe\u0cb2\u0cc6", "operator": "Government", "taluk": "Yadgir"}}, {"type": "node", "id": 2632326152, "lat": 16.7784, "lon": 77.3541, "tags": {"amenity": "school", "name": "Government Higher Primary School Gunjunur", "name:kn": "\u0cb8\u0cb0\u0ccd\u0c95\u0cbe\u0cb0\u0cbf \u0cb9\u0cbf\u0cb0\u0cbf\u0caf \u0caa\u0ccd\u0cb0\u0cbe\u0ca5\u0cae\u0cbf\u0c95 \u0cb6\u0cbe\u0cb2\u0cc6 \u0c97\u0cc1\u0c82\u0c9c\u0ca8\u0cc2\u0cb0", "operator": "Government", "taluk": "Yadgir"}}, {"type": "node", "id": 2632326190, "lat": 16.8667568, "lon": 77.3388102, "tags": {"amenity": "school", "name": "Government Higher Primary School Himalpur", "name:kn": "\u0cb8\u0cb0\u0ccd\u0c95\u0cbe\u0cb0\u0cbf \u0cb9\u0cbf\u0cb0\u0cbf\u0caf \u0caa\u0ccd\u0cb0\u0cbe\u0ca5\u0cae\u0cbf\u0c95 \u0cb6\u0cbe\u0cb2\u0cc6 \u0cb9\u0cbf\u0cae\u0cbe\u0cb2\u0caa\u0cc2\u0cb0", "operator": "Government", "taluk": "Yadgir"}}, {"type": "node", "id": 2632326272, "lat": 16.80143, "lon": 77.296, "tags": {"amenity": "school", "name": "Government Higher Primary School Magadampur", "name:kn": "\u0cb8\u0cb0\u0ccd\u0c95\u0cbe\u0cb0\u0cbf \u0cb9\u0cbf\u0cb0\u0cbf\u0caf \u0caa\u0ccd\u0cb0\u0cbe\u0ca5\u0cae\u0cbf\u0c95 \u0cb6\u0cbe\u0cb2\u0cc6 \u0cae\u0c97\u0ccd\u0ca6\u0c82\u0caa\u0cc2\u0cb0", "operator": "Government", "taluk": "Yadgir"}}, {"type": "node", "id": 2632326279, "lat": 16.86925, "lon": 77.39509, "tags": {"amenity": "school", "name": "Government Higher Primary School Mallayankatta", "name:kn": "\u0cb8\u0cb0\u0ccd\u0c95\u0cbe\u0cb0\u0cbf \u0cb9\u0cbf\u0cb0\u0cbf\u0caf \u0caa\u0ccd\u0cb0\u0cbe\u0ca5\u0cae\u0cbf\u0c95 \u0cb6\u0cbe\u0cb2\u0cc6", "operator": "Government", "taluk": "Yadgir"}}, {"type": "node", "id": 2632326289, "lat": 16.78542, "lon": 77.40857, "tags": {"amenity": "school", "name": "Government Higher Primary School Minasapura", "name:kn": "\u0cb8\u0cb0\u0ccd\u0c95\u0cbe\u0cb0\u0cbf \u0cb9\u0cbf\u0cb0\u0cbf\u0caf \u0caa\u0ccd\u0cb0\u0cbe\u0ca5\u0cae\u0cbf\u0c95 \u0cb6\u0cbe\u0cb2\u0cc6 \u0cae\u0cbf\u0ca8\u0cbe\u0cb8\u0caa\u0cc2\u0cb0", "operator": "Government", "taluk": "Yadgir"}}, {"type": "node", "id": 2632326307, "lat": 16.8317038, "lon": 77.4040833, "tags": {"amenity": "school", "name": "Government Higher Primary School Nazarapur", "name:kn": "\u0cb8\u0cb0\u0ccd\u0c95\u0cbe\u0cb0\u0cbf \u0cb9\u0cbf\u0cb0\u0cbf\u0caf \u0caa\u0ccd\u0cb0\u0cbe\u0ca5\u0cae\u0cbf\u0c95 \u0cb6\u0cbe\u0cb2\u0cc6 \u0ca8\u0c9c\u0cb0\u0cbe\u0caa\u0cc2\u0cb0", "operator": "Government", "taluk": "Yadgir"}}, {"type": "node", "id": 2632326313, "lat": 16.77796, "lon": 77.29851, "tags": {"amenity": "school", "name": "Government Higher Primary School Paspool", "name:kn": "\u0cb8\u0cb0\u0ccd\u0c95\u0cbe\u0cb0\u0cbf \u0cb9\u0cbf\u0cb0\u0cbf\u0caf \u0caa\u0ccd\u0cb0\u0cbe\u0ca5\u0cae\u0cbf\u0c95 \u0cb6\u0cbe\u0cb2\u0cc6 \u0caa\u0cb8\u0caa\u0cc2\u0cb2", "operator": "Government", "taluk": "Yadgir"}}, {"type": "node", "id": 2632326347, "lat": 16.8778572, "lon": 77.2833443, "tags": {"amenity": "school", "name": "Government Higher Primary School Shivapura", "name:kn": "\u0cb8\u0cb0\u0ccd\u0c95\u0cbe\u0cb0\u0cbf \u0cb9\u0cbf\u0cb0\u0cbf\u0caf \u0caa\u0ccd\u0cb0\u0cbe\u0ca5\u0cae\u0cbf\u0c95 \u0cb6\u0cbe\u0cb2\u0cc6 \u0cb6\u0cbf\u0cb5\u0caa\u0cc1\u0cb0", "operator": "Government", "taluk": "Yadgir"}}, {"type": "node", "id": 2632327204, "lat": 16.780605, "lon": 77.3294453, "tags": {"amenity": "school", "name": "Government MPS Kandakura", "name:kn": "\u0cb8\u0cb0\u0ccd\u0c95\u0cbe\u0cb0\u0cbf \u0cae\u0cbe\u0ca6\u0cb0\u0cbf \u0caa\u0ccd\u0cb0\u0cbe\u0ca5\u0cae\u0cbf\u0c95 \u0cb6\u0cbe\u0cb2\u0cc6 \u0c95\u0c82\u0ca6\u0c95\u0cc2\u0cb0", "operator": "Government", "taluk": "Yadgir"}}, {"type": "node", "id": 4313066051, "lat": 16.8953575, "lon": 77.2868252}, {"type": "node", "id": 4313066052, "lat": 16.8953782, "lon": 77.2872138}, {"type": "node", "id": 4313066053, "lat": 16.8954317, "lon": 77.2874106}, {"type": "node", "id": 4313066055, "lat": 16.8956063, "lon": 77.2873615}, {"type": "node", "id": 4313066056, "lat": 16.89565, "lon": 77.2873036}, {"type": "node", "id": 4313066059, "lat": 16.8958035, "lon": 77.2868049}, {"type": "node", "id": 4313066060, "lat": 16.8958059, "lon": 77.2872849}, {"type": "node", "id": 5488238709, "lat": 16.7711957, "lon": 77.4206221}, {"type": "node", "id": 5488238710, "lat": 16.77117, "lon": 77.4209467}, {"type": "node", "id": 5488238711, "lat": 16.7713331, "lon": 77.4209413}, {"type": "node", "id": 5488238712, "lat": 16.7714512, "lon": 77.4209426}, {"type": "node", "id": 5488238713, "lat": 16.7714692, "lon": 77.4206167}, {"type": "node", "id": 5948185018, "lat": 16.853766, "lon": 77.6042045}, {"type": "node", "id": 5948185019, "lat": 16.8537596, "lon": 77.604349}, {"type": "node", "id": 5948185020, "lat": 16.8532825, "lon": 77.60526}, {"type": "node", "id": 5948185021, "lat": 16.8534379, "lon": 77.6042074}, {"type": "node", "id": 5948185023, "lat": 16.8534692, "lon": 77.6041901}, {"type": "node", "id": 5948185024, "lat": 16.8537378, "lon": 77.6052717}, {"type": "node", "id": 5948185026, "lat": 16.8532994, "lon": 77.6044247}, {"type": "node", "id": 6808109835, "lat": 16.9830081, "lon": 77.3253076}, {"type": "node", "id": 6808109836, "lat": 16.9827439, "lon": 77.3252647}, {"type": "node", "id": 6808109837, "lat": 16.9827003, "lon": 77.3255195}, {"type": "node", "id": 6808109838, "lat": 16.982944, "lon": 77.3256054}, {"type": "node", "id": 6808117351, "lat": 16.9851385, "lon": 77.3260077}, {"type": "node", "id": 6808117352, "lat": 16.9850795, "lon": 77.3262598}, {"type": "node", "id": 6808117353, "lat": 16.9848461, "lon": 77.3261968}, {"type": "node", "id": 6808117354, "lat": 16.9849012, "lon": 77.3259487}, {"type": "node", "id": 6808150361, "lat": 16.9824918, "lon": 77.3266085}, {"type": "node", "id": 6808150362, "lat": 16.9824995, "lon": 77.3268204}, {"type": "node", "id": 6808150363, "lat": 16.9823379, "lon": 77.3268258}, {"type": "node", "id": 6808150364, "lat": 16.9823482, "lon": 77.3266192}, {"type": "node", "id": 7174127266, "lat": 17.1057605, "lon": 77.6269657, "tags": {"amenity": "school"}}, {"type": "node", "id": 7180016830, "lat": 17.1067199, "lon": 77.6256386, "tags": {"addr:city": "kodangal", "addr:postcode": "509338", "addr:street": "college road", "amenity": "school", "name": "Vishwabharathi high school"}}, {"type": "node", "id": 7180027968, "lat": 17.1059394, "lon": 77.6227072, "tags": {"addr:city": "kodangal", "addr:postcode": "509338", "addr:street": "boys school", "amenity": "school", "name": "ZPHS Boys high school kodangal"}}, {"type": "node", "id": 9350472548, "lat": 17.110395, "lon": 77.6261236, "tags": {"addr:city": "kodangal", "addr:postcode": "509338", "addr:street": "girls school", "amenity": "school", "name": "ZPHS Girls high school kodangal"}}, {"type": "way", "id": 432142500, "nodes": [4313066059, 4313066060, 4313066056, 4313066055, 4313066053, 4313066052, 4313066051, 4313066059], "tags": {"amenity": "school", "name": "Adarsh Higher Primary School Gajarkot", "name:kn": "\u0c86\u0ca6\u0cb0\u0ccd\u0cb6 \u0cb8\u0cb0\u0ccd\u0c95\u0cbe\u0cb0\u0cbf \u0cb9\u0cbf\u0cb0\u0cbf\u0caf \u0caa\u0ccd\u0cb0\u0cbe\u0ca5\u0cae\u0cbf\u0c95 \u0cb6\u0cbe\u0cb2\u0cc6", "operator": "Government", "taluk": "Yadgir"}}, {"type": "way", "id": 570921134, "nodes": [5488238713, 5488238712, 5488238711, 5488238710, 5488238709, 5488238713], "tags": {"addr:place": "Yadepalli", "amenity": "school", "name": "Government Higher Primary School", "name:kn": "\u0cb8\u0cb0\u0ccd\u0c95\u0cbe\u0cb0\u0cbf \u0cb9\u0cbf\u0cb0\u0cbf\u0caf \u0caa\u0ccd\u0cb0\u0cbe\u0ca5\u0cae\u0cbf\u0c95 \u0cb6\u0cbe\u0cb2\u0cc6, \u0c8e\u0ca1\u0cc7\u0caa\u0cb2\u0ccd\u0cb2\u0cbf", "operator": "Government", "taluk": "Yadgir"}}, {"type": "way", "id": 629823189, "nodes": [5948185018, 5948185019, 5948185024, 5948185020, 5948185026, 5948185021, 5948185023, 5948185018], "tags": {"amenity": "school", "name": "Geetanjali high school"}}, {"type": "way", "id": 726156651, "nodes": [6808109835, 6808109836, 6808109837, 6808109838, 6808109835], "tags": {"addr:city": "kalaburagi", "addr:postcode": "585318", "addr:street": "near kolkunda grama panchayath kolkunda", "amenity": "school", "name": "Government Primary School", "name:kn": "\u0c95\u0cca\u0cb2\u0c95\u0cc1\u0c82\u0ca6\u0cbe \u0cb8\u0cb0\u0ccd\u0c95\u0cbe\u0cb0\u0cbf \u0caa\u0ccd\u0cb0\u0cbe\u0ca5\u0cae\u0cbf\u0c95 \u0cb6\u0cbe\u0cb2\u0cc6"}}, {"type": "way", "id": 726158496, "nodes": [6808117351, 6808117352, 6808117353, 6808117354, 6808117351], "tags": {"addr:city": "kalaburagi", "addr:postcode": "585318", "addr:street": "near goverment hospital kolkunda", "amenity": "school", "name": "Government High School", "name:kn": "\u0cb8\u0cb0\u0ccd\u0c95\u0cbe\u0cb0\u0cbf \u0caa\u0ccd\u0cb0\u0ccc\u0ca2\u0cb6\u0cbe\u0cb2\u0cc6"}}, {"type": "way", "id": 726160364, "nodes": [6808150361, 6808150362, 6808150363, 6808150364, 6808150361], "tags": {"amenity": "school", "name": "Harijana Vadi School Kolkunda"}}]}