{"version": 0.6, "generator": "Overpass API 0.7.62.8 e802775f", "osm3s": {"timestamp_osm_base": "2025-11-29T17:10:54Z", "copyright": "The data included in this document is from www.openstreetmap.org. The data is made available under ODbL."}, "elements": [{"type": "node", "id": 824161248, "lat": 13.3124291, "lon": 76.9546237, "tags": {"name": "Puncture Shop", "shop": "car_repair"}}, {"type": "node", "id": 824262058, "lat": 13.3090246, "lon": 76.9428944, "tags": {"name": "Bakery", "opening_hours": "10:00-22:00", "shop": "bakery"}}, {"type": "node", "id": 827136098, "lat": 13.3094558, "lon": 76.9404516, "tags": {"name": "Mithra Electricals", "shop": "electrical"}}, {"type": "node", "id": 827240332, "lat": 13.3089378, "lon": 76.9439225}, {"type": "node", "id": 827240335, "lat": 13.3085221, "lon": 76.9416448, "tags": {"description": "Village Resource and Information Centre", "information": "office", "name": "Grama", "name:kn": "\u0c97\u0ccd\u0cb0\u0cbe\u0cae", "shop": "kiosk"}}, {"type": "node", "id": 827240340, "lat": 13.3090038, "lon": 76.9439242}, {"type": "node", "id": 836368910, "lat": 13.3091286, "lon": 76.9420847, "tags": {"name": "Rajaram Fancy Stores", "name:kn": "\u0cb0\u0cbe\u0c9c\u0cb0\u0cbe\u0c82 \u0cab\u0ccd\u0caf\u0cbe\u0ca8\u0ccd\u0cb8\u0cbf \u0c85\u0c82\u0c97\u0ca1\u0cbf", "shop": "supermarket"}}, {"type": "node", "id": 836368918, "lat": 13.3107309, "lon": 76.9404337, "tags": {"name": "Surabhi Hair Dresser", "name:kn": "\u0cb8\u0cc1\u0cb0\u0cad\u0cbf \u0cb9\u0cc7\u0cb0\u0ccd \u0ca1\u0ccd\u0cb0\u0cb8\u0ccd\u0cb8\u0cb0\u0ccd", "shop": "hairdresser"}}, {"type": "node", "id": 836368976, "lat": 13.3103222, "lon": 76.942706, "tags": {"name": "Global Books and Scientific Center", "name:kn": "\u0c97\u0ccd\u0cb2\u0ccb\u0cac\u0cb2\u0ccd \u0caa\u0cc1\u0cb8\u0ccd\u0ca4\u0c95\u0ca6 \u0cae\u0ca4\u0ccd\u0ca4\u0cc1 \u0cb5\u0cc8\u0c9c\u0ccd\u0c9e\u0cbe\u0ca8\u0cbf\u0c95 \u0c95\u0cc7\u0c82\u0ca6\u0ccd\u0cb0", "shop": "books"}}, {"type": "node", "id": 836369063, "lat": 13.3096446, "lon": 76.9427473, "tags": {"name": "Royal Times", "name:kn": "\u0cb0\u0cbe\u0caf\u0cc6\u0cb2\u0ccd \u0c9f\u0cc8\u0cae\u0ccd\u0cb8\u0ccd", "shop": "electronics"}}, {"type": "node", "id": 836369083, "lat": 13.3091103, "lon": 76.9418055, "tags": {"name": "Srinivasa Hall", "name:kn": "\u0cb6\u0ccd\u0cb0\u0cc0\u0ca8\u0cbf\u0cb5\u0cbe\u0cb8 \u0cb8\u0cad\u0cbe\u0c82\u0c97\u0ca3", "shop": "convenience"}}, {"type": "node", "id": 836369107, "lat": 13.3112045, "lon": 76.9426422, "tags": {"name": "Siddalingeshwara Book Store", "name:kn": "\u0cb8\u0cbf\u0ca6\u0ccd\u0ca6\u0cb2\u0cbf\u0c82\u0c97\u0cc7\u0cb6\u0ccd\u0cb5\u0cb0 \u0caa\u0cc1\u0cb8\u0ccd\u0ca4\u0c95 \u0c85\u0c82\u0c97\u0ca1\u0cbf", "shop": "stationery"}}, {"type": "node", "id": 1800429512, "lat": 13.3151636, "lon": 76.9406316}, {"type": "node", "id": 1800429513, "lat": 13.3151757, "lon": 76.9406838}, {"type": "node", "id": 1800429514, "lat": 13.3152741, "lon": 76.9405995}, {"type": "node", "id": 1800429515, "lat": 13.3152841, "lon": 76.9406557}, {"type": "node", "id": 2181018435, "lat": 13.1038892, "lon": 77.2214631}, {"type": "node", "id": 2181018436, "lat": 13.1056238, "lon": 77.2218278}, {"type": "node", "id": 2181018437, "lat": 13.1053103, "lon": 77.2197035}, {"type": "node", "id": 2822932328, "lat": 13.3090987, "lon": 76.9419819, "tags": {"name": "Shiva Book Stores", "name:kn": "\u0cb6\u0cbf\u0cb5 \u0caa\u0cc1\u0cb8\u0ccd\u0ca4\u0c95\u0ca6 \u0c85\u0c82\u0c97\u0ca1\u0cbf", "shop": "books"}}, {"type": "node", "id": 2822932335, "lat": 13.3089983, "lon": 76.9402412, "tags": {"shop": "bakery"}}, {"type": "node", "id": 2822932336, "lat": 13.309124, "lon": 76.942189, "tags": {"addr:postcode": "572216", "addr:street": "NH206, Gubbi", "name": "Sri Krishna Bakery", "name:kn": "\u0cb6\u0ccd\u0cb0\u0cc0\u0c95\u0cc3\u0cb7\u0ccd\u0ca3 \u0cac\u0cc7\u0c95\u0cb0\u0cbf", "shop": "bakery"}}, {"type": "node", "id": 2822932348, "lat": 13.3080931, "lon": 76.9392792, "tags": {"shop": "bakery"}}, {"type": "node", "id": 3270498465, "lat": 13.3089349, "lon": 76.9440369}, {"type": "node", "id": 3270498466, "lat": 13.3090009, "lon": 76.9440386}, {"type": "node", "id": 4035952329, "lat": 13.3130767, "lon": 76.9130765, "tags": {"shop": "stationery"}}, {"type": "node", "id": 4035954979, "lat": 13.3154907, "lon": 76.9132248, "tags": {"shop": "stationery"}}, {"type": "node", "id": 4152665005, "lat": 13.3134159, "lon": 77.1155488, "tags": {"shop": "tea"}}, {"type": "node", "id": 4237518799, "lat": 13.312577, "lon": 76.9547979, "tags": {"name": "C Y Bros Milk Booth and Tea Stall", "shop": "bakery"}}, {"type": "node", "id": 4237522002, "lat": 13.3124971, "lon": 76.9547012, "tags": {"name": "Sri Ganesh Hanuman Tea Stall", "shop": "bakery"}}, {"type": "node", "id": 4287612320, "lat": 13.3110055, "lon": 76.9427991, "tags": {"name": "Gift Shop", "shop": "gift"}}, {"type": "node", "id": 4287612322, "lat": 13.3110407, "lon": 76.9407078, "tags": {"name": "KMF (Nandini) Outlet", "shop": "convenience"}}, {"type": "node", "id": 4287612325, "lat": 13.3113992, "lon": 76.9423662, "tags": {"name": "Shiva Book Stores", "shop": "stationery"}}, {"type": "node", "id": 4287612327, "lat": 13.3132002, "lon": 76.9408496, "tags": {"name": "Sri Rudreshwara Home Appliances", "shop": "electronics"}}, {"type": "node", "id": 4287612329, "lat": 13.3112173, "lon": 76.9407286, "tags": {"name": "Vishwas Tailors", "shop": "tailor"}}, {"type": "node", "id": 4287612330, "lat": 13.3116897, "lon": 76.9406406, "tags": {"name": "Vivira Super Market", "shop": "supermarket"}}, {"type": "node", "id": 4287813981, "lat": 13.3128633, "lon": 76.9407799, "tags": {"name": "SCS Communications", "shop": "mobile_phone"}}, {"type": "node", "id": 4287813982, "lat": 13.3096095, "lon": 76.9491715, "tags": {"brand": "Suzuki", "name": "Saketh Motors", "shop": "car"}}, {"type": "node", "id": 4287813984, "lat": 13.3130049, "lon": 76.9407724, "tags": {"brand": "Honda", "motorcycle:parts": "yes", "motorcycle:repair": "yes", "motorcycle:sales": "yes", "name": "Shanta Motors", "shop": "motorcycle"}}, {"type": "node", "id": 4287813985, "lat": 13.312981, "lon": 76.9407969, "tags": {"name": "Shimsha DTP, Internet and Printers", "shop": "computer"}}, {"type": "node", "id": 4365703089, "lat": 13.3090302, "lon": 76.940581, "tags": {"name:en": "Vasavi Textile", "shop": "clothes"}}, {"type": "node", "id": 4406361289, "lat": 12.9557341, "lon": 77.224884, "tags": {"name": "Shubhodaya Digital Studio", "name:en": "shubhodaya digital studio", "opening_hours": "Mo-Su 09:00-20:00", "phone": "8147609261", "shop": "photo"}}, {"type": "node", "id": 5261470212, "lat": 12.9579718, "lon": 77.2211255, "tags": {"name": "New Bhuvan Mobiles", "shop": "mobile_phone"}}, {"type": "node", "id": 5261483675, "lat": 12.9579337, "lon": 77.2211665, "tags": {"name": "Sri Ganesh Bakery", "shop": "pastry"}}, {"type": "node", "id": 5261484194, "lat": 12.958114, "lon": 77.2213258, "tags": {"name": "L J Iyengar Bakery & Sweets", "shop": "pastry"}}, {"type": "way", "id": 68873698, "nodes": [827240340, 827240332, 3270498465, 3270498466, 827240340], "tags": {"building": "yes", "name": "Fertilizer Shop", "opening_hours": "10:00-18:00", "shop": "kiosk"}}, {"type": "way", "id": 168855138, "nodes": [1800429513, 1800429512, 1800429514, 1800429515, 1800429513], "tags": {"building": "commercial", "name": "Furnitures", "shop": "furniture"}}, {"type": "way", "id": 207852895, "nodes": [2181018437, 2181018436, 2181018435, 2181018437], "tags": {"shop": "books"}}]}