{"version": 0.6, "generator": "Overpass API 0.7.62.8 e802775f", "osm3s": {"timestamp_osm_base": "2025-11-29T17:34:26Z", "copyright": "The data included in this document is from www.openstreetmap.org. The data is made available under ODbL."}, "elements": [{"type": "node", "id": 2571846816, "lat": 16.5977444, "lon": 74.5032786}, {"type": "node", "id": 2571846819, "lat": 16.5981235, "lon": 74.503054}, {"type": "node", "id": 2571846820, "lat": 16.5983188, "lon": 74.5035321}, {"type": "node", "id": 4445528245, "lat": 16.3942041, "lon": 74.386681, "tags": {"addr:city": "belgaum", "addr:postcode": "591237,", "addr:street": "Bhima Nagar, Nipani Belgaum", "amenity": "school", "name": "Vidya Mandir High School", "phone": "(08338) 220731"}}, {"type": "node", "id": 4447357532, "lat": 16.525264, "lon": 74.487879, "tags": {"addr:city": "Belgaum", "addr:postcode": "591222", "addr:street": "Chikodi, Belgaum", "amenity": "school", "name": "Jawahar Navodaya Vidyalaya", "name:kn": "\u0c9c\u0cb5\u0cb9\u0cb0 \u0ca8\u0cb5\u0ccb\u0ca6\u0caf \u0cb5\u0cbf\u0ca6\u0ccd\u0caf\u0cbe\u0cb2\u0caf", "phone": "+91 8338281210"}}, {"type": "node", "id": 4998184464, "lat": 16.3950219, "lon": 74.3841884}, {"type": "node", "id": 4998184468, "lat": 16.3935029, "lon": 74.3845058}, {"type": "node", "id": 4998184484, "lat": 16.3947277, "lon": 74.3823131}, {"type": "node", "id": 4998184492, "lat": 16.3935192, "lon": 74.3831281}, {"type": "node", "id": 6685051187, "lat": 16.5972335, "lon": 74.3980582}, {"type": "node", "id": 6685051188, "lat": 16.5972489, "lon": 74.39814}, {"type": "node", "id": 6685051189, "lat": 16.5978176, "lon": 74.3980139}, {"type": "node", "id": 6685051190, "lat": 16.597797, "lon": 74.3979321}, {"type": "node", "id": 6685051372, "lat": 16.5971609, "lon": 74.3978155}, {"type": "node", "id": 6685051373, "lat": 16.5970323, "lon": 74.3978423}, {"type": "node", "id": 6685051374, "lat": 16.5972148, "lon": 74.3980737}, {"type": "node", "id": 6685051375, "lat": 16.5970811, "lon": 74.3981005}, {"type": "node", "id": 6685051376, "lat": 16.5969861, "lon": 74.3975848}, {"type": "node", "id": 6685051377, "lat": 16.5971197, "lon": 74.397558}, {"type": "node", "id": 6862633378, "lat": 16.3948051, "lon": 74.3824116}, {"type": "node", "id": 8794355780, "lat": 16.4546066, "lon": 74.2682105, "tags": {"addr:postcode": "416235", "amenity": "school", "name": "Vidya Mandir Anur"}}, {"type": "node", "id": 8794355805, "lat": 16.4578591, "lon": 74.268262}, {"type": "node", "id": 8794355806, "lat": 16.4579773, "lon": 74.2688474}, {"type": "node", "id": 8794355807, "lat": 16.4577202, "lon": 74.2689152}, {"type": "node", "id": 8794355808, "lat": 16.4575932, "lon": 74.2683329}, {"type": "node", "id": 8794355809, "lat": 16.4578325, "lon": 74.2688043, "tags": {"addr:city": "Anur", "addr:housenumber": "Mahatma Fule Madhyamik Vidyalay Anur", "addr:postcode": "416235", "addr:street": "Main road", "amenity": "school", "name": "Mahatma Fule Madhyamik Vidyalay Anur", "religion": "all"}}, {"type": "node", "id": 9142734567, "lat": 16.5792744, "lon": 74.3318874, "tags": {"amenity": "school", "name": "Jawahar Navodaya Vidyalaya", "phone": "+91-02325-244197", "website": "https://www.navodaya.gov.in/nvs/nvs-school/Kolhapur/en/home/index.html"}}, {"type": "node", "id": 9883593124, "lat": 16.5969706, "lon": 74.5038432}, {"type": "node", "id": 9883593125, "lat": 16.5971763, "lon": 74.5052057}, {"type": "node", "id": 9883593126, "lat": 16.5975413, "lon": 74.5052916}, {"type": "node", "id": 9883593127, "lat": 16.5985335, "lon": 74.5055598}, {"type": "node", "id": 9883593128, "lat": 16.5989345, "lon": 74.5058763}, {"type": "node", "id": 9883593129, "lat": 16.5991966, "lon": 74.5057207}, {"type": "node", "id": 10603422852, "lat": 16.4397568, "lon": 74.2772362, "tags": {"amenity": "school", "name": "K.D.R Bhosale Vidya Mandir"}}, {"type": "node", "id": 10603432783, "lat": 16.4259078, "lon": 74.2877224, "tags": {"amenity": "school", "name": "ITI Sadashivnagar"}}, {"type": "node", "id": 10603454942, "lat": 16.4255823, "lon": 74.2876407, "tags": {"amenity": "school", "name": "Ideal English Medium School Sadashivnagar"}}, {"type": "node", "id": 10603455708, "lat": 16.4244331, "lon": 74.2878391, "tags": {"amenity": "school", "name": "New English School & Junior Collage , Sadashivnagar"}}, {"type": "node", "id": 10603532391, "lat": 16.427265, "lon": 74.263543, "tags": {"amenity": "school", "name": "Vidya Mandir Sonage"}}, {"type": "node", "id": 10603614732, "lat": 16.414895, "lon": 74.2426108, "tags": {"amenity": "school", "name": "Mahatma Jyotiba Fule Vidya Mandir Surupali"}}, {"type": "node", "id": 11811110344, "lat": 16.5752905, "lon": 74.315555}, {"type": "node", "id": 11811110345, "lat": 16.5749269, "lon": 74.3156157}, {"type": "node", "id": 11811110346, "lat": 16.5749414, "lon": 74.3158364}, {"type": "node", "id": 11811110347, "lat": 16.5753364, "lon": 74.315827}, {"type": "node", "id": 11811110348, "lat": 16.575314, "lon": 74.3156998}, {"type": "way", "id": 510835169, "nodes": [4998184484, 6862633378, 4998184464, 4998184468, 4998184492, 4998184484], "tags": {"amenity": "school"}}, {"type": "way", "id": 711084164, "nodes": [6685051190, 6685051189, 6685051188, 6685051187, 6685051190], "tags": {"amenity": "school", "building": "yes"}}, {"type": "way", "id": 711084218, "nodes": [6685051377, 6685051372, 6685051374, 6685051375, 6685051373, 6685051376, 6685051377], "tags": {"amenity": "school", "building": "yes"}}, {"type": "way", "id": 949956856, "nodes": [8794355805, 8794355806, 8794355807, 8794355808, 8794355805], "tags": {"addr:postcode": "416235", "amenity": "school", "name": "Mahatma Fule Madhyamik Vidyalay Anur"}}, {"type": "way", "id": 1078013235, "nodes": [2571846819, 2571846820, 9883593129, 9883593128, 9883593127, 9883593126, 9883593125, 9883593124, 2571846816, 2571846819], "tags": {"amenity": "school"}}, {"type": "way", "id": 1271901891, "nodes": [11811110344, 11811110345, 11811110346, 11811110347, 11811110348, 11811110344], "tags": {"addr:city": "Kagal", "addr:district": "Kolhapur", "addr:postcode": "416216", "addr:street": "Guruvar Peth", "amenity": "school", "grades": "1-4", "name": "Sr.Mugradraje Ghatage primary School", "operator": "Community", "operator:type": "private"}}]}