{"version": 0.6, "generator": "Overpass API 0.7.62.8 e802775f", "osm3s": {"timestamp_osm_base": "2025-11-29T17:14:56Z", "copyright": "The data included in this document is from www.openstreetmap.org. The data is made available under ODbL."}, "elements": [{"type": "node", "id": 2519940894, "lat": 17.3417434, "lon": 76.8390071, "tags": {"name": "Cloth Bazaar Ladies", "opening_hours": "Mo-Fr 08:30-20:00", "shop": "clothes"}}, {"type": "node", "id": 3198709030, "lat": 17.3294851, "lon": 76.814974, "tags": {"name": "Kanni Market", "shop": "greengrocer"}}, {"type": "node", "id": 3353570280, "lat": 17.3259076, "lon": 76.8346706, "tags": {"name": "Asain Mohal", "shop": "mall"}}, {"type": "node", "id": 3353571633, "lat": 17.3338224, "lon": 76.8393148, "tags": {"addr:city": "Kalaburagi", "addr:housenumber": "STBT", "addr:street": "Dargah Road", "name": "Big Bazar", "operator": "Kalaskar", "shop": "supermarket"}}, {"type": "node", "id": 3353589360, "lat": 17.3189626, "lon": 76.8279422, "tags": {"addr:city": "Kalaburagi", "addr:housenumber": "SVP chowk", "addr:street": "Station Road", "name": "Kandur Maal", "operator": "Kandur", "shop": "supermarket"}}, {"type": "node", "id": 3353590052, "lat": 17.3191078, "lon": 76.8278645, "tags": {"name": "Kandakoor Mall", "operator": "kandkoor mall", "shop": "mall"}}, {"type": "node", "id": 3353590053, "lat": 17.3339213, "lon": 76.8393517, "tags": {"name": "Big Bazar", "operator": "big bazar", "shop": "mall"}}, {"type": "node", "id": 3353596211, "lat": 17.346273, "lon": 76.8261168, "tags": {"name": "Shetty Mall", "shop": "mall"}}, {"type": "node", "id": 3353596212, "lat": 17.3401125, "lon": 76.8354008, "tags": {"name": "Century Complex", "shop": "mall"}}, {"type": "node", "id": 3353599188, "lat": 17.3299272, "lon": 76.8296659, "tags": {"name": "bigbazar", "shop": "yes"}}, {"type": "node", "id": 3353604622, "lat": 17.3200478, "lon": 76.8269749, "tags": {"addr:city": "Kalaburagi", "addr:housenumber": "SVP Chowk", "addr:street": "Court Road", "name": "Venkateshwar Super Bazar", "operator": "Bacha", "shop": "supermarket"}}, {"type": "node", "id": 3353614280, "lat": 17.3253117, "lon": 76.8342664, "tags": {"description": "Asian commercial complex", "name": "Asian commercial complex", "shop": "mall"}}, {"type": "node", "id": 3353620799, "lat": 17.327971, "lon": 76.8570501}, {"type": "node", "id": 3353620800, "lat": 17.3283825, "lon": 76.8571924}, {"type": "node", "id": 3353620801, "lat": 17.3282711, "lon": 76.8575523}, {"type": "node", "id": 3353620802, "lat": 17.3280276, "lon": 76.8574613}, {"type": "node", "id": 3353620803, "lat": 17.3280088, "lon": 76.8575068}, {"type": "node", "id": 3353620804, "lat": 17.3278443, "lon": 76.8574496}, {"type": "node", "id": 3353620805, "lat": 17.3279018, "lon": 76.8572638}, {"type": "node", "id": 3920908051, "lat": 17.3348005, "lon": 76.8413266}, {"type": "node", "id": 3920908052, "lat": 17.3348026, "lon": 76.84168}, {"type": "node", "id": 3920908053, "lat": 17.3349639, "lon": 76.84157}, {"type": "node", "id": 3920908054, "lat": 17.3345773, "lon": 76.8413179}, {"type": "node", "id": 4411061263, "lat": 17.3618918, "lon": 76.8483913, "tags": {"name": "Nandini Milk store", "shop": "convenience"}}, {"type": "node", "id": 4570124091, "lat": 17.3364279, "lon": 76.836799, "tags": {"name": "City center mall / Sapna bookHouse", "name:en": "City center mall / Sapna bookHouse", "shop": "supermarket"}}, {"type": "node", "id": 6868730461, "lat": 17.3200982, "lon": 76.8270133, "tags": {"addr:city": "Kalaburagi", "addr:housenumber": "055", "description": "Venkateshwar super bazar", "name": "Venkateshwar super bazar", "shop": "supermarket"}}, {"type": "node", "id": 6868730462, "lat": 17.3201307, "lon": 76.826902}, {"type": "node", "id": 6868730463, "lat": 17.3201392, "lon": 76.8271153}, {"type": "node", "id": 6868730464, "lat": 17.3199966, "lon": 76.8271216}, {"type": "node", "id": 6868730465, "lat": 17.3199881, "lon": 76.8269082}, {"type": "node", "id": 7901403247, "lat": 17.3508197, "lon": 76.8293005, "tags": {"addr:city": "Gulbarga", "addr:housenumber": "H no 9-512", "addr:postcode": "585101", "addr:street": "Shaha", "name": "Akash Menswear", "opening_hours": "Mo-Su 09:00-21:00", "operator": "Clothing store", "payment:cash": "yes", "shop": "supermarket"}}, {"type": "node", "id": 8114211715, "lat": 17.3265062, "lon": 76.8328375, "tags": {"name": "Gold Hub", "shop": "mall"}}, {"type": "node", "id": 9413872052, "lat": 17.3023525, "lon": 76.8173397, "tags": {"name": "Sri Kalyan Bajaj", "shop": "car"}}, {"type": "node", "id": 11273060007, "lat": 17.3423861, "lon": 76.8392909, "tags": {"name": "S P Collections", "shop": "wholesale"}}, {"type": "node", "id": 11386963323, "lat": 17.2719255, "lon": 76.916895, "tags": {"shop": "yes"}}, {"type": "node", "id": 11386968154, "lat": 17.2726025, "lon": 76.9171022, "tags": {"name": "Tea shop", "shop": "tea"}}, {"type": "node", "id": 11386985464, "lat": 17.2722576, "lon": 76.9170556, "tags": {"name": "Om prakash jadav keerana and janeral store", "phone": "9902353540", "shop": "yes"}}, {"type": "node", "id": 11387021598, "lat": 17.2733681, "lon": 76.917574, "tags": {"name": "Nabilal chicken center", "phone": "9900138836", "shop": "butcher"}}, {"type": "node", "id": 11876241148, "lat": 17.361836, "lon": 76.8482194, "tags": {"name": "K.M.F Nandini Milk Parlour \u0c95\u0cc6.\u0c8e\u0c82.\u0cab\u0ccd \u0ca8\u0c82\u0ca6\u0cbf\u0ca8\u0cbf \u0cae\u0cbf\u0cb2\u0ccd\u0c95\u0ccd \u0caa\u0cbe\u0cb0\u0ccd\u0cb2\u0cb0\u0ccd", "opening_hours": "Mo-Su 07:00-22:00", "payment:cash": "yes", "payment:google_pay": "yes", "payment:paytm": "yes", "payment:phonepe": "yes", "shop": "dairy"}}, {"type": "node", "id": 11876241149, "lat": 17.3618191, "lon": 76.8465347, "tags": {"name": "D Mart", "not:brand:wikidata": "Q5203271", "opening_hours": "Mo-Su 07:00-22:00", "payment:all": "yes", "shop": "supermarket"}}, {"type": "node", "id": 11876241150, "lat": 17.3619272, "lon": 76.846648}, {"type": "node", "id": 11876241151, "lat": 17.361613, "lon": 76.846517}, {"type": "node", "id": 11876241152, "lat": 17.3612482, "lon": 76.8475257}, {"type": "node", "id": 11876241153, "lat": 17.3615624, "lon": 76.8476743}, {"type": "node", "id": 11876241161, "lat": 17.3536641, "lon": 76.8440786, "tags": {"shop": "wholesale"}}, {"type": "node", "id": 11925053902, "lat": 17.4803262, "lon": 76.9181094, "tags": {"addr:city": "Ankalaga", "addr:district": "Gulbarga", "addr:postcode": "585316", "brand": "Govt Ration Shop", "name": "Ration Shop", "opening_hours": "Mo-Fr 09:00-17:00", "operator": "Public Distribution System", "operator:type": "public", "phone": "9108542302", "shop": "convenience"}}, {"type": "node", "id": 11925296368, "lat": 17.3221001, "lon": 76.8689221, "tags": {"addr:district": "Gulbarga", "addr:postcode": "585106", "guest_house": "hostel", "name": "hree Hingulambika Ayurvedic Medical College, Hospital and Research Centre, Kalaburagi \u0cb6\u0ccd\u0cb0\u0cc0 \u0cb9\u0cbf\u0c82\u0c97\u0cc1\u0cb2\u0cbe\u0c82\u0cac\u0cbf\u0c95\u0cbe \u0c86\u0caf\u0cc1\u0cb0\u0ccd\u0cb5\u0cc7\u0ca6\u0cbf\u0c95\u0ccd \u0cae\u0cc6\u0ca1\u0cbf\u0c95\u0cb2\u0ccd \u0c95\u0cbe\u0cb2\u0cc7\u0c9c\u0ccd, \u0cb9\u0cbe\u0cb8\u0ccd\u0caa\u0cbf\u0c9f\u0cb2\u0ccd \u0c85\u0c82\u0ca1\u0ccd \u0cb0\u0cbf\u0cb8\u0cb0\u0ccd\u0c9a\u0ccd \u0cb8\u0cc6\u0c82\u0c9f\u0cb0\u0ccd, \u0c95\u0cb2\u0cac\u0cc1\u0cb0\u0c97\u0cbf", "opening_hours": "Mo-Fr 09:00-17:00", "operator": "Private", "shop": "herbalist", "wheelchair": "yes"}}, {"type": "node", "id": 11925302269, "lat": 17.3753858, "lon": 76.8554077, "tags": {"addr:city": "Gulbarga", "addr:postcode": "585104", "brand": "Ford", "brand:wikidata": "Q44294", "name": "Bharat Ford", "opening_hours": "Mo-Su 10:00-22:00", "service:vehicle:car_repair": "yes", "service:vehicle:repair": "yes", "service:vehicle:service": "yes", "service:vehicle:tyres": "yes", "shop": "car"}}, {"type": "node", "id": 11925302270, "lat": 17.3751859, "lon": 76.855259, "tags": {"addr:city": "Gulbarga", "addr:district": "Gulbarga", "addr:postcode": "585104", "brand": "Mahindra", "name": "Mahindra Shah Motors - SUV & Commercial Vehicle Showroom", "opening_hours": "Mo-Su 10:00-22:00", "phone": "07948221291", "second_hand": "no", "service:vehicle:service": "yes", "shop": "car"}}, {"type": "node", "id": 11925302271, "lat": 17.3741796, "lon": 76.8548197, "tags": {"addr:city": "Gulbarga", "addr:district": "Gulbarga", "addr:postcode": "585104", "brand": "Kia", "name": "Kumar Kia \u0c95\u0cc1\u0cae\u0cbe\u0cb0\u0ccd \u0c95\u0cbf\u0caf\u0cbe", "opening_hours": "Mo-Su 10:00-22:00", "phone": "07948224073", "service:vehicle:car_repair": "yes", "service:vehicle:new_car_sales": "yes", "shop": "car"}}, {"type": "node", "id": 11925302272, "lat": 17.3735152, "lon": 76.8545629, "tags": {"addr:city": "Gulbarga", "addr:district": "Gulbarga", "addr:postcode": "585104", "brand": "Hyundai", "brand:wikidata": "Q55931", "name": "Shah Hyundai \u0cb6\u0cbe \u0cb9\u0ccd\u0caf\u0cc1\u0c82\u0ca1\u0cc8", "opening_hours": "Mo-Su 10:00-22:00", "phone": "07971266325", "second_hand": "no", "service:vehicle:car_repair": "yes", "service:vehicle:new_car_sales": "yes", "shop": "car"}}, {"type": "node", "id": 11925302273, "lat": 17.3698475, "lon": 76.8526504, "tags": {"addr:city": "Gulbarga", "addr:district": "Gulbarga", "addr:postcode": "585104", "brand": "Tata", "brand:wikidata": "Q188514", "name": "Tata Motors Cars Showroom - Manickbag Automobiles", "opening_hours": "Mo-Su 10:00-22:00", "phone": "08879169509", "second_hand": "no", "shop": "car"}}, {"type": "node", "id": 11974833794, "lat": 17.3390203, "lon": 76.8380329, "tags": {"addr:housenumber": "68", "addr:street": "Super market, kalaburagi", "name": "SRINIVAS SILKS & SAREES", "shop": "yes"}}, {"type": "node", "id": 12376011045, "lat": 17.3251112, "lon": 76.8213315, "tags": {"check_date": "2024-11-26", "name": "Book Binding", "shop": "department_store"}}, {"type": "way", "id": 328535085, "nodes": [3353620799, 3353620800, 3353620801, 3353620802, 3353620803, 3353620804, 3353620805, 3353620799], "tags": {"building": "yes", "name": "Toyota", "name:kn": "\u0c9f\u0cca\u0caf\u0ccb\u0c9f\u0cca", "shop": "car", "wheelchair": "yes"}}, {"type": "way", "id": 388910209, "nodes": [3920908053, 3920908052, 3920908054, 3920908051, 3920908053], "tags": {"addr:street": "Dargah Road", "building": "public", "name": "Bajaj Service", "shop": "motorcycle_repair"}}, {"type": "way", "id": 733446416, "nodes": [6868730462, 6868730463, 6868730464, 6868730465, 6868730462], "tags": {"building": "yes", "shop": "supermarket"}}, {"type": "way", "id": 1279306946, "nodes": [11876241150, 11876241151, 11876241152, 11876241153, 11876241150], "tags": {"building": "yes", "name": "D Mart Parking", "payment:free": "yes", "phone": "02233400500", "shop": "supermarket"}}]}