{"version": 0.6, "generator": "Overpass API 0.7.62.8 e802775f", "osm3s": {"timestamp_osm_base": "2025-11-29T17:17:56Z", "copyright": "The data included in this document is from www.openstreetmap.org. The data is made available under ODbL."}, "elements": [{"type": "node", "id": 3994325968, "lat": 18.2944374, "lon": 83.9029305, "tags": {"amenity": "bank", "atm": "yes", "brand": "Andhra Bank", "brand:wikidata": "Q2003476", "brand:wikipedia": "en:Andhra Bank", "name": "Andhra Bank", "name:en": "Andhra Bank", "website": "https://www.andhrabank.in"}}, {"type": "node", "id": 3994325988, "lat": 18.3021645, "lon": 83.9085171, "tags": {"amenity": "bank", "atm": "yes", "brand": "SBI", "brand:wikidata": "Q1340361", "brand:wikipedia": "en:State Bank of India", "name": "State Bank of India", "short_name": "SBI"}}, {"type": "node", "id": 9903926856, "lat": 18.2948479, "lon": 83.896907, "tags": {"amenity": "bank", "brand": "State Bank of India", "brand:wikidata": "Q1340361", "name": "State Bank of India", "short_name": "SBI"}}, {"type": "node", "id": 9918867467, "lat": 18.3064393, "lon": 83.8930254, "tags": {"amenity": "bank", "brand": "Bank of Baroda", "brand:wikidata": "Q2003797", "name": "Bank of Baroda"}}, {"type": "node", "id": 9918867468, "lat": 18.3063685, "lon": 83.8930229, "tags": {"amenity": "bank", "brand": "ICICI Bank", "brand:wikidata": "Q1653258", "name": "ICICI Bank", "short_name": "ICICI"}}, {"type": "node", "id": 9918867469, "lat": 18.3066493, "lon": 83.8930129, "tags": {"amenity": "bank", "name": "Oriental Bank Of Commerce"}}, {"type": "node", "id": 9918867475, "lat": 18.3079755, "lon": 83.8912334, "tags": {"addr:city": "Srikakulam", "addr:housenumber": "8V5R+4FQ", "addr:postcode": "532001", "addr:street": "Santhi Nagar Colony, Balaga", "amenity": "bank", "name": "Indian Overseas Bank"}}, {"type": "node", "id": 9918920581, "lat": 18.2992516, "lon": 83.8944958, "tags": {"amenity": "bank", "brand": "Karur Vysya Bank", "brand:wikidata": "Q6373724", "name": "Karur Vysya Bank"}}, {"type": "node", "id": 9918920582, "lat": 18.2993862, "lon": 83.8945125, "tags": {"amenity": "bank", "brand": "UCO Bank", "brand:wikidata": "Q2005310", "name": "UCO Bank"}}, {"type": "node", "id": 11633711628, "lat": 18.3125322, "lon": 83.8946768, "tags": {"amenity": "bank", "brand": "Union Bank of India", "brand:wikidata": "Q2004078", "check_date": "2024-02-17", "name": "Union Bank of India"}}, {"type": "node", "id": 11633711654, "lat": 18.299182, "lon": 83.8945312, "tags": {"amenity": "bank", "brand": "HDFC Bank", "brand:wikidata": "Q631047", "check_date": "2024-02-17", "name": "HDFC Bank", "short_name": "HDFC"}}, {"type": "node", "id": 11633711663, "lat": 18.2979549, "lon": 83.8948759, "tags": {"amenity": "bank", "brand": "Axis Bank", "brand:wikidata": "Q2003549", "check_date": "2024-02-17", "name": "Axis Bank"}}, {"type": "node", "id": 11633711665, "lat": 18.2996854, "lon": 83.8949253, "tags": {"amenity": "bank", "brand": "Federal Bank", "brand:wikidata": "Q2044983", "check_date": "2024-02-17", "name": "Federal Bank"}}, {"type": "node", "id": 11634014019, "lat": 18.27941, "lon": 83.8183446, "tags": {"amenity": "bank", "brand": "State Bank of India", "brand:wikidata": "Q1340361", "check_date": "2024-02-17", "name": "State Bank of India", "short_name": "SBI"}}, {"type": "node", "id": 11634025201, "lat": 18.303602, "lon": 83.8745284, "tags": {"amenity": "bank", "brand": "Union Bank of India", "brand:wikidata": "Q2004078", "check_date": "2024-02-17", "name": "Union Bank of India"}}, {"type": "node", "id": 11634025202, "lat": 18.3039117, "lon": 83.8730558, "tags": {"amenity": "bank", "atm": "yes", "brand": "State Bank of India", "brand:wikidata": "Q1340361", "check_date": "2024-02-17", "name": "State Bank of India", "short_name": "SBI"}}, {"type": "node", "id": 11963655950, "lat": 18.2068847, "lon": 83.6930158, "tags": {"amenity": "bank", "brand": "Union Bank of India", "brand:wikidata": "Q2004078", "check_date": "2024-06-08", "name": "Union Bank of India"}}, {"type": "node", "id": 12672671728, "lat": 18.2996655, "lon": 83.9034814, "tags": {"addr:city": "Srikakulam", "addr:district": "Srikakulam", "addr:housenumber": "sriram chits", "addr:postcode": "532001", "addr:street": "Pedapadu Road", "amenity": "bank", "atm": "yes", "name": "sri ram chits", "opening_hours": "Mo-Sa 08:00-18:00"}}, {"type": "node", "id": 12956372830, "lat": 18.303881, "lon": 83.875968, "tags": {"amenity": "bank", "atm": "yes", "brand": "HDFC Bank", "brand:wikidata": "Q631047", "name": "HDFC Bank", "short_name": "HDFC"}}, {"type": "node", "id": 13039262817, "lat": 18.2988906, "lon": 83.9042833, "tags": {"amenity": "bank", "brand": "IndusInd Bank", "brand:wikidata": "Q2040323", "name": "IndusInd Bank"}}, {"type": "node", "id": 13204653788, "lat": 18.2959071, "lon": 83.9020251, "tags": {"addr:district": "Srikakulam", "addr:housenumber": "12-14-10", "addr:street": "GT Road", "amenity": "bank", "name": "name=Karnataka Bank", "opening_hours": "Mo-Fr 10:00-17:00"}}]}