{"version": 0.6, "generator": "Overpass API 0.7.62.8 e802775f", "osm3s": {"timestamp_osm_base": "2025-11-29T16:54:24Z", "copyright": "The data included in this document is from www.openstreetmap.org. The data is made available under ODbL."}, "elements": [{"type": "node", "id": 5251988728, "lat": 27.7262627, "lon": 68.8189438, "tags": {"addr:city": "Sukkur", "addr:street": "IBA Sukkur", "name": "BISM - Software Consultants", "shop": "electronics"}}, {"type": "node", "id": 5255390959, "lat": 27.2808567, "lon": 68.503838, "tags": {"addr:city": "Ranipur Riyast", "addr:street": "National Highway 5", "name": "shahzad motors", "shop": "motorcycle"}}, {"type": "node", "id": 5255390973, "lat": 27.2843508, "lon": 68.507107, "tags": {"addr:city": "Ranipur Riyast", "addr:street": "National Highway 5", "name": "Kiran Bakers", "shop": "bakery"}}, {"type": "node", "id": 5255390975, "lat": 27.2848382, "lon": 68.5070731, "tags": {"addr:city": "Ranipur Riyast", "addr:street": "National Highway 5", "name": "Gada Hussain Paint", "shop": "paint"}}, {"type": "node", "id": 5255390981, "lat": 27.2861663, "lon": 68.5055757, "tags": {"addr:city": "Ranipur Riyast", "name": "Abdullah Cut Piece Cloth House", "shop": "yes"}}, {"type": "node", "id": 5255390993, "lat": 27.2864728, "lon": 68.5062573, "tags": {"addr:city": "Ranipur Riyast", "name": "Asghar Book  And General Store", "shop": "books"}}, {"type": "node", "id": 5255460663, "lat": 27.2899413, "lon": 68.5131197, "tags": {"addr:city": "Ranipur Riyast", "addr:street": "National Highway", "name": "Rasheed Battery Service", "shop": "car_parts"}}, {"type": "node", "id": 5255460665, "lat": 27.2898658, "lon": 68.5115907, "tags": {"addr:city": "Ranipur Riyast", "addr:street": "National Highway 5", "name": "Super Quetta Farooq Shah Autos", "shop": "car_parts"}}, {"type": "node", "id": 5255460666, "lat": 27.2896833, "lon": 68.5114138, "tags": {"addr:city": "Ranipur Riyast", "addr:street": "National Highway 5", "name": "Bodal Shahinshah Super Store", "shop": "yes"}}, {"type": "node", "id": 5255460697, "lat": 27.3479394, "lon": 68.5320244, "tags": {"addr:city": "Gambat", "addr:street": "Gambat Station Road", "name": "Q Mobile Customer Care Gambat", "shop": "electronics"}}, {"type": "node", "id": 5255460698, "lat": 27.3474714, "lon": 68.5335587, "tags": {"addr:city": "Gambat", "addr:street": "National Highway 5", "name": "Al Noor super store", "shop": "supermarket"}}, {"type": "node", "id": 5255507618, "lat": 27.3530174, "lon": 68.5236938, "tags": {"addr:city": "Gambat", "addr:street": "Gambat Station Road", "name": "New sindh communication Gambat", "shop": "electronics"}}, {"type": "node", "id": 5255508540, "lat": 27.3536992, "lon": 68.5272567, "tags": {"addr:city": "Gambat", "addr:street": "Gambat Bypass Road", "name": "llahi Bux Sweets Gambat khuhra", "shop": "bakery"}}, {"type": "node", "id": 5255632048, "lat": 27.5979868, "lon": 68.7844715, "tags": {"addr:city": "Khiarpur Mirus", "addr:street": "National Highway 5", "name": "Sarfraz Gift Center", "shop": "gift"}}, {"type": "node", "id": 5255632050, "lat": 27.5974401, "lon": 68.7844974, "tags": {"addr:city": "Khiarpur Mirus", "addr:street": "National Highway 5", "name": "Kashif Motors", "shop": "car"}}, {"type": "node", "id": 5255690140, "lat": 27.6283381, "lon": 68.8094753, "tags": {"addr:city": "Karamabad", "addr:street": "National Highway 5", "name": "Master Abdul Haleem Cloth Chapal Store", "shop": "convenience"}}, {"type": "node", "id": 5259672833, "lat": 27.735926, "lon": 68.8177237, "tags": {"addr:city": "sukkur", "addr:street": "Sukkur Bypass link road", "name": "Rizwan Motor Workshop", "shop": "car_repair"}}, {"type": "node", "id": 5340918750, "lat": 27.7368119, "lon": 68.8161068, "tags": {"addr:city": "Sukkur", "addr:street": "Shikarpur Road", "name": "Royal Mega Mart", "shop": "convenience"}}, {"type": "node", "id": 5340918754, "lat": 27.7353447, "lon": 68.8182954, "tags": {"addr:city": "Sukkur", "addr:street": "Sukkur Bypass", "name": "Hanif Autos Oil Lubricant", "shop": "car_repair"}}, {"type": "node", "id": 5341290895, "lat": 27.6114312, "lon": 68.614464}, {"type": "node", "id": 5341290896, "lat": 27.6114001, "lon": 68.614594}, {"type": "node", "id": 5341290897, "lat": 27.6112839, "lon": 68.6145804}, {"type": "node", "id": 5341290898, "lat": 27.6113214, "lon": 68.6144353}, {"type": "node", "id": 5417261738, "lat": 27.6103204, "lon": 68.614232}, {"type": "node", "id": 5417300070, "lat": 27.6105728, "lon": 68.6143737}, {"type": "node", "id": 5417315206, "lat": 27.6113325, "lon": 68.6149051}, {"type": "node", "id": 5440377993, "lat": 27.4931155, "lon": 68.7612459, "tags": {"shop": "yes"}}, {"type": "node", "id": 5491977354, "lat": 27.4971693, "lon": 68.7588519}, {"type": "node", "id": 5491977355, "lat": 27.4971134, "lon": 68.7588458}, {"type": "node", "id": 5491977356, "lat": 27.497126, "lon": 68.7587035}, {"type": "node", "id": 5491977357, "lat": 27.4971837, "lon": 68.7587076}, {"type": "node", "id": 5491977358, "lat": 27.4971828, "lon": 68.7587025}, {"type": "node", "id": 5491977359, "lat": 27.4971269, "lon": 68.7586964}, {"type": "node", "id": 5491977360, "lat": 27.4971395, "lon": 68.7585541}, {"type": "node", "id": 5491977361, "lat": 27.4971972, "lon": 68.7585582}, {"type": "node", "id": 5491984248, "lat": 27.4961845, "lon": 68.7584087}, {"type": "node", "id": 5491984250, "lat": 27.4961673, "lon": 68.7585497}, {"type": "node", "id": 5491984251, "lat": 27.4962237, "lon": 68.7585585}, {"type": "node", "id": 5491984252, "lat": 27.496241, "lon": 68.7584175}, {"type": "node", "id": 6122431338, "lat": 27.6113437, "lon": 68.6148721}, {"type": "node", "id": 6122431339, "lat": 27.6114212, "lon": 68.6149108}, {"type": "node", "id": 6122431348, "lat": 27.6106273, "lon": 68.6141142}, {"type": "node", "id": 6122431349, "lat": 27.6105687, "lon": 68.6141085}, {"type": "node", "id": 6122431350, "lat": 27.6104645, "lon": 68.6140885}, {"type": "node", "id": 6122431351, "lat": 27.610398, "lon": 68.6140666}, {"type": "way", "id": 553324027, "nodes": [5341290895, 5341290896, 5341290897, 5341290898, 5341290895], "tags": {"building": "yes", "shop": "yes"}}, {"type": "way", "id": 561877173, "nodes": [6122431350, 6122431349, 6122431348, 5417300070, 5417261738, 6122431351, 6122431350], "tags": {"name": "Wheat Flour Mill", "shop": "yes"}}, {"type": "way", "id": 561879474, "nodes": [5417315206, 6122431338, 6122431339, 5417315206], "tags": {"building": "yes", "name": "Tuck Shop", "shop": "yes"}}, {"type": "way", "id": 571444502, "nodes": [5491977354, 5491977355, 5491977356, 5491977357, 5491977354], "tags": {"building": "yes", "name": "Hyper Store", "shop": "yes"}}, {"type": "way", "id": 571444503, "nodes": [5491977358, 5491977359, 5491977360, 5491977361, 5491977358], "tags": {"building": "yes", "name": "Tyre Repair", "shop": "yes"}}, {"type": "way", "id": 571445518, "nodes": [5491984248, 5491984250, 5491984251, 5491984252, 5491984248], "tags": {"building": "yes", "shop": "yes"}}]}