{"version": 0.6, "generator": "Overpass API 0.7.62.8 e802775f", "osm3s": {"timestamp_osm_base": "2025-11-29T16:39:01Z", "copyright": "The data included in this document is from www.openstreetmap.org. The data is made available under ODbL."}, "elements": [{"type": "node", "id": 851167137, "lat": 25.3926756, "lon": 68.3754987}, {"type": "node", "id": 851167139, "lat": 25.3925943, "lon": 68.3755225}, {"type": "node", "id": 1082591716, "lat": 25.3748375, "lon": 68.3572849, "tags": {"addr:city": "\u062d\u06cc\u062f\u0631\u0622\u0628\u0627\u062f", "addr:city:en": "Hyderabad", "addr:city:fr": "Hyder\u00e2b\u00e2d", "addr:city:pa": "\u0a39\u0a48\u0a26\u0a30\u0a3e\u0a2c\u0a3e\u0a26", "addr:city:ur": "\u062d\u06cc\u062f\u0631\u0622\u0628\u0627\u062f", "addr:street": "BRIDGE", "name": "Nazim Car A/C", "shop": "car_repair"}}, {"type": "node", "id": 1092218130, "lat": 25.3837287, "lon": 68.3498099, "tags": {"addr:city": "\u062d\u06cc\u062f\u0631\u0622\u0628\u0627\u062f", "addr:city:en": "Hyderabad", "addr:city:fr": "Hyder\u00e2b\u00e2d", "addr:city:pa": "\u0a39\u0a48\u0a26\u0a30\u0a3e\u0a2c\u0a3e\u0a26", "addr:city:ur": "\u062d\u06cc\u062f\u0631\u0622\u0628\u0627\u062f", "addr:street": "SHAHBAZ FLYOVER", "name": "EGO", "shop": "clothes"}}, {"type": "node", "id": 1096650304, "lat": 25.3676621, "lon": 68.3591687}, {"type": "node", "id": 1096650311, "lat": 25.3675264, "lon": 68.3603097}, {"type": "node", "id": 1096650316, "lat": 25.3680754, "lon": 68.3597783}, {"type": "node", "id": 1096650323, "lat": 25.3682154, "lon": 68.3598352, "tags": {"shop": "hifi"}}, {"type": "node", "id": 1096650363, "lat": 25.3676188, "lon": 68.3604285}, {"type": "node", "id": 1096650376, "lat": 25.3676059, "lon": 68.3592271}, {"type": "node", "id": 1096869028, "lat": 25.3714524, "lon": 68.3565886, "tags": {"addr:city": "\u062d\u06cc\u062f\u0631\u0622\u0628\u0627\u062f", "addr:city:en": "Hyderabad", "addr:city:fr": "Hyder\u00e2b\u00e2d", "addr:city:pa": "\u0a39\u0a48\u0a26\u0a30\u0a3e\u0a2c\u0a3e\u0a26", "addr:city:ur": "\u062d\u06cc\u062f\u0631\u0622\u0628\u0627\u062f", "addr:street": "NAWAB MUZZAFAR ROAD;UNIT 7 MAIN ROAD", "shop": "convenience"}}, {"type": "node", "id": 1096869031, "lat": 25.3704444, "lon": 68.357554, "tags": {"shop": "convenience"}}, {"type": "node", "id": 1096869046, "lat": 25.3682603, "lon": 68.3593006, "tags": {"shop": "clothes"}}, {"type": "node", "id": 1096869049, "lat": 25.3715396, "lon": 68.3567171, "tags": {"shop": "convenience"}}, {"type": "node", "id": 1096869053, "lat": 25.3713217, "lon": 68.3569427, "tags": {"shop": "books"}}, {"type": "node", "id": 1096869057, "lat": 25.3703127, "lon": 68.3584132, "tags": {"shop": "butcher"}}, {"type": "node", "id": 1096869061, "lat": 25.3709409, "lon": 68.3573424, "tags": {"shop": "convenience"}}, {"type": "node", "id": 1096869084, "lat": 25.3704751, "lon": 68.3586412, "tags": {"shop": "butcher"}}, {"type": "node", "id": 1096869087, "lat": 25.3709582, "lon": 68.3570605, "tags": {"shop": "convenience"}}, {"type": "node", "id": 1096869105, "lat": 25.3700178, "lon": 68.3579673, "tags": {"shop": "convenience"}}, {"type": "node", "id": 1096925188, "lat": 25.3661207, "lon": 68.3662899, "tags": {"shop": "hifi"}}, {"type": "node", "id": 1096925191, "lat": 25.3660068, "lon": 68.3628755, "tags": {"shop": "hairdresser"}}, {"type": "node", "id": 1096925193, "lat": 25.3657863, "lon": 68.3643346, "tags": {"addr:city": "\u062d\u06cc\u062f\u0631\u0622\u0628\u0627\u062f", "addr:city:en": "Hyderabad", "addr:city:fr": "Hyder\u00e2b\u00e2d", "addr:city:pa": "\u0a39\u0a48\u0a26\u0a30\u0a3e\u0a2c\u0a3e\u0a26", "addr:city:ur": "\u062d\u06cc\u062f\u0631\u0622\u0628\u0627\u062f", "addr:street": "NAWAB MUZZAFAR ROAD;UNIT 7 MAIN ROAD", "name": "Bilal Bakery", "shop": "bakery"}}, {"type": "node", "id": 1096925198, "lat": 25.3654518, "lon": 68.3660888, "tags": {"shop": "butcher"}}, {"type": "node", "id": 1096925201, "lat": 25.3660286, "lon": 68.366416, "tags": {"shop": "butcher"}}, {"type": "node", "id": 1096925203, "lat": 25.3656115, "lon": 68.3644475, "tags": {"addr:city": "\u062d\u06cc\u062f\u0631\u0622\u0628\u0627\u062f", "addr:city:en": "Hyderabad", "addr:city:fr": "Hyder\u00e2b\u00e2d", "addr:city:pa": "\u0a39\u0a48\u0a26\u0a30\u0a3e\u0a2c\u0a3e\u0a26", "addr:city:ur": "\u062d\u06cc\u062f\u0631\u0622\u0628\u0627\u062f", "addr:street": "NAWAB MUZZAFAR ROAD;UNIT 7 MAIN ROAD", "name": "National", "shop": "bakery"}}, {"type": "node", "id": 1096925210, "lat": 25.3651731, "lon": 68.3660244, "tags": {"shop": "fishmonger"}}, {"type": "node", "id": 1096925213, "lat": 25.3652725, "lon": 68.3660432, "tags": {"shop": "fishmonger"}}, {"type": "node", "id": 1096925225, "lat": 25.3661955, "lon": 68.36312, "tags": {"shop": "convenience"}}, {"type": "node", "id": 1096925230, "lat": 25.365842, "lon": 68.3662336, "tags": {"shop": "butcher"}}, {"type": "node", "id": 1096935288, "lat": 25.3679307, "lon": 68.3594401, "tags": {"shop": "convenience"}}, {"type": "node", "id": 1096935294, "lat": 25.3669903, "lon": 68.3579488, "tags": {"shop": "convenience"}}, {"type": "node", "id": 1096935302, "lat": 25.3674363, "lon": 68.357745, "tags": {"shop": "clothes"}}, {"type": "node", "id": 1096935307, "lat": 25.3681275, "lon": 68.366019, "tags": {"shop": "convenience"}}, {"type": "node", "id": 1096935310, "lat": 25.369029, "lon": 68.3673709, "tags": {"shop": "motorcycle"}}, {"type": "node", "id": 1096935315, "lat": 25.3680645, "lon": 68.3662175, "tags": {"shop": "bakery"}}, {"type": "node", "id": 1096935326, "lat": 25.3673297, "lon": 68.358893, "tags": {"shop": "convenience"}}, {"type": "node", "id": 1096935338, "lat": 25.3654615, "lon": 68.3654558, "tags": {"shop": "motorcycle"}}, {"type": "node", "id": 1096935344, "lat": 25.3695622, "lon": 68.3590989, "tags": {"addr:city": "\u062d\u06cc\u062f\u0631\u0622\u0628\u0627\u062f", "addr:city:en": "Hyderabad", "addr:city:fr": "Hyder\u00e2b\u00e2d", "addr:city:pa": "\u0a39\u0a48\u0a26\u0a30\u0a3e\u0a2c\u0a3e\u0a26", "addr:city:ur": "\u062d\u06cc\u062f\u0631\u0622\u0628\u0627\u062f", "addr:street": "NAWAB MUZZAFAR ROAD;UNIT 7 MAIN ROAD", "shop": "convenience"}}, {"type": "node", "id": 1096935355, "lat": 25.3678269, "lon": 68.3601879, "tags": {"shop": "clothes"}}, {"type": "node", "id": 1096935358, "lat": 25.3692229, "lon": 68.3590882, "tags": {"shop": "convenience"}}, {"type": "node", "id": 1096935360, "lat": 25.3687673, "lon": 68.3632349, "tags": {"shop": "convenience"}}, {"type": "node", "id": 1096945983, "lat": 25.356358, "lon": 68.3600162, "tags": {"shop": "convenience"}}, {"type": "node", "id": 1096945988, "lat": 25.3579383, "lon": 68.3579241, "tags": {"shop": "hifi"}}, {"type": "node", "id": 1096945995, "lat": 25.3564545, "lon": 68.3604674, "tags": {"shop": "convenience"}}, {"type": "node", "id": 1096945997, "lat": 25.3566392, "lon": 68.3593511, "tags": {"shop": "convenience"}}, {"type": "node", "id": 1096946000, "lat": 25.3562223, "lon": 68.3613574, "tags": {"shop": "convenience"}}, {"type": "node", "id": 1096946004, "lat": 25.3576766, "lon": 68.3581709, "tags": {"shop": "convenience"}}, {"type": "node", "id": 1096946012, "lat": 25.3571438, "lon": 68.358739, "tags": {"shop": "convenience"}}, {"type": "node", "id": 1096946013, "lat": 25.3574633, "lon": 68.3587073, "tags": {"shop": "convenience"}}, {"type": "node", "id": 1096946016, "lat": 25.3560963, "lon": 68.3610033, "tags": {"shop": "hifi"}}, {"type": "node", "id": 1096946018, "lat": 25.357027, "lon": 68.3592009, "tags": {"addr:city": "\u062d\u06cc\u062f\u0631\u0622\u0628\u0627\u062f", "addr:city:en": "Hyderabad", "addr:city:fr": "Hyder\u00e2b\u00e2d", "addr:city:pa": "\u0a39\u0a48\u0a26\u0a30\u0a3e\u0a2c\u0a3e\u0a26", "addr:city:ur": "\u062d\u06cc\u062f\u0631\u0622\u0628\u0627\u062f", "addr:street": "AIRPORT ROAD;latifabad 11 road", "shop": "convenience"}}, {"type": "node", "id": 1096998142, "lat": 25.3933785, "lon": 68.3706163, "tags": {"shop": "convenience"}}, {"type": "node", "id": 1096998145, "lat": 25.3871365, "lon": 68.3734488, "tags": {"shop": "convenience"}}, {"type": "node", "id": 1096998147, "lat": 25.389424, "lon": 68.3716678, "tags": {"shop": "clothes"}}, {"type": "node", "id": 1096998154, "lat": 25.3921766, "lon": 68.3717107, "tags": {"shop": "convenience"}}, {"type": "node", "id": 1096998156, "lat": 25.3891138, "lon": 68.3698439, "tags": {"shop": "convenience"}}, {"type": "node", "id": 1096998157, "lat": 25.3911298, "lon": 68.3717965, "tags": {"shop": "convenience"}}, {"type": "node", "id": 1096998159, "lat": 25.387563, "lon": 68.3725261, "tags": {"shop": "convenience"}}, {"type": "node", "id": 1096998162, "lat": 25.3891913, "lon": 68.3703374, "tags": {"shop": "clothes"}}, {"type": "node", "id": 1096998164, "lat": 25.3895015, "lon": 68.3711957, "tags": {"shop": "clothes"}}, {"type": "node", "id": 1096998175, "lat": 25.3928357, "lon": 68.3711742, "tags": {"shop": "convenience"}}, {"type": "node", "id": 1096998180, "lat": 25.3881639, "lon": 68.3699512, "tags": {"shop": "clothes"}}, {"type": "node", "id": 1096998182, "lat": 25.389172, "lon": 68.3722471, "tags": {"shop": "convenience"}}, {"type": "node", "id": 1096998183, "lat": 25.3885322, "lon": 68.3697366, "tags": {"shop": "clothes"}}, {"type": "node", "id": 1096998185, "lat": 25.3896954, "lon": 68.3719682, "tags": {"shop": "convenience"}}, {"type": "node", "id": 1096998187, "lat": 25.3869426, "lon": 68.3693503, "tags": {"shop": "clothes"}}, {"type": "node", "id": 1096998195, "lat": 25.3884159, "lon": 68.372569, "tags": {"shop": "convenience"}}, {"type": "node", "id": 1096999515, "lat": 25.3939988, "lon": 68.3710455, "tags": {"shop": "convenience"}}, {"type": "node", "id": 1096999520, "lat": 25.3943283, "lon": 68.3704447, "tags": {"shop": "convenience"}}, {"type": "node", "id": 1096999543, "lat": 25.3955689, "lon": 68.3700799, "tags": {"shop": "convenience"}}, {"type": "node", "id": 1097008801, "lat": 25.3769383, "lon": 68.3604331, "tags": {"addr:city": "\u062d\u06cc\u062f\u0631\u0622\u0628\u0627\u062f", "addr:city:en": "Hyderabad", "addr:city:fr": "Hyder\u00e2b\u00e2d", "addr:city:pa": "\u0a39\u0a48\u0a26\u0a30\u0a3e\u0a2c\u0a3e\u0a26", "addr:city:ur": "\u062d\u06cc\u062f\u0631\u0622\u0628\u0627\u062f", "addr:street": "Kacha Qila Road", "name": "Zahid Car Camputar AND GHAZI AUTOS", "shop": "car_repair"}}, {"type": "node", "id": 1097008825, "lat": 25.3777136, "lon": 68.3628461, "tags": {"addr:city": "\u062d\u06cc\u062f\u0631\u0622\u0628\u0627\u062f", "addr:city:en": "Hyderabad", "addr:city:fr": "Hyder\u00e2b\u00e2d", "addr:city:pa": "\u0a39\u0a48\u0a26\u0a30\u0a3e\u0a2c\u0a3e\u0a26", "addr:city:ur": "\u062d\u06cc\u062f\u0631\u0622\u0628\u0627\u062f", "addr:street": "Kacha Qila Road", "shop": "car_repair"}}, {"type": "node", "id": 1097008827, "lat": 25.3777351, "lon": 68.3637247, "tags": {"addr:city": "\u062d\u06cc\u062f\u0631\u0622\u0628\u0627\u062f", "addr:city:en": "Hyderabad", "addr:city:fr": "Hyder\u00e2b\u00e2d", "addr:city:pa": "\u0a39\u0a48\u0a26\u0a30\u0a3e\u0a2c\u0a3e\u0a26", "addr:city:ur": "\u062d\u06cc\u062f\u0631\u0622\u0628\u0627\u062f", "addr:street": "Kacha Qila Road", "name": "Rizwan Auto Body Parts Dealer", "shop": "car_repair"}}, {"type": "node", "id": 1097008828, "lat": 25.3761434, "lon": 68.3584804, "tags": {"shop": "car_repair"}}, {"type": "node", "id": 1097702736, "lat": 25.3735, "lon": 68.3554724, "tags": {"addr:city": "\u062d\u06cc\u062f\u0631\u0622\u0628\u0627\u062f", "addr:city:en": "Hyderabad", "addr:city:fr": "Hyder\u00e2b\u00e2d", "addr:city:pa": "\u0a39\u0a48\u0a26\u0a30\u0a3e\u0a2c\u0a3e\u0a26", "addr:city:ur": "\u062d\u06cc\u062f\u0631\u0622\u0628\u0627\u062f", "addr:street": "NAWAB MUZZAFAR ROAD;UNIT 7 MAIN ROAD", "name": "Uniform Centre", "shop": "clothes"}}, {"type": "node", "id": 1097702740, "lat": 25.3690581, "lon": 68.359276, "tags": {"addr:city": "\u062d\u06cc\u062f\u0631\u0622\u0628\u0627\u062f", "addr:city:en": "Hyderabad", "addr:city:fr": "Hyder\u00e2b\u00e2d", "addr:city:pa": "\u0a39\u0a48\u0a26\u0a30\u0a3e\u0a2c\u0a3e\u0a26", "addr:city:ur": "\u062d\u06cc\u062f\u0631\u0622\u0628\u0627\u062f", "addr:street": "NAWAB MUZZAFAR ROAD;UNIT 7 MAIN ROAD", "name": "uniform centre", "shop": "clothes"}}, {"type": "node", "id": 1097702743, "lat": 25.3735511, "lon": 68.3554621, "tags": {"addr:city": "\u062d\u06cc\u062f\u0631\u0622\u0628\u0627\u062f", "addr:city:en": "Hyderabad", "addr:city:fr": "Hyder\u00e2b\u00e2d", "addr:city:pa": "\u0a39\u0a48\u0a26\u0a30\u0a3e\u0a2c\u0a3e\u0a26", "addr:city:ur": "\u062d\u06cc\u062f\u0631\u0622\u0628\u0627\u062f", "addr:street": "NAWAB MUZZAFAR ROAD;UNIT 7 MAIN ROAD", "shop": "books"}}, {"type": "node", "id": 1097703355, "lat": 25.3734929, "lon": 68.355717, "tags": {"addr:city": "\u062d\u06cc\u062f\u0631\u0622\u0628\u0627\u062f", "addr:city:en": "Hyderabad", "addr:city:fr": "Hyder\u00e2b\u00e2d", "addr:city:pa": "\u0a39\u0a48\u0a26\u0a30\u0a3e\u0a2c\u0a3e\u0a26", "addr:city:ur": "\u062d\u06cc\u062f\u0631\u0622\u0628\u0627\u062f", "addr:street": "NAWAB MUZZAFAR ROAD;UNIT 7 MAIN ROAD", "shop": "music"}}, {"type": "node", "id": 1097703637, "lat": 25.3777024, "lon": 68.3727277, "tags": {"addr:city": "\u062d\u06cc\u062f\u0631\u0622\u0628\u0627\u062f", "addr:city:en": "Hyderabad", "addr:city:fr": "Hyder\u00e2b\u00e2d", "addr:city:pa": "\u0a39\u0a48\u0a26\u0a30\u0a3e\u0a2c\u0a3e\u0a26", "addr:city:ur": "\u062d\u06cc\u062f\u0631\u0622\u0628\u0627\u062f", "addr:street": "Khawaja Ghareeb Nawaz Bridge", "name": "Fruit Mandi", "shop": "supermarket"}}, {"type": "node", "id": 1097703638, "lat": 25.3781791, "lon": 68.3724199, "tags": {"addr:city": "\u062d\u06cc\u062f\u0631\u0622\u0628\u0627\u062f", "addr:city:en": "Hyderabad", "addr:city:fr": "Hyder\u00e2b\u00e2d", "addr:city:pa": "\u0a39\u0a48\u0a26\u0a30\u0a3e\u0a2c\u0a3e\u0a26", "addr:city:ur": "\u062d\u06cc\u062f\u0631\u0622\u0628\u0627\u062f", "addr:street": "Khawaja Ghareeb Nawaz Bridge", "name": "Sabzi Mandi", "shop": "supermarket"}}, {"type": "node", "id": 1099415528, "lat": 25.3842583, "lon": 68.3508486, "tags": {"addr:city": "\u062d\u06cc\u062f\u0631\u0622\u0628\u0627\u062f", "addr:city:en": "Hyderabad", "addr:city:fr": "Hyder\u00e2b\u00e2d", "addr:city:pa": "\u0a39\u0a48\u0a26\u0a30\u0a3e\u0a2c\u0a3e\u0a26", "addr:city:ur": "\u062d\u06cc\u062f\u0631\u0622\u0628\u0627\u062f", "addr:street": "District Manajement Office Road", "name": "Dogs Pet Shop", "shop": "pet"}}, {"type": "node", "id": 1099415536, "lat": 25.3838415, "lon": 68.3500634, "tags": {"addr:city": "\u062d\u06cc\u062f\u0631\u0622\u0628\u0627\u062f", "addr:city:en": "Hyderabad", "addr:city:fr": "Hyder\u00e2b\u00e2d", "addr:city:pa": "\u0a39\u0a48\u0a26\u0a30\u0a3e\u0a2c\u0a3e\u0a26", "addr:city:ur": "\u062d\u06cc\u062f\u0631\u0622\u0628\u0627\u062f", "addr:street": "THANDI SARAK", "name": "Black & Brown Bakers", "shop": "bakery"}}, {"type": "node", "id": 1119641300, "lat": 25.3927851, "lon": 68.3763444}, {"type": "node", "id": 1119755323, "lat": 25.3935455, "lon": 68.3766115}, {"type": "node", "id": 1119755331, "lat": 25.392787, "lon": 68.3764876}, {"type": "node", "id": 1611365419, "lat": 25.3694965, "lon": 68.3581255, "tags": {"shop": "supermarket"}}, {"type": "node", "id": 1611367024, "lat": 25.3661568, "lon": 68.3625244, "tags": {"shop": "convenience"}}, {"type": "node", "id": 1657195482, "lat": 25.4388517, "lon": 68.381754}, {"type": "node", "id": 1671682399, "lat": 25.3877073, "lon": 68.3627535, "tags": {"addr:city": "Karachi", "addr:street": "CMH road", "name": "Bombay Bakery", "shop": "bakery"}}, {"type": "node", "id": 4555412589, "lat": 25.3933746, "lon": 68.3570631, "tags": {"name": "Garrisson Bakery", "name:en": "Garrisson Bakery", "shop": "bakery"}}, {"type": "node", "id": 4825492597, "lat": 25.3749037, "lon": 68.3554665, "tags": {"addr:city": "\u062d\u06cc\u062f\u0631\u0622\u0628\u0627\u062f", "addr:city:en": "Hyderabad", "addr:city:fr": "Hyder\u00e2b\u00e2d", "addr:city:pa": "\u0a39\u0a48\u0a26\u0a30\u0a3e\u0a2c\u0a3e\u0a26", "addr:city:ur": "\u062d\u06cc\u062f\u0631\u0622\u0628\u0627\u062f", "addr:street": "AUTOBHAN ROAD", "name": "Zeeshan Autos", "shop": "car"}}, {"type": "node", "id": 4825492598, "lat": 25.3749617, "lon": 68.3551394, "tags": {"addr:city": "\u062d\u06cc\u062f\u0631\u0622\u0628\u0627\u062f", "addr:city:en": "Hyderabad", "addr:city:fr": "Hyder\u00e2b\u00e2d", "addr:city:pa": "\u0a39\u0a48\u0a26\u0a30\u0a3e\u0a2c\u0a3e\u0a26", "addr:city:ur": "\u062d\u06cc\u062f\u0631\u0622\u0628\u0627\u062f", "addr:street": "AUTOBHAN ROAD", "name": "MS MOTOR", "shop": "car"}}, {"type": "node", "id": 4825492605, "lat": 25.3752902, "lon": 68.3478915, "tags": {"addr:city": "\u062d\u06cc\u062f\u0631\u0622\u0628\u0627\u062f", "addr:city:en": "Hyderabad", "addr:city:fr": "Hyder\u00e2b\u00e2d", "addr:city:pa": "\u0a39\u0a48\u0a26\u0a30\u0a3e\u0a2c\u0a3e\u0a26", "addr:city:ur": "\u062d\u06cc\u062f\u0631\u0622\u0628\u0627\u062f", "addr:street": "AUTOBHAN ROAD", "name": "Outfitters", "shop": "clothes"}}, {"type": "node", "id": 4825492611, "lat": 25.3749092, "lon": 68.34867, "tags": {"addr:city": "\u062d\u06cc\u062f\u0631\u0622\u0628\u0627\u062f", "addr:city:en": "Hyderabad", "addr:city:fr": "Hyder\u00e2b\u00e2d", "addr:city:pa": "\u0a39\u0a48\u0a26\u0a30\u0a3e\u0a2c\u0a3e\u0a26", "addr:city:ur": "\u062d\u06cc\u062f\u0631\u0622\u0628\u0627\u062f", "addr:street": "Autobhan Road", "name": "The Liberty Uniforms", "shop": "clothes"}}, {"type": "node", "id": 4825492613, "lat": 25.3748869, "lon": 68.3490528, "tags": {"addr:city": "\u062d\u06cc\u062f\u0631\u0622\u0628\u0627\u062f", "addr:city:en": "Hyderabad", "addr:city:fr": "Hyder\u00e2b\u00e2d", "addr:city:pa": "\u0a39\u0a48\u0a26\u0a30\u0a3e\u0a2c\u0a3e\u0a26", "addr:city:ur": "\u062d\u06cc\u062f\u0631\u0622\u0628\u0627\u062f", "addr:street": "Autobhan Road", "name": "Pakistan Furniture & Interiors", "shop": "furniture"}}, {"type": "node", "id": 4828714156, "lat": 25.3747293, "lon": 68.3536069, "tags": {"addr:city": "\u062d\u06cc\u062f\u0631\u0622\u0628\u0627\u062f", "addr:city:en": "Hyderabad", "addr:city:fr": "Hyder\u00e2b\u00e2d", "addr:city:pa": "\u0a39\u0a48\u0a26\u0a30\u0a3e\u0a2c\u0a3e\u0a26", "addr:city:ur": "\u062d\u06cc\u062f\u0631\u0622\u0628\u0627\u062f", "addr:street": "Autobhan Road", "name": "Fine Autos", "shop": "car_repair"}}, {"type": "node", "id": 4828714188, "lat": 25.3837085, "lon": 68.3497124, "tags": {"addr:city": "\u062d\u06cc\u062f\u0631\u0622\u0628\u0627\u062f", "addr:city:en": "Hyderabad", "addr:city:fr": "Hyder\u00e2b\u00e2d", "addr:city:pa": "\u0a39\u0a48\u0a26\u0a30\u0a3e\u0a2c\u0a3e\u0a26", "addr:city:ur": "\u062d\u06cc\u062f\u0631\u0622\u0628\u0627\u062f", "addr:street": "SHAHBAZ FLYOVER", "name": "Outfitters", "shop": "clothes"}}, {"type": "node", "id": 4828714194, "lat": 25.3838507, "lon": 68.3501484, "tags": {"addr:city": "\u062d\u06cc\u062f\u0631\u0622\u0628\u0627\u062f", "addr:city:en": "Hyderabad", "addr:city:fr": "Hyder\u00e2b\u00e2d", "addr:city:pa": "\u0a39\u0a48\u0a26\u0a30\u0a3e\u0a2c\u0a3e\u0a26", "addr:city:ur": "\u062d\u06cc\u062f\u0631\u0622\u0628\u0627\u062f", "addr:street": "District Manajement Office Road", "name": "Zunaira", "shop": "clothes"}}, {"type": "node", "id": 4828714195, "lat": 25.3839185, "lon": 68.3499714, "tags": {"addr:city": "\u062d\u06cc\u062f\u0631\u0622\u0628\u0627\u062f", "addr:city:en": "Hyderabad", "addr:city:fr": "Hyder\u00e2b\u00e2d", "addr:city:pa": "\u0a39\u0a48\u0a26\u0a30\u0a3e\u0a2c\u0a3e\u0a26", "addr:city:ur": "\u062d\u06cc\u062f\u0631\u0622\u0628\u0627\u062f", "addr:street": "District Manajement Office Road", "name": "Kurta Republic", "shop": "clothes"}}, {"type": "node", "id": 4828714198, "lat": 25.3839476, "lon": 68.3507224, "tags": {"addr:city": "\u062d\u06cc\u062f\u0631\u0622\u0628\u0627\u062f", "addr:city:en": "Hyderabad", "addr:city:fr": "Hyder\u00e2b\u00e2d", "addr:city:pa": "\u0a39\u0a48\u0a26\u0a30\u0a3e\u0a2c\u0a3e\u0a26", "addr:city:ur": "\u062d\u06cc\u062f\u0631\u0622\u0628\u0627\u062f", "addr:street": "District Manajement Office Road", "name": "Galaxy Electronics", "shop": "electronics"}}, {"type": "node", "id": 4828714201, "lat": 25.3841817, "lon": 68.3508671, "tags": {"addr:city": "\u062d\u06cc\u062f\u0631\u0622\u0628\u0627\u062f", "addr:city:en": "Hyderabad", "addr:city:fr": "Hyder\u00e2b\u00e2d", "addr:city:pa": "\u0a39\u0a48\u0a26\u0a30\u0a3e\u0a2c\u0a3e\u0a26", "addr:city:ur": "\u062d\u06cc\u062f\u0631\u0622\u0628\u0627\u062f", "addr:street": "District Manajement Office Road", "name": "Friends Book Point", "shop": "books"}}, {"type": "node", "id": 4828849604, "lat": 25.3850007, "lon": 68.3600823, "tags": {"addr:city": "\u062d\u06cc\u062f\u0631\u0622\u0628\u0627\u062f", "addr:city:en": "Hyderabad", "addr:city:fr": "Hyder\u00e2b\u00e2d", "addr:city:pa": "\u0a39\u0a48\u0a26\u0a30\u0a3e\u0a2c\u0a3e\u0a26", "addr:city:ur": "\u062d\u06cc\u062f\u0631\u0622\u0628\u0627\u062f", "addr:street": "THANDI SARAK", "name": "Noorsons", "shop": "video_games"}}, {"type": "node", "id": 4828849609, "lat": 25.3851872, "lon": 68.3616435, "tags": {"addr:city": "\u062d\u06cc\u062f\u0631\u0622\u0628\u0627\u062f", "addr:city:en": "Hyderabad", "addr:city:fr": "Hyder\u00e2b\u00e2d", "addr:city:pa": "\u0a39\u0a48\u0a26\u0a30\u0a3e\u0a2c\u0a3e\u0a26", "addr:city:ur": "\u062d\u06cc\u062f\u0631\u0622\u0628\u0627\u062f", "addr:street": "CMH road", "name": "Philips", "shop": "electronics"}}, {"type": "node", "id": 4828849611, "lat": 25.38522, "lon": 68.3615009, "tags": {"addr:city": "\u062d\u06cc\u062f\u0631\u0622\u0628\u0627\u062f", "addr:city:en": "Hyderabad", "addr:city:fr": "Hyder\u00e2b\u00e2d", "addr:city:pa": "\u0a39\u0a48\u0a26\u0a30\u0a3e\u0a2c\u0a3e\u0a26", "addr:city:ur": "\u062d\u06cc\u062f\u0631\u0622\u0628\u0627\u062f", "addr:street": "CMH road", "name": "Next Generation Clothing", "shop": "clothes"}}, {"type": "node", "id": 4828849729, "lat": 25.3850314, "lon": 68.363436, "tags": {"addr:city": "\u062d\u06cc\u062f\u0631\u0622\u0628\u0627\u062f", "addr:city:en": "Hyderabad", "addr:city:fr": "Hyder\u00e2b\u00e2d", "addr:city:pa": "\u0a39\u0a48\u0a26\u0a30\u0a3e\u0a2c\u0a3e\u0a26", "addr:city:ur": "\u062d\u06cc\u062f\u0631\u0622\u0628\u0627\u062f", "addr:street": "Liaquat Road", "name": "Kashif Motors", "shop": "car"}}, {"type": "node", "id": 4828849732, "lat": 25.3847772, "lon": 68.3625795, "tags": {"addr:city": "\u062d\u06cc\u062f\u0631\u0622\u0628\u0627\u062f", "addr:city:en": "Hyderabad", "addr:city:fr": "Hyder\u00e2b\u00e2d", "addr:city:pa": "\u0a39\u0a48\u0a26\u0a30\u0a3e\u0a2c\u0a3e\u0a26", "addr:city:ur": "\u062d\u06cc\u062f\u0631\u0622\u0628\u0627\u062f", "addr:street": "Liaquat Road", "name": "Fizza Communication", "shop": "electronics"}}, {"type": "node", "id": 4828849736, "lat": 25.3848239, "lon": 68.3614725, "tags": {"addr:city": "\u062d\u06cc\u062f\u0631\u0622\u0628\u0627\u062f", "addr:city:en": "Hyderabad", "addr:city:fr": "Hyder\u00e2b\u00e2d", "addr:city:pa": "\u0a39\u0a48\u0a26\u0a30\u0a3e\u0a2c\u0a3e\u0a26", "addr:city:ur": "\u062d\u06cc\u062f\u0631\u0622\u0628\u0627\u062f", "addr:street": "Liaquat Road", "name": "Bonanza", "shop": "clothes"}}, {"type": "node", "id": 4828849737, "lat": 25.3848159, "lon": 68.361163, "tags": {"addr:city": "\u062d\u06cc\u062f\u0631\u0622\u0628\u0627\u062f", "addr:city:en": "Hyderabad", "addr:city:fr": "Hyder\u00e2b\u00e2d", "addr:city:pa": "\u0a39\u0a48\u0a26\u0a30\u0a3e\u0a2c\u0a3e\u0a26", "addr:city:ur": "\u062d\u06cc\u062f\u0631\u0622\u0628\u0627\u062f", "addr:street": "Liaquat Road", "name": "The Diners Shop", "shop": "clothes"}}, {"type": "node", "id": 4828849741, "lat": 25.3844511, "lon": 68.361024, "tags": {"addr:city": "\u062d\u06cc\u062f\u0631\u0622\u0628\u0627\u062f", "addr:city:en": "Hyderabad", "addr:city:fr": "Hyder\u00e2b\u00e2d", "addr:city:pa": "\u0a39\u0a48\u0a26\u0a30\u0a3e\u0a2c\u0a3e\u0a26", "addr:city:ur": "\u062d\u06cc\u062f\u0631\u0622\u0628\u0627\u062f", "addr:street": "CMH road", "name": "Orient Center Cherry Electronics", "shop": "electronics"}}, {"type": "node", "id": 4831072360, "lat": 25.3743295, "lon": 68.3601186, "tags": {"addr:city": "\u062d\u06cc\u062f\u0631\u0622\u0628\u0627\u062f", "addr:city:en": "Hyderabad", "addr:city:fr": "Hyder\u00e2b\u00e2d", "addr:city:pa": "\u0a39\u0a48\u0a26\u0a30\u0a3e\u0a2c\u0a3e\u0a26", "addr:city:ur": "\u062d\u06cc\u062f\u0631\u0622\u0628\u0627\u062f", "addr:street": "AUTOBHAN ROAD", "name": "Car City Motors", "shop": "car"}}, {"type": "node", "id": 4831072362, "lat": 25.3743894, "lon": 68.361018, "tags": {"addr:city": "\u062d\u06cc\u062f\u0631\u0622\u0628\u0627\u062f", "addr:city:en": "Hyderabad", "addr:city:fr": "Hyder\u00e2b\u00e2d", "addr:city:pa": "\u0a39\u0a48\u0a26\u0a30\u0a3e\u0a2c\u0a3e\u0a26", "addr:city:ur": "\u062d\u06cc\u062f\u0631\u0622\u0628\u0627\u062f", "addr:street": "AUTOBHAN ROAD", "name": "Lal Shahbaz Qalandar Auto Workshop", "shop": "car_repair"}}, {"type": "node", "id": 4831072363, "lat": 25.3743514, "lon": 68.3612522, "tags": {"addr:city": "\u062d\u06cc\u062f\u0631\u0622\u0628\u0627\u062f", "addr:city:en": "Hyderabad", "addr:city:fr": "Hyder\u00e2b\u00e2d", "addr:city:pa": "\u0a39\u0a48\u0a26\u0a30\u0a3e\u0a2c\u0a3e\u0a26", "addr:city:ur": "\u062d\u06cc\u062f\u0631\u0622\u0628\u0627\u062f", "addr:street": "AUTOBHAN ROAD", "name": "Khan Jee Motors", "shop": "car_repair"}}, {"type": "node", "id": 4831072387, "lat": 25.3734146, "lon": 68.365467, "tags": {"addr:city": "\u062d\u06cc\u062f\u0631\u0622\u0628\u0627\u062f", "addr:city:en": "Hyderabad", "addr:city:fr": "Hyder\u00e2b\u00e2d", "addr:city:pa": "\u0a39\u0a48\u0a26\u0a30\u0a3e\u0a2c\u0a3e\u0a26", "addr:city:ur": "\u062d\u06cc\u062f\u0631\u0622\u0628\u0627\u062f", "addr:street": "AUTOBHAN ROAD", "name": "Data Oil Traders and oil changer", "shop": "car_parts"}}, {"type": "node", "id": 4831072389, "lat": 25.3720277, "lon": 68.3683729, "tags": {"addr:city": "\u062d\u06cc\u062f\u0631\u0622\u0628\u0627\u062f", "addr:city:en": "Hyderabad", "addr:city:fr": "Hyder\u00e2b\u00e2d", "addr:city:pa": "\u0a39\u0a48\u0a26\u0a30\u0a3e\u0a2c\u0a3e\u0a26", "addr:city:ur": "\u062d\u06cc\u062f\u0631\u0622\u0628\u0627\u062f", "addr:street": "AUTOBHAN ROAD", "name": "Al-Madina Auto Workshop & Car A/C", "shop": "car_repair"}}, {"type": "node", "id": 4831072404, "lat": 25.368765, "lon": 68.3746724, "tags": {"addr:city": "\u062d\u06cc\u062f\u0631\u0622\u0628\u0627\u062f", "addr:city:en": "Hyderabad", "addr:city:fr": "Hyder\u00e2b\u00e2d", "addr:city:pa": "\u0a39\u0a48\u0a26\u0a30\u0a3e\u0a2c\u0a3e\u0a26", "addr:city:ur": "\u062d\u06cc\u062f\u0631\u0622\u0628\u0627\u062f", "addr:street": "AUTOBHAN ROAD", "name": "Army Milk Farm", "shop": "dairy"}}, {"type": "node", "id": 4831072409, "lat": 25.3645853, "lon": 68.3800824}, {"type": "node", "id": 4831072410, "lat": 25.3637562, "lon": 68.3801202}, {"type": "node", "id": 4831072411, "lat": 25.36385, "lon": 68.3812609}, {"type": "node", "id": 4831072412, "lat": 25.3645707, "lon": 68.3812287}, {"type": "node", "id": 4831072413, "lat": 25.364542, "lon": 68.3812295, "tags": {"addr:city": "\u062d\u06cc\u062f\u0631\u0622\u0628\u0627\u062f", "addr:city:en": "Hyderabad", "addr:city:fr": "Hyder\u00e2b\u00e2d", "addr:city:pa": "\u0a39\u0a48\u0a26\u0a30\u0a3e\u0a2c\u0a3e\u0a26", "addr:city:ur": "\u062d\u06cc\u062f\u0631\u0622\u0628\u0627\u062f", "addr:street": "AUTOBHAN ROAD", "amenity": "restaurant", "name": "Steak Escape"}}, {"type": "node", "id": 4831072414, "lat": 25.3644958, "lon": 68.3812313, "tags": {"addr:city": "\u062d\u06cc\u062f\u0631\u0622\u0628\u0627\u062f", "addr:city:en": "Hyderabad", "addr:city:fr": "Hyder\u00e2b\u00e2d", "addr:city:pa": "\u0a39\u0a48\u0a26\u0a30\u0a3e\u0a2c\u0a3e\u0a26", "addr:city:ur": "\u062d\u06cc\u062f\u0631\u0622\u0628\u0627\u062f", "addr:street": "AUTOBHAN ROAD", "amenity": "restaurant", "name": "Pizza & Pasta"}}, {"type": "node", "id": 4831072415, "lat": 25.3644398, "lon": 68.3812339, "tags": {"addr:city": "\u062d\u06cc\u062f\u0631\u0622\u0628\u0627\u062f", "addr:city:en": "Hyderabad", "addr:city:fr": "Hyder\u00e2b\u00e2d", "addr:city:pa": "\u0a39\u0a48\u0a26\u0a30\u0a3e\u0a2c\u0a3e\u0a26", "addr:city:ur": "\u062d\u06cc\u062f\u0631\u0622\u0628\u0627\u062f", "addr:street": "AUTOBHAN ROAD", "amenity": "food_court", "brand": "\u0645\u06a9\u0688\u0648\u0646\u0644\u0688\u0632", "brand:ar": "\u0645\u0643\u062f\u0648\u0646\u0627\u0644\u062f\u0632", "brand:de": "McDonald\u2019s", "brand:fa": "\u0645\u06a9\u062f\u0648\u0646\u0627\u0644\u062f\u0632", "brand:pnb": "\u0645\u06cc\u06a9\u0688\u0648\u0646\u0644\u0688\u0632", "brand:ps": "\u0645\u06a9\u0689\u0648\u0646\u0627\u0644\u0689\u0632", "brand:ur": "\u0645\u06a9\u0688\u0648\u0646\u0644\u0688\u0632", "brand:wikidata": "Q38076", "brand:wikipedia": "ur:\u0645\u06a9\u0688\u0648\u0646\u0644\u0688\u0632", "brand:wikipedia:ar": "\u0645\u0643\u062f\u0648\u0646\u0627\u0644\u062f\u0632", "brand:wikipedia:fa": "\u0645\u06a9\u062f\u0648\u0646\u0627\u0644\u062f\u0632", "brand:wikipedia:pnb": "\u0645\u06cc\u06a9\u0688\u0648\u0646\u0644\u0688\u0632", "brand:wikipedia:ps": "\u0645\u06a9\u0689\u0648\u0646\u0627\u0644\u0689\u0632", "brand:wikipedia:ur": "\u0645\u06a9\u0688\u0648\u0646\u0644\u0688\u0632", "name": "\u0645\u06a9\u0688\u0648\u0646\u0644\u0688\u0632", "name:ar": "\u0645\u0643\u062f\u0648\u0646\u0627\u0644\u062f\u0632", "name:de": "McDonald\u2019s", "name:en": "McDonald's", "name:fa": "\u0645\u06a9\u062f\u0648\u0646\u0627\u0644\u062f\u0632", "name:pnb": "\u0645\u06cc\u06a9\u0688\u0648\u0646\u0644\u0688\u0632", "name:ps": "\u0645\u06a9\u0689\u0648\u0646\u0627\u0644\u0689\u0632", "name:ur": "\u0645\u06a9\u0688\u0648\u0646\u0644\u0688\u0632"}}, {"type": "node", "id": 4831072416, "lat": 25.3643757, "lon": 68.3812373, "tags": {"addr:city": "\u062d\u06cc\u062f\u0631\u0622\u0628\u0627\u062f", "addr:city:en": "Hyderabad", "addr:city:fr": "Hyder\u00e2b\u00e2d", "addr:city:pa": "\u0a39\u0a48\u0a26\u0a30\u0a3e\u0a2c\u0a3e\u0a26", "addr:city:ur": "\u062d\u06cc\u062f\u0631\u0622\u0628\u0627\u062f", "addr:street": "AUTOBHAN ROAD", "amenity": "food_court", "name": "Domino's Pizza"}}, {"type": "node", "id": 4831072417, "lat": 25.364566, "lon": 68.381025, "tags": {"addr:city": "\u062d\u06cc\u062f\u0631\u0622\u0628\u0627\u062f", "addr:city:en": "Hyderabad", "addr:city:fr": "Hyder\u00e2b\u00e2d", "addr:city:pa": "\u0a39\u0a48\u0a26\u0a30\u0a3e\u0a2c\u0a3e\u0a26", "addr:city:ur": "\u062d\u06cc\u062f\u0631\u0622\u0628\u0627\u062f", "addr:street": "AUTOBHAN ROAD", "name": "Habbit Furniture", "shop": "furniture"}}, {"type": "node", "id": 4831072418, "lat": 25.364565, "lon": 68.3808758, "tags": {"addr:city": "\u062d\u06cc\u062f\u0631\u0622\u0628\u0627\u062f", "addr:city:en": "Hyderabad", "addr:city:fr": "Hyder\u00e2b\u00e2d", "addr:city:pa": "\u0a39\u0a48\u0a26\u0a30\u0a3e\u0a2c\u0a3e\u0a26", "addr:city:ur": "\u062d\u06cc\u062f\u0631\u0622\u0628\u0627\u062f", "addr:street": "AUTOBHAN ROAD", "name": "Khaadi", "shop": "clothes"}}, {"type": "node", "id": 4831072419, "lat": 25.3645652, "lon": 68.3809598, "tags": {"addr:city": "\u062d\u06cc\u062f\u0631\u0622\u0628\u0627\u062f", "addr:city:en": "Hyderabad", "addr:city:fr": "Hyder\u00e2b\u00e2d", "addr:city:pa": "\u0a39\u0a48\u0a26\u0a30\u0a3e\u0a2c\u0a3e\u0a26", "addr:city:ur": "\u062d\u06cc\u062f\u0631\u0622\u0628\u0627\u062f", "addr:street": "AUTOBHAN ROAD", "name": "Eden Robe", "shop": "clothes"}}, {"type": "node", "id": 4831072420, "lat": 25.3643207, "lon": 68.3812403, "tags": {"addr:city": "\u062d\u06cc\u062f\u0631\u0622\u0628\u0627\u062f", "addr:city:en": "Hyderabad", "addr:city:fr": "Hyder\u00e2b\u00e2d", "addr:city:pa": "\u0a39\u0a48\u0a26\u0a30\u0a3e\u0a2c\u0a3e\u0a26", "addr:city:ur": "\u062d\u06cc\u062f\u0631\u0622\u0628\u0627\u062f", "addr:street": "AUTOBHAN ROAD", "amenity": "food_court", "name": "OPTP"}}, {"type": "node", "id": 4831072621, "lat": 25.3642612, "lon": 68.3812434, "tags": {"addr:city": "\u062d\u06cc\u062f\u0631\u0622\u0628\u0627\u062f", "addr:city:en": "Hyderabad", "addr:city:fr": "Hyder\u00e2b\u00e2d", "addr:city:pa": "\u0a39\u0a48\u0a26\u0a30\u0a3e\u0a2c\u0a3e\u0a26", "addr:city:ur": "\u062d\u06cc\u062f\u0631\u0622\u0628\u0627\u062f", "addr:street": "AUTOBHAN ROAD", "amenity": "food_court", "brand": "\u06a9\u06cc\u0646\u0679\u06a9\u06cc \u0641\u0631\u0627\u0626\u06cc\u0688 \u0686\u06a9\u0646", "brand:ar": "\u062f\u062c\u0627\u062c \u0643\u0646\u062a\u0627\u0643\u064a", "brand:fa": "\u06a9\u06cc\u200c\u0627\u0641\u200c\u0633\u06cc", "brand:ur": "\u06a9\u06cc\u0646\u0679\u06a9\u06cc \u0641\u0631\u0627\u0626\u06cc\u0688 \u0686\u06a9\u0646", "brand:wikipedia": "ur:\u06a9\u06cc\u0646\u0679\u06a9\u06cc \u0641\u0631\u0627\u0626\u06cc\u0688 \u0686\u06a9\u0646", "brand:wikipedia:ar": "\u062f\u062c\u0627\u062c \u0643\u0646\u062a\u0627\u0643\u064a", "brand:wikipedia:fa": "\u06a9\u06cc\u200c\u0627\u0641\u200c\u0633\u06cc", "brand:wikipedia:ur": "\u06a9\u06cc\u0646\u0679\u06a9\u06cc \u0641\u0631\u0627\u0626\u06cc\u0688 \u0686\u06a9\u0646", "name": "\u06a9\u06cc\u0646\u0679\u06a9\u06cc \u0641\u0631\u0627\u0626\u06cc\u0688 \u0686\u06a9\u0646", "name:ar": "\u062f\u062c\u0627\u062c \u0643\u0646\u062a\u0627\u0643\u064a", "name:en": "KFC", "name:fa": "\u06a9\u06cc\u200c\u0627\u0641\u200c\u0633\u06cc", "name:ur": "\u06a9\u06cc\u0646\u0679\u06a9\u06cc \u0641\u0631\u0627\u0626\u06cc\u0688 \u0686\u06a9\u0646"}}, {"type": "node", "id": 4831072622, "lat": 25.3645656, "lon": 68.3807903, "tags": {"addr:city": "\u062d\u06cc\u062f\u0631\u0622\u0628\u0627\u062f", "addr:city:en": "Hyderabad", "addr:city:fr": "Hyder\u00e2b\u00e2d", "addr:city:pa": "\u0a39\u0a48\u0a26\u0a30\u0a3e\u0a2c\u0a3e\u0a26", "addr:city:ur": "\u062d\u06cc\u062f\u0631\u0622\u0628\u0627\u062f", "addr:street": "AUTOBHAN ROAD", "name": "J.", "shop": "clothes"}}, {"type": "node", "id": 4831072623, "lat": 25.3645774, "lon": 68.3803103, "tags": {"addr:city": "\u062d\u06cc\u062f\u0631\u0622\u0628\u0627\u062f", "addr:city:en": "Hyderabad", "addr:city:fr": "Hyder\u00e2b\u00e2d", "addr:city:pa": "\u0a39\u0a48\u0a26\u0a30\u0a3e\u0a2c\u0a3e\u0a26", "addr:city:ur": "\u062d\u06cc\u062f\u0631\u0622\u0628\u0627\u062f", "addr:street": "AUTOBHAN ROAD", "amenity": "cinema", "name": "Cinepax"}}, {"type": "node", "id": 4831072624, "lat": 25.3645672, "lon": 68.3805415, "tags": {"addr:city": "\u062d\u06cc\u062f\u0631\u0622\u0628\u0627\u062f", "addr:city:en": "Hyderabad", "addr:city:fr": "Hyder\u00e2b\u00e2d", "addr:city:pa": "\u0a39\u0a48\u0a26\u0a30\u0a3e\u0a2c\u0a3e\u0a26", "addr:city:ur": "\u062d\u06cc\u062f\u0631\u0622\u0628\u0627\u062f", "addr:street": "AUTOBHAN ROAD", "name": "Outfitters", "shop": "clothes"}}, {"type": "node", "id": 4831072625, "lat": 25.3645672, "lon": 68.3806374, "tags": {"addr:city": "\u062d\u06cc\u062f\u0631\u0622\u0628\u0627\u062f", "addr:city:en": "Hyderabad", "addr:city:fr": "Hyder\u00e2b\u00e2d", "addr:city:pa": "\u0a39\u0a48\u0a26\u0a30\u0a3e\u0a2c\u0a3e\u0a26", "addr:city:ur": "\u062d\u06cc\u062f\u0631\u0622\u0628\u0627\u062f", "addr:street": "AUTOBHAN ROAD", "name": "Warda", "shop": "clothes"}}, {"type": "node", "id": 4831072626, "lat": 25.3645666, "lon": 68.3807125, "tags": {"addr:city": "\u062d\u06cc\u062f\u0631\u0622\u0628\u0627\u062f", "addr:city:en": "Hyderabad", "addr:city:fr": "Hyder\u00e2b\u00e2d", "addr:city:pa": "\u0a39\u0a48\u0a26\u0a30\u0a3e\u0a2c\u0a3e\u0a26", "addr:city:ur": "\u062d\u06cc\u062f\u0631\u0622\u0628\u0627\u062f", "addr:street": "AUTOBHAN ROAD", "name": "alkaram Studio", "shop": "clothes"}}, {"type": "node", "id": 4831072627, "lat": 25.364566, "lon": 68.3804339, "tags": {"addr:city": "\u062d\u06cc\u062f\u0631\u0622\u0628\u0627\u062f", "addr:city:en": "Hyderabad", "addr:city:fr": "Hyder\u00e2b\u00e2d", "addr:city:pa": "\u0a39\u0a48\u0a26\u0a30\u0a3e\u0a2c\u0a3e\u0a26", "addr:city:ur": "\u062d\u06cc\u062f\u0631\u0622\u0628\u0627\u062f", "addr:street": "AUTOBHAN ROAD", "name": "Groccer", "shop": "bag"}}, {"type": "node", "id": 4831072628, "lat": 25.3645137, "lon": 68.3816064, "tags": {"addr:city": "\u062d\u06cc\u062f\u0631\u0622\u0628\u0627\u062f", "addr:city:en": "Hyderabad", "addr:city:fr": "Hyder\u00e2b\u00e2d", "addr:city:pa": "\u0a39\u0a48\u0a26\u0a30\u0a3e\u0a2c\u0a3e\u0a26", "addr:city:ur": "\u062d\u06cc\u062f\u0631\u0622\u0628\u0627\u062f", "addr:housenumber": "A 41 Site", "addr:street": "AUTOBHAN ROAD", "name": "Toyota Hyderabad Motors", "opening_hours": "Mo-Sa 09:00-18:00", "phone": "+92 22 3885123", "shop": "car", "website": "toyota-hyderabad.com"}}, {"type": "node", "id": 4836935630, "lat": 25.4055242, "lon": 68.3563525, "tags": {"addr:city": "Hydearbad", "addr:street": "National Highway N5", "name": "Askari Work Shop", "shop": "car_repair"}}, {"type": "node", "id": 4838654035, "lat": 25.4168178, "lon": 68.3807862}, {"type": "node", "id": 4838654036, "lat": 25.4166783, "lon": 68.3806744}, {"type": "node", "id": 4838654037, "lat": 25.4165755, "lon": 68.3808228}, {"type": "node", "id": 4838654038, "lat": 25.4167168, "lon": 68.3809427}, {"type": "node", "id": 4841649526, "lat": 25.4207655, "lon": 68.3792899, "tags": {"addr:city": "\u062d\u06cc\u062f\u0631\u0622\u0628\u0627\u062f", "addr:city:en": "Hyderabad", "addr:city:fr": "Hyder\u00e2b\u00e2d", "addr:city:pa": "\u0a39\u0a48\u0a26\u0a30\u0a3e\u0a2c\u0a3e\u0a26", "addr:city:ur": "\u062d\u06cc\u062f\u0631\u0622\u0628\u0627\u062f", "addr:street": "National Highway", "name": "Muzammil Auto", "shop": "car_repair"}}, {"type": "node", "id": 4841649533, "lat": 25.4214432, "lon": 68.3794385, "tags": {"addr:city": "\u062d\u06cc\u062f\u0631\u0622\u0628\u0627\u062f", "addr:city:en": "Hyderabad", "addr:city:fr": "Hyder\u00e2b\u00e2d", "addr:city:pa": "\u0a39\u0a48\u0a26\u0a30\u0a3e\u0a2c\u0a3e\u0a26", "addr:city:ur": "\u062d\u06cc\u062f\u0631\u0622\u0628\u0627\u062f", "addr:street": "National Highway", "name": "Nasurullah Khan Auto Workshop", "shop": "car_repair"}}, {"type": "node", "id": 4841649534, "lat": 25.4218076, "lon": 68.3794845, "tags": {"addr:city": "\u062d\u06cc\u062f\u0631\u0622\u0628\u0627\u062f", "addr:city:en": "Hyderabad", "addr:city:fr": "Hyder\u00e2b\u00e2d", "addr:city:pa": "\u0a39\u0a48\u0a26\u0a30\u0a3e\u0a2c\u0a3e\u0a26", "addr:city:ur": "\u062d\u06cc\u062f\u0631\u0622\u0628\u0627\u062f", "addr:street": "National Highway", "name": "Nasrullah Khan Market", "shop": "car_parts"}}, {"type": "node", "id": 4845984893, "lat": 25.4229042, "lon": 68.3467072}, {"type": "node", "id": 4845984894, "lat": 25.4226197, "lon": 68.3470573}, {"type": "node", "id": 4845984895, "lat": 25.4231552, "lon": 68.3475909}, {"type": "node", "id": 4845984896, "lat": 25.4234397, "lon": 68.3472407}, {"type": "node", "id": 5093969924, "lat": 25.4322067, "lon": 68.529405, "tags": {"addr:street": "musa khatyaan road", "email": "pkjee608@gmail.com", "name": "Shah Communication Tandojam", "name:en": "Shah Communication Tandojam", "opening_hours": "Mo-Su 08:00-20:00", "operator": "Syed Muhammad Shahzad", "phone": "03443956800", "shop": "mobile_phone"}}, {"type": "node", "id": 5251853761, "lat": 25.3735042, "lon": 68.3552642, "tags": {"addr:city": "\u062d\u06cc\u062f\u0631\u0622\u0628\u0627\u062f", "addr:city:en": "Hyderabad", "addr:city:fr": "Hyder\u00e2b\u00e2d", "addr:city:pa": "\u0a39\u0a48\u0a26\u0a30\u0a3e\u0a2c\u0a3e\u0a26", "addr:city:ur": "\u062d\u06cc\u062f\u0631\u0622\u0628\u0627\u062f", "addr:street": "NAWAB MUZZAFAR ROAD;UNIT 7 MAIN ROAD", "name": "Shah Latif Dairy", "shop": "bakery"}}, {"type": "node", "id": 5251853769, "lat": 25.374466, "lon": 68.3603779, "tags": {"addr:city": "\u062d\u06cc\u062f\u0631\u0622\u0628\u0627\u062f", "addr:city:en": "Hyderabad", "addr:city:fr": "Hyder\u00e2b\u00e2d", "addr:city:pa": "\u0a39\u0a48\u0a26\u0a30\u0a3e\u0a2c\u0a3e\u0a26", "addr:city:ur": "\u062d\u06cc\u062f\u0631\u0622\u0628\u0627\u062f", "addr:street": "AUTOBHAN ROAD", "name": "Hidain Super Market", "shop": "mall"}}, {"type": "node", "id": 5251853780, "lat": 25.3658568, "lon": 68.378448, "tags": {"addr:city": "\u062d\u06cc\u062f\u0631\u0622\u0628\u0627\u062f", "addr:city:en": "Hyderabad", "addr:city:fr": "Hyder\u00e2b\u00e2d", "addr:city:pa": "\u0a39\u0a48\u0a26\u0a30\u0a3e\u0a2c\u0a3e\u0a26", "addr:city:ur": "\u062d\u06cc\u062f\u0631\u0622\u0628\u0627\u062f", "addr:street": "AUTOBHAN ROAD", "name": "Hero Towers", "shop": "mall"}}, {"type": "node", "id": 5251853781, "lat": 25.3643577, "lon": 68.3809208, "tags": {"addr:city": "\u062d\u06cc\u062f\u0631\u0622\u0628\u0627\u062f", "addr:city:en": "Hyderabad", "addr:city:fr": "Hyder\u00e2b\u00e2d", "addr:city:pa": "\u0a39\u0a48\u0a26\u0a30\u0a3e\u0a2c\u0a3e\u0a26", "addr:city:ur": "\u062d\u06cc\u062f\u0631\u0622\u0628\u0627\u062f", "addr:street": "AUTOBHAN ROAD", "name": "Boulevard Mall", "shop": "mall"}}, {"type": "node", "id": 5252038807, "lat": 25.3646288, "lon": 68.380762, "tags": {"addr:city": "\u062d\u06cc\u062f\u0631\u0622\u0628\u0627\u062f", "addr:city:en": "Hyderabad", "addr:city:fr": "Hyder\u00e2b\u00e2d", "addr:city:pa": "\u0a39\u0a48\u0a26\u0a30\u0a3e\u0a2c\u0a3e\u0a26", "addr:city:ur": "\u062d\u06cc\u062f\u0631\u0622\u0628\u0627\u062f", "addr:street": "AUTOBHAN ROAD", "name": "Boulevard Mall", "shop": "mall"}}, {"type": "node", "id": 5252043324, "lat": 25.3503943, "lon": 68.3808372, "tags": {"addr:city": "\u062d\u06cc\u062f\u0631\u0622\u0628\u0627\u062f", "addr:city:en": "Hyderabad", "addr:city:fr": "Hyder\u00e2b\u00e2d", "addr:city:pa": "\u0a39\u0a48\u0a26\u0a30\u0a3e\u0a2c\u0a3e\u0a26", "addr:city:ur": "\u062d\u06cc\u062f\u0631\u0622\u0628\u0627\u062f", "name": "Evergreen Mart", "shop": "supermarket"}}, {"type": "node", "id": 5252043331, "lat": 25.3610882, "lon": 68.3889898, "tags": {"addr:city": "\u062d\u06cc\u062f\u0631\u0622\u0628\u0627\u062f", "addr:city:en": "Hyderabad", "addr:city:fr": "Hyder\u00e2b\u00e2d", "addr:city:pa": "\u0a39\u0a48\u0a26\u0a30\u0a3e\u0a2c\u0a3e\u0a26", "addr:city:ur": "\u062d\u06cc\u062f\u0631\u0622\u0628\u0627\u062f", "addr:street": "Passport Office Road", "name": "D S Motors 1", "shop": "car"}}, {"type": "node", "id": 5252043332, "lat": 25.3615603, "lon": 68.3850151, "tags": {"addr:city": "\u062d\u06cc\u062f\u0631\u0622\u0628\u0627\u062f", "addr:city:en": "Hyderabad", "addr:city:fr": "Hyder\u00e2b\u00e2d", "addr:city:pa": "\u0a39\u0a48\u0a26\u0a30\u0a3e\u0a2c\u0a3e\u0a26", "addr:city:ur": "\u062d\u06cc\u062f\u0631\u0622\u0628\u0627\u062f", "addr:street": "Passport Office Road", "name": "D S Motors 2", "shop": "car"}}, {"type": "node", "id": 5252043338, "lat": 25.3641073, "lon": 68.3932588, "tags": {"addr:city": "\u062d\u06cc\u062f\u0631\u0622\u0628\u0627\u062f", "addr:city:en": "Hyderabad", "addr:city:fr": "Hyder\u00e2b\u00e2d", "addr:city:pa": "\u0a39\u0a48\u0a26\u0a30\u0a3e\u0a2c\u0a3e\u0a26", "addr:city:ur": "\u062d\u06cc\u062f\u0631\u0622\u0628\u0627\u062f", "addr:street": "Hyderabad Badin Road", "name": "Super Mart General Cosmetic Store", "shop": "supermarket"}}, {"type": "node", "id": 5252043364, "lat": 25.3771275, "lon": 68.3771516, "tags": {"addr:city": "\u062d\u06cc\u062f\u0631\u0622\u0628\u0627\u062f", "addr:city:en": "Hyderabad", "addr:city:fr": "Hyder\u00e2b\u00e2d", "addr:city:pa": "\u0a39\u0a48\u0a26\u0a30\u0a3e\u0a2c\u0a3e\u0a26", "addr:city:ur": "\u062d\u06cc\u062f\u0631\u0622\u0628\u0627\u062f", "addr:street": "Hali Road", "name": "Shama Super Store", "shop": "supermarket"}}, {"type": "node", "id": 5252214999, "lat": 25.4184993, "lon": 68.347284, "tags": {"addr:city": "\u062d\u06cc\u062f\u0631\u0622\u0628\u0627\u062f", "addr:city:en": "Hyderabad", "addr:city:fr": "Hyder\u00e2b\u00e2d", "addr:city:pa": "\u0a39\u0a48\u0a26\u0a30\u0a3e\u0a2c\u0a3e\u0a26", "addr:city:ur": "\u062d\u06cc\u062f\u0631\u0622\u0628\u0627\u062f", "addr:street": "Jamshoro Road", "name": "Signature Towers and Mall", "shop": "mall"}}, {"type": "node", "id": 5252277826, "lat": 25.3865357, "lon": 68.3731083, "tags": {"addr:city": "\u062d\u06cc\u062f\u0631\u0622\u0628\u0627\u062f", "addr:city:en": "Hyderabad", "addr:city:fr": "Hyder\u00e2b\u00e2d", "addr:city:pa": "\u0a39\u0a48\u0a26\u0a30\u0a3e\u0a2c\u0a3e\u0a26", "addr:city:ur": "\u062d\u06cc\u062f\u0631\u0622\u0628\u0627\u062f", "addr:street": "Shahi Bazar Road", "name": "Haji Ibrahim Rabri Shop", "shop": "yes"}}, {"type": "node", "id": 5252277839, "lat": 25.385817, "lon": 68.3678469, "tags": {"addr:city": "Karachi", "addr:street": "Hyder Chowk", "name": "Hala Handicrafts", "shop": "craft"}}, {"type": "node", "id": 5253681686, "lat": 25.372579, "lon": 68.3776851, "tags": {"addr:city": "\u062d\u06cc\u062f\u0631\u0622\u0628\u0627\u062f", "addr:city:en": "Hyderabad", "addr:city:fr": "Hyder\u00e2b\u00e2d", "addr:city:pa": "\u0a39\u0a48\u0a26\u0a30\u0a3e\u0a2c\u0a3e\u0a26", "addr:city:ur": "\u062d\u06cc\u062f\u0631\u0622\u0628\u0627\u062f", "addr:street": "Badin Stop Road", "name": "Haji Rabri Shop", "shop": "dessert"}}, {"type": "node", "id": 5253791370, "lat": 25.3897328, "lon": 68.3795916, "tags": {"addr:city": "\u062d\u06cc\u062f\u0631\u0622\u0628\u0627\u062f", "addr:city:en": "Hyderabad", "addr:city:fr": "Hyder\u00e2b\u00e2d", "addr:city:pa": "\u0a39\u0a48\u0a26\u0a30\u0a3e\u0a2c\u0a3e\u0a26", "addr:city:ur": "\u062d\u06cc\u062f\u0631\u0622\u0628\u0627\u062f", "addr:street": "Tando Yousuf Road", "name": "Faishon Kids Collection", "shop": "clothes"}}, {"type": "node", "id": 5253791377, "lat": 25.3858144, "lon": 68.3824804, "tags": {"addr:city": "\u062d\u06cc\u062f\u0631\u0622\u0628\u0627\u062f", "addr:city:en": "Hyderabad", "addr:city:fr": "Hyder\u00e2b\u00e2d", "addr:city:pa": "\u0a39\u0a48\u0a26\u0a30\u0a3e\u0a2c\u0a3e\u0a26", "addr:city:ur": "\u062d\u06cc\u062f\u0631\u0622\u0628\u0627\u062f", "addr:street": "Tando Yousuf Road", "name": "Abdul Sattar Sweets", "shop": "bakery"}}, {"type": "node", "id": 5253791389, "lat": 25.3843064, "lon": 68.3700964, "tags": {"addr:city": "\u062d\u06cc\u062f\u0631\u0622\u0628\u0627\u062f", "addr:city:en": "Hyderabad", "addr:city:fr": "Hyder\u00e2b\u00e2d", "addr:city:pa": "\u0a39\u0a48\u0a26\u0a30\u0a3e\u0a2c\u0a3e\u0a26", "addr:city:ur": "\u062d\u06cc\u062f\u0631\u0622\u0628\u0627\u062f", "addr:street": "Foujdari Road", "name": "Mehran Centre", "shop": "car_parts"}}, {"type": "node", "id": 5253791390, "lat": 25.3889327, "lon": 68.3629923, "tags": {"addr:city": "Karachi", "addr:street": "Mobile Market Road", "name": "Chandni Cloth Centre", "shop": "clothes"}}, {"type": "node", "id": 5253791391, "lat": 25.3889263, "lon": 68.3633378, "tags": {"addr:city": "Karachi", "addr:street": "Mobile Market Road", "name": "SRTC Mobile Market", "shop": "mobile_phone"}}, {"type": "node", "id": 5253791396, "lat": 25.3877442, "lon": 68.3612708, "tags": {"addr:city": "\u062d\u06cc\u062f\u0631\u0622\u0628\u0627\u062f", "addr:city:en": "Hyderabad", "addr:city:fr": "Hyder\u00e2b\u00e2d", "addr:city:pa": "\u0a39\u0a48\u0a26\u0a30\u0a3e\u0a2c\u0a3e\u0a26", "addr:city:ur": "\u062d\u06cc\u062f\u0631\u0622\u0628\u0627\u062f", "addr:street": "Chandni Cinema Road", "name": "Garrison Complex", "shop": "mall"}}, {"type": "node", "id": 5253791397, "lat": 25.3876837, "lon": 68.3611622, "tags": {"addr:city": "\u062d\u06cc\u062f\u0631\u0622\u0628\u0627\u062f", "addr:city:en": "Hyderabad", "addr:city:fr": "Hyder\u00e2b\u00e2d", "addr:city:pa": "\u0a39\u0a48\u0a26\u0a30\u0a3e\u0a2c\u0a3e\u0a26", "addr:city:ur": "\u062d\u06cc\u062f\u0631\u0622\u0628\u0627\u062f", "addr:street": "Chandni Cinema Road", "name": "Junaid Jamshed Garments", "shop": "clothes"}}, {"type": "node", "id": 5253791401, "lat": 25.3892245, "lon": 68.3628537, "tags": {"addr:city": "\u062d\u06cc\u062f\u0631\u0622\u0628\u0627\u062f", "addr:city:en": "Hyderabad", "addr:city:fr": "Hyder\u00e2b\u00e2d", "addr:city:pa": "\u0a39\u0a48\u0a26\u0a30\u0a3e\u0a2c\u0a3e\u0a26", "addr:city:ur": "\u062d\u06cc\u062f\u0631\u0622\u0628\u0627\u062f", "addr:street": "Chandni Cinema Road", "name": "Shelter Shopping Mall", "shop": "mall"}}, {"type": "node", "id": 5253791402, "lat": 25.3898095, "lon": 68.3635801, "tags": {"addr:city": "\u062d\u06cc\u062f\u0631\u0622\u0628\u0627\u062f", "addr:city:en": "Hyderabad", "addr:city:fr": "Hyder\u00e2b\u00e2d", "addr:city:pa": "\u0a39\u0a48\u0a26\u0a30\u0a3e\u0a2c\u0a3e\u0a26", "addr:city:ur": "\u062d\u06cc\u062f\u0631\u0622\u0628\u0627\u062f", "addr:street": "Chandni Cinema Road", "name": "QMobile Customer Care Center", "shop": "mobile_phone"}}, {"type": "node", "id": 5253791403, "lat": 25.389652, "lon": 68.3634822, "tags": {"addr:city": "\u062d\u06cc\u062f\u0631\u0622\u0628\u0627\u062f", "addr:city:en": "Hyderabad", "addr:city:fr": "Hyder\u00e2b\u00e2d", "addr:city:pa": "\u0a39\u0a48\u0a26\u0a30\u0a3e\u0a2c\u0a3e\u0a26", "addr:city:ur": "\u062d\u06cc\u062f\u0631\u0622\u0628\u0627\u062f", "addr:street": "Chandni Cinema Road", "name": "Soghat e Sheerin", "shop": "bakery"}}, {"type": "node", "id": 5253791405, "lat": 25.3906956, "lon": 68.364218, "tags": {"addr:city": "\u062d\u06cc\u062f\u0631\u0622\u0628\u0627\u062f", "addr:city:en": "Hyderabad", "addr:city:fr": "Hyder\u00e2b\u00e2d", "addr:city:pa": "\u0a39\u0a48\u0a26\u0a30\u0a3e\u0a2c\u0a3e\u0a26", "addr:city:ur": "\u062d\u06cc\u062f\u0631\u0622\u0628\u0627\u062f", "addr:street": "Chandni Cinema Road", "name": "K&N's Chicken Store", "shop": "yes"}}, {"type": "node", "id": 5253907814, "lat": 25.3886605, "lon": 68.3760139, "tags": {"addr:city": "\u062d\u06cc\u062f\u0631\u0622\u0628\u0627\u062f", "addr:city:en": "Hyderabad", "addr:city:fr": "Hyder\u00e2b\u00e2d", "addr:city:pa": "\u0a39\u0a48\u0a26\u0a30\u0a3e\u0a2c\u0a3e\u0a26", "addr:city:ur": "\u062d\u06cc\u062f\u0631\u0622\u0628\u0627\u062f", "addr:street": "Tando Yousuf Road", "name": "Shah Latif Bhitai Sweets", "shop": "bakery"}}, {"type": "node", "id": 5253909123, "lat": 25.3930474, "lon": 68.3751237, "tags": {"addr:city": "\u062d\u06cc\u062f\u0631\u0622\u0628\u0627\u062f", "addr:city:en": "Hyderabad", "addr:city:fr": "Hyder\u00e2b\u00e2d", "addr:city:pa": "\u0a39\u0a48\u0a26\u0a30\u0a3e\u0a2c\u0a3e\u0a26", "addr:city:ur": "\u062d\u06cc\u062f\u0631\u0622\u0628\u0627\u062f", "addr:street": "Haji Ehsan Ali Road", "name": "Symbian Mobiles", "shop": "mobile_phone"}}, {"type": "node", "id": 5253909124, "lat": 25.3941717, "lon": 68.3758405, "tags": {"addr:city": "\u062d\u06cc\u062f\u0631\u0622\u0628\u0627\u062f", "addr:city:en": "Hyderabad", "addr:city:fr": "Hyder\u00e2b\u00e2d", "addr:city:pa": "\u0a39\u0a48\u0a26\u0a30\u0a3e\u0a2c\u0a3e\u0a26", "addr:city:ur": "\u062d\u06cc\u062f\u0631\u0622\u0628\u0627\u062f", "addr:street": "Haji Ehsan Ali Road", "name": "Cloth Market", "shop": "mall"}}, {"type": "node", "id": 5253909127, "lat": 25.3955911, "lon": 68.3766454, "tags": {"addr:city": "\u062d\u06cc\u062f\u0631\u0622\u0628\u0627\u062f", "addr:city:en": "Hyderabad", "addr:city:fr": "Hyder\u00e2b\u00e2d", "addr:city:pa": "\u0a39\u0a48\u0a26\u0a30\u0a3e\u0a2c\u0a3e\u0a26", "addr:city:ur": "\u062d\u06cc\u062f\u0631\u0622\u0628\u0627\u062f", "addr:street": "Haji Ehsan Ali Road", "name": "Hyderi Bakery", "shop": "bakery"}}, {"type": "node", "id": 5281599144, "lat": 25.3596316, "lon": 68.3579, "tags": {"addr:city": "\u062d\u06cc\u062f\u0631\u0622\u0628\u0627\u062f", "addr:city:en": "Hyderabad", "addr:city:fr": "Hyder\u00e2b\u00e2d", "addr:city:pa": "\u0a39\u0a48\u0a26\u0a30\u0a3e\u0a2c\u0a3e\u0a26", "addr:city:ur": "\u062d\u06cc\u062f\u0631\u0622\u0628\u0627\u062f", "addr:street": "AIRPORT ROAD latifabad 11 Road", "name": "Ali Height Shopping Mall", "shop": "mall"}}, {"type": "node", "id": 5285951856, "lat": 25.3853617, "lon": 68.3610644, "tags": {"addr:city": "\u062d\u06cc\u062f\u0631\u0622\u0628\u0627\u062f", "addr:city:en": "Hyderabad", "addr:city:fr": "Hyder\u00e2b\u00e2d", "addr:city:pa": "\u0a39\u0a48\u0a26\u0a30\u0a3e\u0a2c\u0a3e\u0a26", "addr:city:ur": "\u062d\u06cc\u062f\u0631\u0622\u0628\u0627\u062f", "addr:street": "Liaqat Civil Line Road", "name": "Gul Center", "shop": "mall"}}, {"type": "node", "id": 5285951857, "lat": 25.3848623, "lon": 68.3619634, "tags": {"addr:city": "\u062d\u06cc\u062f\u0631\u0622\u0628\u0627\u062f", "addr:city:en": "Hyderabad", "addr:city:fr": "Hyder\u00e2b\u00e2d", "addr:city:pa": "\u0a39\u0a48\u0a26\u0a30\u0a3e\u0a2c\u0a3e\u0a26", "addr:city:ur": "\u062d\u06cc\u062f\u0631\u0622\u0628\u0627\u062f", "addr:street": "THANDI SARAK", "name": "District Council", "shop": "mall"}}, {"type": "node", "id": 5285951859, "lat": 25.3839174, "lon": 68.3613382, "tags": {"addr:city": "\u062d\u06cc\u062f\u0631\u0622\u0628\u0627\u062f", "addr:city:en": "Hyderabad", "addr:city:fr": "Hyder\u00e2b\u00e2d", "addr:city:pa": "\u0a39\u0a48\u0a26\u0a30\u0a3e\u0a2c\u0a3e\u0a26", "addr:city:ur": "\u062d\u06cc\u062f\u0631\u0622\u0628\u0627\u062f", "addr:street": "Latifabad Road", "name": "Magnum Mall Hyderabad", "shop": "mall"}}, {"type": "node", "id": 5318280853, "lat": 25.3730735, "lon": 68.3510456, "tags": {"addr:city": "\u062d\u06cc\u062f\u0631\u0622\u0628\u0627\u062f", "addr:city:en": "Hyderabad", "addr:city:fr": "Hyder\u00e2b\u00e2d", "addr:city:pa": "\u0a39\u0a48\u0a26\u0a30\u0a3e\u0a2c\u0a3e\u0a26", "addr:city:ur": "\u062d\u06cc\u062f\u0631\u0622\u0628\u0627\u062f", "addr:street": "LATIFABAD 4 ROAD", "name": "Baig Mart", "shop": "supermarket"}}, {"type": "node", "id": 5318350920, "lat": 25.3588987, "lon": 68.3571358, "tags": {"addr:city": "\u062d\u06cc\u062f\u0631\u0622\u0628\u0627\u062f", "addr:city:en": "Hyderabad", "addr:city:fr": "Hyder\u00e2b\u00e2d", "addr:city:pa": "\u0a39\u0a48\u0a26\u0a30\u0a3e\u0a2c\u0a3e\u0a26", "addr:city:ur": "\u062d\u06cc\u062f\u0631\u0622\u0628\u0627\u062f", "addr:street": "AIRPORT ROAD latifabad 11 Road", "name": "Hassan Sweets", "shop": "bakery"}}, {"type": "node", "id": 5318481324, "lat": 25.3719219, "lon": 68.3564333, "tags": {"addr:city": "\u062d\u06cc\u062f\u0631\u0622\u0628\u0627\u062f", "addr:city:en": "Hyderabad", "addr:city:fr": "Hyder\u00e2b\u00e2d", "addr:city:pa": "\u0a39\u0a48\u0a26\u0a30\u0a3e\u0a2c\u0a3e\u0a26", "addr:city:ur": "\u062d\u06cc\u062f\u0631\u0622\u0628\u0627\u062f", "addr:street": "AIRPORT ROAD", "name": "Haji Mehfooz Sheermal House", "shop": "bakery"}}, {"type": "node", "id": 5318481337, "lat": 25.371044, "lon": 68.3569043, "tags": {"addr:city": "\u062d\u06cc\u062f\u0631\u0622\u0628\u0627\u062f", "addr:city:en": "Hyderabad", "addr:city:fr": "Hyder\u00e2b\u00e2d", "addr:city:pa": "\u0a39\u0a48\u0a26\u0a30\u0a3e\u0a2c\u0a3e\u0a26", "addr:city:ur": "\u062d\u06cc\u062f\u0631\u0622\u0628\u0627\u062f", "addr:street": "NAWAB MUZZAFAR ROAD;UNIT 7 MAIN ROAD", "name": "K&Ns Chicken Store", "shop": "butcher"}}, {"type": "node", "id": 5318520177, "lat": 25.3654058, "lon": 68.3670824, "tags": {"addr:city": "\u062d\u06cc\u062f\u0631\u0622\u0628\u0627\u062f", "addr:city:en": "Hyderabad", "addr:city:fr": "Hyder\u00e2b\u00e2d", "addr:city:pa": "\u0a39\u0a48\u0a26\u0a30\u0a3e\u0a2c\u0a3e\u0a26", "addr:city:ur": "\u062d\u06cc\u062f\u0631\u0622\u0628\u0627\u062f", "addr:street": "NAWWAB MUZZAFAR ROAD", "name": "Super Shirmal House", "shop": "bakery"}}, {"type": "node", "id": 5319672151, "lat": 25.3914477, "lon": 68.3660575, "tags": {"addr:city": "\u062d\u06cc\u062f\u0631\u0622\u0628\u0627\u062f", "addr:city:en": "Hyderabad", "addr:city:fr": "Hyder\u00e2b\u00e2d", "addr:city:pa": "\u0a39\u0a48\u0a26\u0a30\u0a3e\u0a2c\u0a3e\u0a26", "addr:city:ur": "\u062d\u06cc\u062f\u0631\u0622\u0628\u0627\u062f", "addr:street": "rahat cinema road", "name": "Burhani Bakery", "shop": "bakery"}}, {"type": "node", "id": 5319672154, "lat": 25.3912295, "lon": 68.3644565, "tags": {"addr:city": "\u062d\u06cc\u062f\u0631\u0622\u0628\u0627\u062f", "addr:city:en": "Hyderabad", "addr:city:fr": "Hyder\u00e2b\u00e2d", "addr:city:pa": "\u0a39\u0a48\u0a26\u0a30\u0a3e\u0a2c\u0a3e\u0a26", "addr:city:ur": "\u062d\u06cc\u062f\u0631\u0622\u0628\u0627\u062f", "addr:street": "Sydena Tahir Saifuddin Road", "name": "Kaka Bakery", "shop": "bakery"}}, {"type": "node", "id": 5319793428, "lat": 25.4517077, "lon": 68.3827861, "tags": {"addr:city": "\u062d\u06cc\u062f\u0631\u0622\u0628\u0627\u062f", "addr:city:en": "Hyderabad", "addr:city:fr": "Hyder\u00e2b\u00e2d", "addr:city:pa": "\u0a39\u0a48\u0a26\u0a30\u0a3e\u0a2c\u0a3e\u0a26", "addr:city:ur": "\u062d\u06cc\u062f\u0631\u0622\u0628\u0627\u062f", "addr:street": "Hyderabad Bypass", "name": "Zeeshan Suzuki Autos", "shop": "car"}}, {"type": "node", "id": 5319793431, "lat": 25.4546841, "lon": 68.3878542, "tags": {"addr:city": "\u062d\u06cc\u062f\u0631\u0622\u0628\u0627\u062f", "addr:city:en": "Hyderabad", "addr:city:fr": "Hyder\u00e2b\u00e2d", "addr:city:pa": "\u0a39\u0a48\u0a26\u0a30\u0a3e\u0a2c\u0a3e\u0a26", "addr:city:ur": "\u062d\u06cc\u062f\u0631\u0622\u0628\u0627\u062f", "addr:street": "National Highway", "name": "Directions DAWOOD BILAL Hajj unmra Travel & tours (pvt) ltd", "shop": "travel_agency"}}, {"type": "node", "id": 5319793433, "lat": 25.4566138, "lon": 68.3874277, "tags": {"addr:city": "\u062d\u06cc\u062f\u0631\u0622\u0628\u0627\u062f", "addr:city:en": "Hyderabad", "addr:city:fr": "Hyder\u00e2b\u00e2d", "addr:city:pa": "\u0a39\u0a48\u0a26\u0a30\u0a3e\u0a2c\u0a3e\u0a26", "addr:city:ur": "\u062d\u06cc\u062f\u0631\u0622\u0628\u0627\u062f", "addr:street": "National Highway", "name": "Rizwan Shoes", "shop": "yes"}}, {"type": "node", "id": 5320076635, "lat": 25.449495, "lon": 68.3782297, "tags": {"addr:city": "\u062d\u06cc\u062f\u0631\u0622\u0628\u0627\u062f", "addr:city:en": "Hyderabad", "addr:city:fr": "Hyder\u00e2b\u00e2d", "addr:city:pa": "\u0a39\u0a48\u0a26\u0a30\u0a3e\u0a2c\u0a3e\u0a26", "addr:city:ur": "\u062d\u06cc\u062f\u0631\u0622\u0628\u0627\u062f", "addr:street": "Hyderabad Bypass", "name": "MTW Showroom", "shop": "car_parts"}}, {"type": "node", "id": 5321739738, "lat": 25.3384058, "lon": 68.3628252, "tags": {"addr:city": "\u062d\u06cc\u062f\u0631\u0622\u0628\u0627\u062f", "addr:city:en": "Hyderabad", "addr:city:fr": "Hyder\u00e2b\u00e2d", "addr:city:pa": "\u0a39\u0a48\u0a26\u0a30\u0a3e\u0a2c\u0a3e\u0a26", "addr:city:ur": "\u062d\u06cc\u062f\u0631\u0622\u0628\u0627\u062f", "addr:street": "GULISTAN-E-SARMAST ROAD;latifabad 11 road", "name": "Valley Des Boutique", "shop": "clothes"}}, {"type": "node", "id": 5321739755, "lat": 25.3585367, "lon": 68.3575627, "tags": {"addr:city": "\u062d\u06cc\u062f\u0631\u0622\u0628\u0627\u062f", "addr:city:en": "Hyderabad", "addr:city:fr": "Hyder\u00e2b\u00e2d", "addr:city:pa": "\u0a39\u0a48\u0a26\u0a30\u0a3e\u0a2c\u0a3e\u0a26", "addr:city:ur": "\u062d\u06cc\u062f\u0631\u0622\u0628\u0627\u062f", "addr:street": "AIRPORT ROAD latifabad 11 Road", "name": "Hafiz Sweets And Halwa Poori", "shop": "bakery"}}, {"type": "node", "id": 5321739768, "lat": 25.3634077, "lon": 68.3613323, "tags": {"addr:city": "\u062d\u06cc\u062f\u0631\u0622\u0628\u0627\u062f", "addr:city:en": "Hyderabad", "addr:city:fr": "Hyder\u00e2b\u00e2d", "addr:city:pa": "\u0a39\u0a48\u0a26\u0a30\u0a3e\u0a2c\u0a3e\u0a26", "addr:city:ur": "\u062d\u06cc\u062f\u0631\u0622\u0628\u0627\u062f", "addr:street": "AIRPORT ROAD", "name": "Grocery Store", "shop": "supermarket"}}, {"type": "node", "id": 5321931879, "lat": 25.3654663, "lon": 68.3580629, "tags": {"addr:city": "\u062d\u06cc\u062f\u0631\u0622\u0628\u0627\u062f", "addr:city:en": "Hyderabad", "addr:city:fr": "Hyder\u00e2b\u00e2d", "addr:city:pa": "\u0a39\u0a48\u0a26\u0a30\u0a3e\u0a2c\u0a3e\u0a26", "addr:city:ur": "\u062d\u06cc\u062f\u0631\u0622\u0628\u0627\u062f", "addr:street": "AIRPORT ROAD", "name": "Sharjah Shaikh Book Depot", "shop": "books"}}, {"type": "node", "id": 5321931908, "lat": 25.3947413, "lon": 68.3904383, "tags": {"addr:city": "\u062d\u06cc\u062f\u0631\u0622\u0628\u0627\u062f", "addr:city:en": "Hyderabad", "addr:city:fr": "Hyder\u00e2b\u00e2d", "addr:city:pa": "\u0a39\u0a48\u0a26\u0a30\u0a3e\u0a2c\u0a3e\u0a26", "addr:city:ur": "\u062d\u06cc\u062f\u0631\u0622\u0628\u0627\u062f", "addr:street": "Bakra Piri Road", "name": "Zubair Book Depot", "shop": "books"}}, {"type": "node", "id": 5321931914, "lat": 25.3694155, "lon": 68.3867584, "tags": {"addr:city": "\u062d\u06cc\u062f\u0631\u0622\u0628\u0627\u062f", "addr:city:en": "Hyderabad", "addr:city:fr": "Hyder\u00e2b\u00e2d", "addr:city:pa": "\u0a39\u0a48\u0a26\u0a30\u0a3e\u0a2c\u0a3e\u0a26", "addr:city:ur": "\u062d\u06cc\u062f\u0631\u0622\u0628\u0627\u062f", "addr:street": "Hali Road", "name": "Thar Mega Mart", "shop": "supermarket"}}, {"type": "node", "id": 5323458674, "lat": 25.3493301, "lon": 68.3641955, "tags": {"addr:city": "\u062d\u06cc\u062f\u0631\u0622\u0628\u0627\u062f", "addr:city:en": "Hyderabad", "addr:city:fr": "Hyder\u00e2b\u00e2d", "addr:city:pa": "\u0a39\u0a48\u0a26\u0a30\u0a3e\u0a2c\u0a3e\u0a26", "addr:city:ur": "\u062d\u06cc\u062f\u0631\u0622\u0628\u0627\u062f", "addr:street": "AIRPORT ROAD", "name": "National Bakery", "shop": "bakery"}}, {"type": "node", "id": 5323458691, "lat": 25.3673391, "lon": 68.3551935, "tags": {"addr:city": "\u062d\u06cc\u062f\u0631\u0622\u0628\u0627\u062f", "addr:city:en": "Hyderabad", "addr:city:fr": "Hyder\u00e2b\u00e2d", "addr:city:pa": "\u0a39\u0a48\u0a26\u0a30\u0a3e\u0a2c\u0a3e\u0a26", "addr:city:ur": "\u062d\u06cc\u062f\u0631\u0622\u0628\u0627\u062f", "addr:street": "Board Office Road", "name": "Dawood Super Mart Latifabad Branch", "shop": "mall"}}, {"type": "node", "id": 5323458694, "lat": 25.3718305, "lon": 68.3489034, "tags": {"addr:city": "\u062d\u06cc\u062f\u0631\u0622\u0628\u0627\u062f", "addr:city:en": "Hyderabad", "addr:city:fr": "Hyder\u00e2b\u00e2d", "addr:city:pa": "\u0a39\u0a48\u0a26\u0a30\u0a3e\u0a2c\u0a3e\u0a26", "addr:city:ur": "\u062d\u06cc\u062f\u0631\u0622\u0628\u0627\u062f", "addr:street": "Unit No 2 Main Road", "name": "Sapna Beauty Parlour", "shop": "beauty"}}, {"type": "node", "id": 5323577385, "lat": 25.3669352, "lon": 68.3493657, "tags": {"addr:city": "\u062d\u06cc\u062f\u0631\u0622\u0628\u0627\u062f", "addr:city:en": "Hyderabad", "addr:city:fr": "Hyder\u00e2b\u00e2d", "addr:city:pa": "\u0a39\u0a48\u0a26\u0a30\u0a3e\u0a2c\u0a3e\u0a26", "addr:city:ur": "\u062d\u06cc\u062f\u0631\u0622\u0628\u0627\u062f", "addr:street": "Unit No.6", "name": "Utility Store", "shop": "supermarket"}}, {"type": "node", "id": 5323577388, "lat": 25.3672418, "lon": 68.3492404, "tags": {"addr:city": "\u062d\u06cc\u062f\u0631\u0622\u0628\u0627\u062f", "addr:city:en": "Hyderabad", "addr:city:fr": "Hyder\u00e2b\u00e2d", "addr:city:pa": "\u0a39\u0a48\u0a26\u0a30\u0a3e\u0a2c\u0a3e\u0a26", "addr:city:ur": "\u062d\u06cc\u062f\u0631\u0622\u0628\u0627\u062f", "addr:street": "Unit No.6", "name": "Umar Sweets", "shop": "bakery"}}, {"type": "node", "id": 5323577392, "lat": 25.3652525, "lon": 68.3521489, "tags": {"addr:city": "\u062d\u06cc\u062f\u0631\u0622\u0628\u0627\u062f", "addr:city:en": "Hyderabad", "addr:city:fr": "Hyder\u00e2b\u00e2d", "addr:city:pa": "\u0a39\u0a48\u0a26\u0a30\u0a3e\u0a2c\u0a3e\u0a26", "addr:city:ur": "\u062d\u06cc\u062f\u0631\u0622\u0628\u0627\u062f", "addr:street": "Board Office Road", "name": "Marvel Boutique", "shop": "boutique"}}, {"type": "node", "id": 5326935153, "lat": 25.4685577, "lon": 68.3951355, "tags": {"addr:city": "\u062d\u06cc\u062f\u0631\u0622\u0628\u0627\u062f", "addr:city:en": "Hyderabad", "addr:city:fr": "Hyder\u00e2b\u00e2d", "addr:city:pa": "\u0a39\u0a48\u0a26\u0a30\u0a3e\u0a2c\u0a3e\u0a26", "addr:city:ur": "\u062d\u06cc\u062f\u0631\u0622\u0628\u0627\u062f", "addr:housenumber": "N5", "addr:street": "National Highway", "name": "Al Ramzan Service Station", "shop": "car_repair"}}, {"type": "node", "id": 5326935171, "lat": 25.4638617, "lon": 68.3901709}, {"type": "node", "id": 5326935190, "lat": 25.4802769, "lon": 68.4038403, "tags": {"addr:city": "\u062d\u06cc\u062f\u0631\u0622\u0628\u0627\u062f", "addr:city:en": "Hyderabad", "addr:city:fr": "Hyder\u00e2b\u00e2d", "addr:city:pa": "\u0a39\u0a48\u0a26\u0a30\u0a3e\u0a2c\u0a3e\u0a26", "addr:city:ur": "\u062d\u06cc\u062f\u0631\u0622\u0628\u0627\u062f", "addr:housenumber": "N5", "addr:street": "National Highway", "name": "Miran Shah Auto Repair", "shop": "car_repair"}}, {"type": "node", "id": 5333434019, "lat": 25.503537, "lon": 68.4659289, "tags": {"addr:city": "\u062d\u06cc\u062f\u0631\u0622\u0628\u0627\u062f", "addr:city:en": "Hyderabad", "addr:city:fr": "Hyder\u00e2b\u00e2d", "addr:city:pa": "\u0a39\u0a48\u0a26\u0a30\u0a3e\u0a2c\u0a3e\u0a26", "addr:city:ur": "\u062d\u06cc\u062f\u0631\u0622\u0628\u0627\u062f", "name": "Masu Bhurgri Sweets", "shop": "confectionery"}}, {"type": "node", "id": 5375747131, "lat": 25.3605256, "lon": 68.3603143, "tags": {"addr:city": "\u062d\u06cc\u062f\u0631\u0622\u0628\u0627\u062f", "addr:city:en": "Hyderabad", "addr:city:fr": "Hyder\u00e2b\u00e2d", "addr:city:pa": "\u0a39\u0a48\u0a26\u0a30\u0a3e\u0a2c\u0a3e\u0a26", "addr:city:ur": "\u062d\u06cc\u062f\u0631\u0622\u0628\u0627\u062f", "addr:housenumber": "F-7", "addr:place": "Latifabad 8", "addr:postcode": "7100", "facebook": "https://www.facebook.com/pg/MADRAS-JEWELLERS-1454684681459114/about/?ref=page_internal", "name": "Madras Jewelers", "shop": "jewelry"}}, {"type": "node", "id": 5522205623, "lat": 25.3887094, "lon": 68.3627043, "tags": {"addr:street": "Chandni Cinema Road", "email": "ciecomp85@gmail.com", "name": "CIE Computers", "opening_hours": "Sa-Th 13:00-22:00", "phone": "0222782511", "shop": "computer", "website": "https://cie-soft.com/"}}, {"type": "node", "id": 6069272987, "lat": 25.3804456, "lon": 68.5409841, "tags": {"name": "mango javed", "shop": "confectionery"}}, {"type": "node", "id": 6746926223, "lat": 25.3946026, "lon": 68.3752992, "tags": {"contact:facebook": "https://www.facebook.com/New-Cloth-Market-508287769271343/", "name": "New Cloth Market", "shop": "clothes"}}, {"type": "node", "id": 8336235088, "lat": 25.3935681, "lon": 68.3762384}, {"type": "node", "id": 8336235089, "lat": 25.3940112, "lon": 68.3758232}, {"type": "node", "id": 9481619655, "lat": 25.4539478, "lon": 68.3953381}, {"type": "node", "id": 9481619656, "lat": 25.4534925, "lon": 68.3947051}, {"type": "node", "id": 9481619657, "lat": 25.4533471, "lon": 68.3948982}, {"type": "node", "id": 9481619658, "lat": 25.4529209, "lon": 68.3955956}, {"type": "node", "id": 9481619659, "lat": 25.4533568, "lon": 68.3961749}, {"type": "node", "id": 9481638119, "lat": 25.4621624, "lon": 68.3918834}, {"type": "node", "id": 9481638120, "lat": 25.4618524, "lon": 68.3915186}, {"type": "node", "id": 9481638122, "lat": 25.4610194, "lon": 68.3905208}, {"type": "node", "id": 9481638123, "lat": 25.4608837, "lon": 68.3905154}, {"type": "node", "id": 9482056478, "lat": 25.4647412, "lon": 68.3922278}, {"type": "node", "id": 9482056479, "lat": 25.4644102, "lon": 68.3923999}, {"type": "node", "id": 9543040291, "lat": 25.4171454, "lon": 68.3788397}, {"type": "node", "id": 9543040292, "lat": 25.4172835, "lon": 68.3788773}, {"type": "node", "id": 9543040293, "lat": 25.4169322, "lon": 68.3794862}, {"type": "node", "id": 9543040294, "lat": 25.4167941, "lon": 68.3793923}, {"type": "node", "id": 9593521895, "lat": 25.4391233, "lon": 68.3818359}, {"type": "node", "id": 9593521896, "lat": 25.4391235, "lon": 68.3817224}, {"type": "node", "id": 9593521897, "lat": 25.4390507, "lon": 68.3816663}, {"type": "node", "id": 9593521898, "lat": 25.4390168, "lon": 68.3816502}, {"type": "node", "id": 9593521899, "lat": 25.4390119, "lon": 68.3816637}, {"type": "node", "id": 9593521900, "lat": 25.438995, "lon": 68.3816637}, {"type": "node", "id": 9593521901, "lat": 25.4389901, "lon": 68.3816449}, {"type": "node", "id": 9593521902, "lat": 25.4389614, "lon": 68.3816609}, {"type": "node", "id": 9593521903, "lat": 25.4389394, "lon": 68.3816718}, {"type": "node", "id": 9593521904, "lat": 25.4389058, "lon": 68.3816839}, {"type": "node", "id": 9593521905, "lat": 25.4388686, "lon": 68.381714}, {"type": "node", "id": 9593521906, "lat": 25.4388513, "lon": 68.3818225}, {"type": "node", "id": 9593521907, "lat": 25.4388557, "lon": 68.3818775}, {"type": "node", "id": 9593521908, "lat": 25.438871, "lon": 68.3818752}, {"type": "node", "id": 9593521909, "lat": 25.438891, "lon": 68.3818535}, {"type": "node", "id": 9593521910, "lat": 25.43893, "lon": 68.381855}, {"type": "node", "id": 9593521911, "lat": 25.4389331, "lon": 68.3818114}, {"type": "node", "id": 9593521912, "lat": 25.4390107, "lon": 68.3818112}, {"type": "node", "id": 9593521913, "lat": 25.4390214, "lon": 68.3818422}, {"type": "node", "id": 9608321437, "lat": 25.4615229, "lon": 68.3883686}, {"type": "node", "id": 9608321438, "lat": 25.461242, "lon": 68.3885992}, {"type": "node", "id": 9608321439, "lat": 25.460958, "lon": 68.3889414}, {"type": "node", "id": 9608321440, "lat": 25.4607407, "lon": 68.3891732}, {"type": "node", "id": 9608321441, "lat": 25.4603871, "lon": 68.3888728}, {"type": "node", "id": 9608321442, "lat": 25.4605736, "lon": 68.3873306}, {"type": "node", "id": 9608321443, "lat": 25.4612323, "lon": 68.3875478}, {"type": "node", "id": 9608321447, "lat": 25.4611984, "lon": 68.3900101}, {"type": "node", "id": 9608321453, "lat": 25.4612711, "lon": 68.3907128}, {"type": "node", "id": 9608321454, "lat": 25.4615084, "lon": 68.3901978}, {"type": "node", "id": 9608321456, "lat": 25.4624964, "lon": 68.3911044}, {"type": "node", "id": 9608321459, "lat": 25.4625013, "lon": 68.3918834}, {"type": "node", "id": 9608321460, "lat": 25.4619927, "lon": 68.3912332}, {"type": "node", "id": 9608321461, "lat": 25.461983, "lon": 68.3911849}, {"type": "node", "id": 9608321462, "lat": 25.4622155, "lon": 68.3906645}, {"type": "node", "id": 9608321463, "lat": 25.4625307, "lon": 68.3909223}, {"type": "node", "id": 9608321464, "lat": 25.4625956, "lon": 68.3911148}, {"type": "node", "id": 9608441642, "lat": 25.4624843, "lon": 68.3901496}, {"type": "node", "id": 9608441643, "lat": 25.4621162, "lon": 68.3893771}, {"type": "node", "id": 9608441644, "lat": 25.4619258, "lon": 68.389571}, {"type": "node", "id": 9608441647, "lat": 25.4624843, "lon": 68.3902461}, {"type": "node", "id": 9608441653, "lat": 25.4614015, "lon": 68.3884683}, {"type": "node", "id": 10168824692, "lat": 25.4636698, "lon": 68.3900773}, {"type": "node", "id": 10168824693, "lat": 25.4637739, "lon": 68.3903589}, {"type": "node", "id": 10578590013, "lat": 25.4622986, "lon": 68.3902718}, {"type": "node", "id": 10583315507, "lat": 25.4523491, "lon": 68.3830126}, {"type": "node", "id": 10583315508, "lat": 25.4523636, "lon": 68.3824654}, {"type": "node", "id": 10583315509, "lat": 25.4512495, "lon": 68.382267}, {"type": "node", "id": 10583315510, "lat": 25.4515353, "lon": 68.3829053}, {"type": "node", "id": 10685361848, "lat": 25.4533445, "lon": 68.3872559}, {"type": "node", "id": 10685361849, "lat": 25.4532427, "lon": 68.3876823}, {"type": "node", "id": 10685361850, "lat": 25.4531386, "lon": 68.3876716}, {"type": "node", "id": 10685361851, "lat": 25.4530659, "lon": 68.3871969}, {"type": "node", "id": 10685361853, "lat": 25.4621202, "lon": 68.3908777}, {"type": "node", "id": 10685381056, "lat": 25.4645489, "lon": 68.3928358}, {"type": "node", "id": 10685381057, "lat": 25.4647765, "lon": 68.3929431}, {"type": "node", "id": 10685381058, "lat": 25.4649049, "lon": 68.3930933}, {"type": "node", "id": 10685381061, "lat": 25.4653166, "lon": 68.3928787}, {"type": "node", "id": 10685381062, "lat": 25.4652052, "lon": 68.3931362}, {"type": "node", "id": 10685381063, "lat": 25.4650695, "lon": 68.3930665}, {"type": "node", "id": 10685381064, "lat": 25.4651761, "lon": 68.3928036}, {"type": "node", "id": 10904523158, "lat": 25.4643127, "lon": 68.3924298}, {"type": "node", "id": 10904523159, "lat": 25.464211, "lon": 68.3925961}, {"type": "node", "id": 10904523165, "lat": 25.4651845, "lon": 68.3925505}, {"type": "node", "id": 10904523166, "lat": 25.4649765, "lon": 68.3931179}, {"type": "node", "id": 10904523167, "lat": 25.4644023, "lon": 68.3927195}, {"type": "node", "id": 10908535275, "lat": 25.4617189, "lon": 68.3898134}, {"type": "node", "id": 10911345303, "lat": 25.3871455, "lon": 68.3670904, "tags": {"addr:city": "\u062d\u06cc\u062f\u0631\u0622\u0628\u0627\u062f", "addr:city:en": "Hyderabad", "addr:city:fr": "Hyder\u00e2b\u00e2d", "addr:city:pa": "\u0a39\u0a48\u0a26\u0a30\u0a3e\u0a2c\u0a3e\u0a26", "addr:city:ur": "\u062d\u06cc\u062f\u0631\u0622\u0628\u0627\u062f", "addr:street": "\u062d\u06cc\u062f\u0631 \u0686\u0648\u06a9", "brand": "Printing Agency", "name": "Seven Star Printers", "operator": "Murtuza", "payment:cash": "yes", "payment:cheque": "yes", "payment:credit_cards": "yes", "phone": "03421096230", "shop": "printing"}}, {"type": "node", "id": 11011281681, "lat": 25.3934306, "lon": 68.3754604}, {"type": "node", "id": 11107067637, "lat": 25.3675611, "lon": 68.3602761}, {"type": "node", "id": 11134020764, "lat": 25.4622442, "lon": 68.3902597}, {"type": "way", "id": 94402923, "nodes": [1096650304, 1096650323, 1096650363, 1096650311, 11107067637, 1096650316, 1096650376, 1096650304], "tags": {"landuse": "commercial", "name": "market", "shop": "mall"}}, {"type": "way", "id": 96688614, "nodes": [11011281681, 851167137, 851167139, 1119641300, 1119755331, 1119755323, 8336235088, 8336235089, 11011281681], "tags": {"landuse": "commercial", "name": "Cloth Market", "shop": "mall"}}, {"type": "way", "id": 490940624, "nodes": [4831072409, 4831072410, 4831072411, 4831072621, 4831072420, 4831072416, 4831072415, 4831072414, 4831072413, 4831072412, 4831072417, 4831072419, 4831072418, 4831072622, 4831072626, 4831072625, 4831072624, 4831072627, 4831072623, 4831072409], "tags": {"addr:city": "\u062d\u06cc\u062f\u0631\u0622\u0628\u0627\u062f", "addr:city:en": "Hyderabad", "addr:city:fr": "Hyder\u00e2b\u00e2d", "addr:city:pa": "\u0a39\u0a48\u0a26\u0a30\u0a3e\u0a2c\u0a3e\u0a26", "addr:city:ur": "\u062d\u06cc\u062f\u0631\u0622\u0628\u0627\u062f", "addr:street": "AUTOBHAN ROAD", "building": "yes", "facebook": "https://www.facebook.com/BoulevardMallHyderabad/", "name": "Boulevard Mall", "shop": "mall"}}, {"type": "way", "id": 491779910, "nodes": [4838654035, 4838654036, 4838654037, 4838654038, 4838654035], "tags": {"addr:city": "\u062d\u06cc\u062f\u0631\u0622\u0628\u0627\u062f", "addr:city:en": "Hyderabad", "addr:city:fr": "Hyder\u00e2b\u00e2d", "addr:city:pa": "\u0a39\u0a48\u0a26\u0a30\u0a3e\u0a2c\u0a3e\u0a26", "addr:city:ur": "\u062d\u06cc\u062f\u0631\u0622\u0628\u0627\u062f", "addr:street": "National Highway", "building": "yes", "name": "Arain Cattle Farm", "shop": "dairy"}}, {"type": "way", "id": 492607660, "nodes": [4845984893, 4845984894, 4845984895, 4845984896, 4845984893], "tags": {"addr:city": "\u062d\u06cc\u062f\u0631\u0622\u0628\u0627\u062f", "addr:city:en": "Hyderabad", "addr:city:fr": "Hyder\u00e2b\u00e2d", "addr:city:pa": "\u0a39\u0a48\u0a26\u0a30\u0a3e\u0a2c\u0a3e\u0a26", "addr:city:ur": "\u062d\u06cc\u062f\u0631\u0622\u0628\u0627\u062f", "addr:street": "Hyderabad Bypass", "building": "yes", "name": "Toyota", "shop": "car"}}, {"type": "way", "id": 1028447781, "nodes": [9481619655, 9481619656, 9481619657, 9481619658, 9481619659, 9481619655], "tags": {"building": "yes", "name": "Sindh Gas", "shop": "gas"}}, {"type": "way", "id": 1035770800, "nodes": [9543040291, 9543040292, 9543040293, 9543040294, 9543040291], "tags": {"building": "yes", "layer": "1", "name": "National Mart", "shop": "convenience"}}, {"type": "way", "id": 1042130058, "nodes": [9593521895, 9593521896, 9593521897, 9593521898, 9593521899, 9593521900, 9593521901, 9593521902, 9593521903, 9593521904, 9593521905, 1657195482, 9593521906, 9593521907, 9593521908, 9593521909, 9593521910, 9593521911, 9593521912, 9593521913, 9593521895], "tags": {"building": "yes", "shop": "yes"}}, {"type": "way", "id": 1044166722, "nodes": [9608321437, 9608441653, 9608321438, 9608321439, 9608321440, 9608321441, 9608321442, 9608321443, 9608321437], "tags": {"building": "yes", "shop": "repair"}}, {"type": "way", "id": 1044166727, "nodes": [9608321459, 9481638119, 9481638120, 9608321460, 9608321461, 10685361853, 9608321462, 9608321463, 9608321456, 9608321464, 9608321459], "tags": {"building": "yes", "shop": "repair"}}, {"type": "way", "id": 1044173005, "nodes": [9608441642, 9608441643, 9608441644, 10908535275, 11134020764, 10578590013, 9608441647, 9608441642], "tags": {"building": "yes", "shop": "repair"}}, {"type": "way", "id": 1111494425, "nodes": [10168824692, 5326935171, 10168824693, 10168824692], "tags": {"building": "yes", "shop": "car_repair"}}, {"type": "way", "id": 1134746358, "nodes": [9608321454, 9608321453, 9481638122, 9481638123, 9608321447, 9608321454], "tags": {"building": "yes", "shop": "car_repair"}}, {"type": "way", "id": 1135358990, "nodes": [10583315507, 10583315508, 10583315509, 10583315510, 10583315507], "tags": {"brand": "Suzuki", "brand:wikidata": "Q181642", "building": "yes", "name": "Suzuki Zeeshan Autos", "shop": "car"}}, {"type": "way", "id": 1148453198, "nodes": [10685361848, 10685361849, 10685361850, 10685361851, 10685361848], "tags": {"building": "yes", "shop": "car_repair"}}, {"type": "way", "id": 1148456951, "nodes": [10685381061, 10685381062, 10685381063, 10685381064, 10685381061], "tags": {"building": "yes", "name": "Big Bachat Super Mart", "shop": "convenience"}}, {"type": "way", "id": 1173593350, "nodes": [10904523165, 10904523166, 10685381058, 10685381057, 10685381056, 10904523167, 10904523159, 10904523158, 9482056479, 9482056478, 10904523165], "tags": {"building": "yes", "shop": "repair"}}]}