{"version": 0.6, "generator": "Overpass API 0.7.62.8 e802775f", "osm3s": {"timestamp_osm_base": "2025-11-29T17:21:01Z", "copyright": "The data included in this document is from www.openstreetmap.org. The data is made available under ODbL."}, "elements": [{"type": "node", "id": 266739258, "lat": 12.8667524, "lon": 77.6554073, "tags": {"shop": "furniture"}}, {"type": "node", "id": 266739259, "lat": 12.8656106, "lon": 77.6573594, "tags": {"name": "Jubilan Motors Audi Showroom", "shop": "car"}}, {"type": "node", "id": 266739262, "lat": 12.8625267, "lon": 77.6598533, "tags": {"brand": "Volvo", "brand:wikidata": "Q215293", "name": "Volvo Service Center", "shop": "car_repair"}}, {"type": "node", "id": 266739263, "lat": 12.8621083, "lon": 77.6601795, "tags": {"brand": "BMW", "brand:wikidata": "Q26678", "name": "Navneeth Motors BMW Showroom", "shop": "car"}}, {"type": "node", "id": 459513958, "lat": 12.8418258, "lon": 77.677408}, {"type": "node", "id": 459513959, "lat": 12.8424044, "lon": 77.6772265}, {"type": "node", "id": 731741251, "lat": 12.8762947, "lon": 77.6164979, "tags": {"name": "Mamata", "shop": "convenience"}}, {"type": "node", "id": 971918920, "lat": 12.7567819, "lon": 77.3755696, "tags": {"name": "Puncture Repair", "shop": "car_repair"}}, {"type": "node", "id": 1152805159, "lat": 12.8503578, "lon": 77.6573996, "tags": {"name": "Annapurna", "name:kn": "\u0c85\u0ca8\u0ccd\u0ca8\u0caa\u0cc2\u0cb0\u0ccd\u0ca3", "shop": "bakery"}}, {"type": "node", "id": 1192791296, "lat": 12.8425981, "lon": 77.6775154}, {"type": "node", "id": 1192791496, "lat": 12.8427864, "lon": 77.6774589}, {"type": "node", "id": 1465590356, "lat": 12.8737198, "lon": 77.6448305, "tags": {"addr:street": "Manipal County Road", "name": "Store", "shop": "convenience"}}, {"type": "node", "id": 1466635916, "lat": 12.8699279, "lon": 77.5923831}, {"type": "node", "id": 1466635918, "lat": 12.8697714, "lon": 77.5923296}, {"type": "node", "id": 1466635920, "lat": 12.8698005, "lon": 77.5927754}, {"type": "node", "id": 1466635922, "lat": 12.8696439, "lon": 77.5927219}, {"type": "node", "id": 1466794880, "lat": 12.6797483, "lon": 77.4697224, "tags": {"shop": "bakery"}}, {"type": "node", "id": 1470844858, "lat": 12.8737637, "lon": 77.6453401, "tags": {"name": "Family Food Choice", "shop": "convenience"}}, {"type": "node", "id": 1470845581, "lat": 12.8759127, "lon": 77.6397852, "tags": {"name": "Day To Day", "shop": "convenience"}}, {"type": "node", "id": 1472032408, "lat": 12.8778195, "lon": 77.6472592, "tags": {"name": "Force Motors", "shop": "car"}}, {"type": "node", "id": 1472032985, "lat": 12.8761746, "lon": 77.6476656, "tags": {"brand": "Hero", "brand:wikidata": "Q1613763", "name": "Hero", "shop": "motorcycle", "wheelchair": "no"}}, {"type": "node", "id": 1472052980, "lat": 12.876702, "lon": 77.6391483, "tags": {"name": "Tyre Puncture", "shop": "car_repair"}}, {"type": "node", "id": 1472054098, "lat": 12.8766211, "lon": 77.6391908, "tags": {"name": "Hardware Electricals", "shop": "hardware"}}, {"type": "node", "id": 1472212558, "lat": 12.8780028, "lon": 77.638532, "tags": {"name": "Fathima food choice", "shop": "convenience"}}, {"type": "node", "id": 1472212560, "lat": 12.8778841, "lon": 77.6386301, "tags": {"name": "chicken", "shop": "butcher"}}, {"type": "node", "id": 1473298105, "lat": 12.8779361, "lon": 77.6385812, "tags": {"name": "gents saloon", "shop": "hairdresser"}}, {"type": "node", "id": 1473298166, "lat": 12.8740614, "lon": 77.6462636, "tags": {"name": "store,mess", "shop": "convenience"}}, {"type": "node", "id": 1474112148, "lat": 12.874931, "lon": 77.648874, "tags": {"name": "SMS Electronics", "shop": "electronics"}}, {"type": "node", "id": 1586948313, "lat": 12.841522, "lon": 77.6475948, "tags": {"addr:city": "Bangalore", "addr:housenumber": "156", "addr:postcode": "560100", "addr:street": "Neeladri Road", "brand": "Nilgiri's", "brand:wikidata": "Q17079567", "name": "Nilgiri's", "name:kn": "\u0ca8\u0cc0\u0cb2\u0ccd\u0c97\u0cbf\u0cb0\u0cc0\u0cb8\u0ccd", "phone": "+918028520696", "shop": "supermarket", "website": "https://www.nilgiris1905.com/"}}, {"type": "node", "id": 1586948315, "lat": 12.8448975, "lon": 77.6656501, "tags": {"name": "Printo", "shop": "copyshop", "website": "https://printo.in/"}}, {"type": "node", "id": 1596076531, "lat": 12.848737, "lon": 77.6575794, "tags": {"brand": "Just Bake", "brand:wikidata": "Q124374121", "delivery": "yes", "name": "Just Bake", "shop": "pastry", "takeaway": "yes"}}, {"type": "node", "id": 1596076612, "lat": 12.8396213, "lon": 77.661501, "tags": {"information": "office", "name": "KSRTC Booking House", "opening_hours": "Mo-Fr 08:30-20:00", "phone": "+919900521547", "shop": "travel_agency"}}, {"type": "node", "id": 1597840718, "lat": 12.8401731, "lon": 77.663153, "tags": {"name": "Oven Fresh Bakery", "shop": "bakery"}}, {"type": "node", "id": 1670136977, "lat": 12.8489938, "lon": 77.6575602, "tags": {"addr:housename": "SJR Equinox Commercial Complex", "name": "Benzo, Salon and Spa", "shop": "hairdresser"}}, {"type": "node", "id": 1772566617, "lat": 12.840586, "lon": 77.6512633, "tags": {"name": "Four Points", "shop": "supermarket"}}, {"type": "node", "id": 1782809667, "lat": 12.8423491, "lon": 77.6518198, "tags": {"name": "Daily Fresh Supermarket", "shop": "convenience"}}, {"type": "node", "id": 1860905184, "lat": 12.8507475, "lon": 77.6551985, "tags": {"name": "Mathaji Jewellers", "shop": "jewelry"}}, {"type": "node", "id": 1860905185, "lat": 12.8509018, "lon": 77.654941, "tags": {"name": "Prakash Bakery", "shop": "bakery"}}, {"type": "node", "id": 1867682290, "lat": 12.8391693, "lon": 77.6575573, "tags": {"name": "Bakery", "shop": "bakery"}}, {"type": "node", "id": 1867689264, "lat": 12.8378668, "lon": 77.6559722, "tags": {"brand": "More", "brand:wikidata": "Q6910891", "name": "More", "shop": "supermarket"}}, {"type": "node", "id": 1906481659, "lat": 12.5848066, "lon": 77.6542003, "tags": {"shop": "bakery"}}, {"type": "node", "id": 1990609265, "lat": 12.8723464, "lon": 77.5392912}, {"type": "node", "id": 1990609271, "lat": 12.8717804, "lon": 77.5418902}, {"type": "node", "id": 1990609336, "lat": 12.8719306, "lon": 77.5389532}, {"type": "node", "id": 1990609337, "lat": 12.8712809, "lon": 77.5416649}, {"type": "node", "id": 2322728639, "lat": 12.8761976, "lon": 77.5954434, "tags": {"brand": "Crom\u0101", "brand:wikidata": "Q5187683", "name": "Crom\u0101", "shop": "electronics", "website": "http://www.cromaretail.com/"}}, {"type": "node", "id": 2322728640, "lat": 12.876118, "lon": 77.5953397, "tags": {"name": "HyperCITY", "shop": "supermarket", "website": "http://www.hypercityindia.com/", "wheelchair": "no"}}, {"type": "node", "id": 2339552995, "lat": 12.8759179, "lon": 77.6167938, "tags": {"addr:housename": "Ample Mart", "addr:postcode": "560068", "addr:street": "Akshayanagar", "designation": "Supermarket", "name": "Ample Mart", "shop": "supermarket", "source": "Survey"}}, {"type": "node", "id": 2399252312, "lat": 12.8388772, "lon": 77.6601784, "tags": {"name": "More", "name:kn": "\u0cae\u0ccb\u0cb0\u0ccd", "shop": "convenience"}}, {"type": "node", "id": 2565850075, "lat": 12.8623888, "lon": 77.6611422}, {"type": "node", "id": 2565850076, "lat": 12.8625039, "lon": 77.6614947}, {"type": "node", "id": 2565850077, "lat": 12.8614798, "lon": 77.6613088}, {"type": "node", "id": 2565850078, "lat": 12.8615133, "lon": 77.6609114}, {"type": "node", "id": 2565850079, "lat": 12.8620639, "lon": 77.6614555}, {"type": "node", "id": 2577010129, "lat": 12.8552741, "lon": 77.6646183, "tags": {"name": "Computerised Keys Locksmith", "phone": "+91-9036364846", "shop": "doityourself"}}, {"type": "node", "id": 2615930890, "lat": 12.8744077, "lon": 77.6404596, "tags": {"name": "Family Food Choice", "shop": "convenience"}}, {"type": "node", "id": 2623054549, "lat": 12.8411245, "lon": 77.6500321, "tags": {"addr:city": "Bangalore", "addr:housename": "Above Sandesh Sweets", "addr:postcode": "560100", "addr:street": "Neeladri Road", "name": "Green Trends", "opening_hours": "10:00-21:00", "phone": "080-30805941", "shop": "beauty", "website": "https://www.mygreentrends.in/"}}, {"type": "node", "id": 2647643921, "lat": 12.8395219, "lon": 77.6593863, "tags": {"name": "Lakme Beauty Salon", "shop": "hairdresser"}}, {"type": "node", "id": 2649378042, "lat": 12.8417635, "lon": 77.6462476, "tags": {"addr:city": "Bangalore", "addr:postcode": "560100", "addr:street": "Neeladri Road", "name": "Village Supermarket", "operator": "Village", "shop": "supermarket"}}, {"type": "node", "id": 2697715021, "lat": 12.8480187, "lon": 77.6624513, "tags": {"name": "Titan Eye Plus", "shop": "optician"}}, {"type": "node", "id": 2697716923, "lat": 12.8441734, "lon": 77.6655818}, {"type": "node", "id": 2697716924, "lat": 12.8441734, "lon": 77.6656855}, {"type": "node", "id": 2697716962, "lat": 12.8444235, "lon": 77.6655818}, {"type": "node", "id": 2697716963, "lat": 12.8444235, "lon": 77.6656855}, {"type": "node", "id": 2866032636, "lat": 12.8767642, "lon": 77.5840493, "tags": {"name": "Thirumala Flour Mill", "shop": "flour_mill"}}, {"type": "node", "id": 3421574813, "lat": 12.8586922, "lon": 77.5279226}, {"type": "node", "id": 3421574814, "lat": 12.8587972, "lon": 77.5275156}, {"type": "node", "id": 3421574815, "lat": 12.8594093, "lon": 77.5276869}, {"type": "node", "id": 3421574816, "lat": 12.8599593, "lon": 77.5287447}, {"type": "node", "id": 3421574817, "lat": 12.8601304, "lon": 77.5277035}, {"type": "node", "id": 3535272804, "lat": 12.864034, "lon": 77.5993151}, {"type": "node", "id": 3535272805, "lat": 12.8640431, "lon": 77.5991248}, {"type": "node", "id": 3535272813, "lat": 12.8641595, "lon": 77.5993214}, {"type": "node", "id": 3535272815, "lat": 12.8641686, "lon": 77.5991311}, {"type": "node", "id": 3537392374, "lat": 12.8551544, "lon": 77.6690972}, {"type": "node", "id": 3537392377, "lat": 12.8551629, "lon": 77.6690335}, {"type": "node", "id": 3537392417, "lat": 12.8552504, "lon": 77.6691106}, {"type": "node", "id": 3537392426, "lat": 12.8552588, "lon": 77.669047}, {"type": "node", "id": 3553860482, "lat": 12.8793251, "lon": 77.5966692}, {"type": "node", "id": 3553860483, "lat": 12.879393, "lon": 77.5964963}, {"type": "node", "id": 3553860484, "lat": 12.8795804, "lon": 77.5967746}, {"type": "node", "id": 3553860485, "lat": 12.8796482, "lon": 77.5966016}, {"type": "node", "id": 3610624033, "lat": 12.8005511, "lon": 77.5766102, "tags": {"shop": "ticket"}}, {"type": "node", "id": 3633415010, "lat": 12.8510281, "lon": 77.6523132, "tags": {"name": "Cake's and Bake's, Iyengar's Bakery", "shop": "bakery"}}, {"type": "node", "id": 3633415012, "lat": 12.8488985, "lon": 77.6575788, "tags": {"name": "Fernsnpetals", "shop": "florist"}}, {"type": "node", "id": 3633415037, "lat": 12.8484849, "lon": 77.6550459, "tags": {"shop": "tailor"}}, {"type": "node", "id": 3633415039, "lat": 12.8494061, "lon": 77.6551636, "tags": {"shop": "pet"}}, {"type": "node", "id": 3633415081, "lat": 12.8507414, "lon": 77.6539943, "tags": {"shop": "greengrocer"}}, {"type": "node", "id": 3633415082, "lat": 12.8507414, "lon": 77.6540127, "tags": {"shop": "greengrocer"}}, {"type": "node", "id": 3633415794, "lat": 12.8510276, "lon": 77.6523691, "tags": {"shop": "hairdresser"}}, {"type": "node", "id": 3633415795, "lat": 12.8488983, "lon": 77.6575628, "tags": {"name": "SSK White Collar", "opening_hours": "Mo-Su 09:30-20:00; We off", "phone": "+91 80 32548951", "shop": "dry_cleaning", "website": "http://www.sskwhitecollar.in"}}, {"type": "node", "id": 3633415796, "lat": 12.850939, "lon": 77.6532339, "tags": {"name": "Sathwika", "shop": "hairdresser"}}, {"type": "node", "id": 3633415797, "lat": 12.8487517, "lon": 77.6550352, "tags": {"name": "Smart Look", "name:kn": "\u0cb8\u0ccd\u0cae\u0cbe\u0cb0\u0ccd\u0c9f\u0ccd \u0cb2\u0cc1\u0c95\u0ccd\u0cb8\u0ccd", "shop": "hairdresser"}}, {"type": "node", "id": 3633415799, "lat": 12.8509264, "lon": 77.653502, "tags": {"addr:street": "Bettadasanapura Road", "name": "Sunshine Supermarket", "shop": "supermarket"}}, {"type": "node", "id": 3633415800, "lat": 12.8477628, "lon": 77.6579328, "tags": {"brand": "Sweet Chariot", "delivery": "yes", "name": "Sweet Chariot", "name:kn": "\u0cb8\u0ccd\u0cb5\u0cc0\u0c9f\u0ccd \u0c9a\u0cbe\u0cb0\u0cbf\u0caf\u0c9f\u0ccd", "shop": "pastry", "takeaway": "yes"}}, {"type": "node", "id": 3870431434, "lat": 12.8620757, "lon": 77.6153665}, {"type": "node", "id": 3870431435, "lat": 12.8623775, "lon": 77.6153675}, {"type": "node", "id": 3870431436, "lat": 12.862377, "lon": 77.6155368}, {"type": "node", "id": 3870431437, "lat": 12.8620752, "lon": 77.6155358}, {"type": "node", "id": 3936088379, "lat": 12.8522559, "lon": 77.6678162, "tags": {"name": "Amba Bajaj", "shop": "motorcycle"}}, {"type": "node", "id": 3968670272, "lat": 12.8771837, "lon": 77.6391315, "tags": {"addr:city": "Singasandra", "addr:postcode": "560068", "addr:street": "Manipal County Road", "opening_hours": "09:00-20:00", "shop": "hardware"}}, {"type": "node", "id": 4140612077, "lat": 12.87924, "lon": 77.6383068, "tags": {"name": "Magizh Groceries", "shop": "supermarket"}}, {"type": "node", "id": 4333622801, "lat": 12.8766877, "lon": 77.584049, "tags": {"name": "Sri Basaveshwara Cycle Mart", "service:bicycle:pump": "yes", "service:bicycle:repair": "yes", "shop": "bicycle"}}, {"type": "node", "id": 4406358689, "lat": 12.5658399, "lon": 77.4424316, "tags": {"name": "Ganesh Store", "name:en": "ganesh store", "shop": "bookmaker"}}, {"type": "node", "id": 4440825591, "lat": 12.8616662, "lon": 77.5998009, "tags": {"name": "Medplu", "operator": "Medplus", "shop": "medical_supply"}}, {"type": "node", "id": 4440825592, "lat": 12.8616489, "lon": 77.599633, "tags": {"name": "Thirumala Medical Store", "operator": "Thirumala Medical Store", "shop": "medical_supply"}}, {"type": "node", "id": 4445406542, "lat": 12.875504, "lon": 77.5953765, "tags": {"addr:city": "Bangalore", "addr:housenumber": "Balmuri Main Road, Hulimavu", "addr:postcode": "560076", "addr:street": "Bannerghatta Road", "brand": "Nike", "brand:wikidata": "Q483915", "level": "0", "name": "Nike", "name:kn": "\u0ca8\u0cc8\u0c95\u0ccd", "opening_hours": "11:00-21:30", "phone": "+918067080241", "shop": "clothes", "website": "https://www.nike.ssiplgroup.com"}}, {"type": "node", "id": 4445423271, "lat": 12.8756086, "lon": 77.5953765, "tags": {"addr:city": "Bangalore", "addr:housenumber": "Balmuri Main Road, Hulimavu", "addr:postcode": "560076", "addr:street": "Bannerghatta Road", "level": "1", "name": "wild craft", "opening_hours": "11:00-21:30", "phone": "080 67080255", "shop": "bag", "website": "https://www.wildcraft.in/"}}, {"type": "node", "id": 4445473461, "lat": 12.877055, "lon": 77.5953965, "tags": {"addr:city": "Bangalore", "addr:housenumber": "Balmuri Main Road, Hulimavu", "addr:postcode": "560076", "addr:street": "Bannerghatta Road", "amenity": "ice_cream", "brand": "Baskin-Robbins", "brand:wikidata": "Q584601", "cuisine": "ice_cream", "delivery": "yes", "description": "icecream parlour", "level": "0", "name": "Baskin-Robbins", "name:kn": "\u0cac\u0cb8\u0ccd\u0c95\u0cbf\u0ca8\u0ccd \u0cb0\u0cbe\u0cac\u0cbf\u0ca8\u0ccd\u0cb8\u0ccd", "opening_hours": "11:00-21:30", "phone": "+918861323147", "shop": "bakery", "smoking": "no", "takeaway": "yes", "website": "https://www.baskinrobbinsindia.com/"}}, {"type": "node", "id": 4445479312, "lat": 12.8759903, "lon": 77.5954284, "tags": {"addr:city": "Bangalore", "addr:housenumber": "Balmuri Main Road, Hulimavu", "addr:postcode": "560076", "addr:street": "Bannerghatta Road", "brand": "Metro", "brand:wikidata": "Q16938284", "level": "1", "name": "Metro", "name:kn": "\u0cae\u0cc6\u0c9f\u0ccd\u0cb0\u0ccb", "opening_hours": "11:00-21:30", "phone": "+918025125120", "shop": "shoes", "website": "https://www.metroshoes.net/"}}, {"type": "node", "id": 4445846940, "lat": 12.8760834, "lon": 77.5954874, "tags": {"addr:city": "Bangalore", "addr:housenumber": "Balmuri Main Road, Hulimavu", "addr:postcode": "560076", "addr:street": "Bannerghatta Road", "brand": "Woodland", "brand:wikidata": "Q123068491", "level": "1", "name": "Woodland", "opening_hours": "10:00-21:30", "phone": "08067080220", "shop": "shoes", "website": "https://www.woodlandworldwide.com/"}}, {"type": "node", "id": 4445853881, "lat": 12.8761671, "lon": 77.5955652, "tags": {"addr:city": "Bangalore", "addr:housenumber": "Balmuri Main Road, Hulimavu,", "addr:postcode": "560076", "addr:street": "Bannerghatta Road", "brand": "Samsung", "brand:wikidata": "Q20718", "level": "0", "name": "Samsung", "name:kn": "\u0cb8\u0ccd\u0caf\u0cbe\u0cae\u0ccd\u200c\u0cb8\u0c82\u0c97\u0ccd", "opening_hours": "10:00-21:30", "phone": "+918067080229", "shop": "electronics", "website": "https://www.samsung.com/"}}, {"type": "node", "id": 4445862197, "lat": 12.8762142, "lon": 77.5956644, "tags": {"addr:city": "Bangalore", "addr:housenumber": "Balmuri Main Road, Hulimavu", "addr:postcode": "560076", "addr:street": "Bannerghatta Road", "level": "2", "name": "Sangeetha", "name:kn": "\u0cb8\u0c82\u0c97\u0cc0\u0ca4", "opening_hours": "10:00-21:30", "phone": "+917847888283", "shop": "electronics", "website": "https://www.sangeethamobiles.com/"}}, {"type": "node", "id": 4445869470, "lat": 12.8762037, "lon": 77.5957797, "tags": {"addr:city": "Bangalore", "addr:housenumber": "Balmuri Main Road, Hulimavu", "addr:postcode": "560076", "addr:street": "Bannerghatta Road", "name": "Allen Solly", "name:kn": "\u0c85\u0cb2\u0cc6\u0ca8\u0ccd \u0cb8\u0cca\u0cb2\u0cbf", "opening_hours": "10:00-21:30", "phone": "+918067080182", "shop": "clothes", "website": "https://www.allensolly.com/"}}, {"type": "node", "id": 4445878781, "lat": 12.8761932, "lon": 77.595879, "tags": {"addr:city": "Bangalore", "addr:housenumber": "Balmuri Main Road, Hulimavu", "addr:postcode": "560076", "addr:street": "Bannerghatta Road", "level": "2", "name": "Fab India", "opening_hours": "10:00-21:30", "phone": "+918025125012", "shop": "clothes", "website": "https://www.fabindia.com/"}}, {"type": "node", "id": 4447345728, "lat": 12.8725257, "lon": 77.5667017, "tags": {"addr:city": "bangalore", "addr:housenumber": "3", "addr:postcode": "560062", "addr:street": ",shop No 3,sun Complex, Circle, Anjanapura post,&nbsp;J P, Avalahalii, JP Nagar 9th Phase, JP Nagar", "name": "Sri Nidhi Medicals", "phone": "+9198459 87349", "shop": "medical_supply", "source": "justdial"}}, {"type": "node", "id": 4447351331, "lat": 12.8762429, "lon": 77.5953023, "tags": {"addr:city": "Bangalore", "addr:housenumber": "Balmuri Main Road, Hulimavu", "addr:postcode": "560076", "addr:street": "Bannerghatta Road", "level": "1", "name": "hanes", "opening_hours": "11:00-21:30", "phone": "080670 80230", "shop": "clothes", "website": "https://www.hanes.com/"}}, {"type": "node", "id": 4447372958, "lat": 12.8761932, "lon": 77.5959662, "tags": {"addr:city": "Bangalore", "addr:housenumber": "Balmuri Main Road, Hulimavu", "addr:postcode": "560076", "addr:street": "Bannerghatta Road", "name": "jockey", "opening_hours": "10:00-21:30", "phone": "8067080225", "shop": "clothes", "website": "https://www.jockeyindia.com/"}}, {"type": "node", "id": 4447377449, "lat": 12.8762903, "lon": 77.5960641, "tags": {"addr:city": "Bangalore", "addr:housenumber": "Balmuri Main Road, Hulimavu", "addr:postcode": "560076", "addr:street": "Bannerghatta Road", "level": "1", "name": "Lee", "opening_hours": "10:00-21:30", "phone": "080 2512 5016", "shop": "clothes", "website": "https://lee.in/"}}, {"type": "node", "id": 4447380144, "lat": 12.8761282, "lon": 77.595946, "tags": {"addr:city": "Bangalore", "addr:housenumber": "Balmuri Main Road, Hulimavu", "addr:postcode": "560076", "addr:street": "Bannerghatta Road", "brand": "Levi's", "brand:wikidata": "Q127962", "clothes": "denim;men;women", "name": "Levi's", "name:kn": "\u0cb2\u0cc6\u0cb5\u0cbf\u0cb8\u0ccd", "opening_hours": "10:00-21:30", "phone": "9916592936", "shop": "clothes", "website": "https://www.levi.in/"}}, {"type": "node", "id": 4447381891, "lat": 12.8761125, "lon": 77.5960185, "tags": {"addr:city": "Bangalore", "addr:housenumber": "Balmuri Main Road, Hulimavu", "addr:postcode": "560076", "addr:street": "Bannerghatta Road", "level": "2", "name": "liberty silks", "opening_hours": "10:00-21:30", "phone": "8067080286", "shop": "clothes"}}, {"type": "node", "id": 4447384389, "lat": 12.8760994, "lon": 77.5956161, "tags": {"addr:city": "Bangalore", "addr:housenumber": "Balmuri Main Road, Hulimavu,", "addr:postcode": "560076", "addr:street": "Bannerghatta Road", "level": "0", "name": "Louis Phillipe", "opening_hours": "10:00-21:30", "phone": "08067080183", "shop": "clothes", "website": "https://www.louisphilippe.com"}}, {"type": "node", "id": 4447395895, "lat": 12.8761282, "lon": 77.5956939, "tags": {"addr:city": "Bangalore", "addr:housenumber": "Balmuri Main Road, Hulimavu,", "addr:postcode": "560076", "addr:street": "Bannerghatta Road", "name": "Mother Earth", "opening_hours": "10:00-21:30", "phone": "080 6539 3999", "shop": "clothes", "website": "www.motherearth.co.in"}}, {"type": "node", "id": 4447395896, "lat": 12.8760524, "lon": 77.5955732, "tags": {"addr:city": "Bangalore", "addr:housenumber": "Balmuri Main Road, Hulimavu,", "addr:postcode": "560076", "addr:street": "Bannerghatta Road", "level": "0", "name": "Mother Earth", "opening_hours": "10:00-21:30", "phone": "080 6539 3999", "shop": "clothes", "website": "www.motherearth.co.in"}}, {"type": "node", "id": 4447397235, "lat": 12.8760001, "lon": 77.5955142, "tags": {"addr:city": "Bangalore", "addr:housenumber": "Balmuri Main Road, Hulimavu", "addr:postcode": "560076", "addr:street": "Bannerghatta Road", "level": "1", "name": "Peter England", "name:kn": "\u0caa\u0cc0\u0c9f\u0cb0\u0ccd \u0c87\u0c82\u0c97\u0ccd\u0cb2\u0cc6\u0c82\u0ca1\u0ccd", "opening_hours": "10:00-21:30", "phone": "080-67080161", "shop": "clothes", "website": "https://www.peterengland.com"}}, {"type": "node", "id": 4447398762, "lat": 12.8761308, "lon": 77.5958361, "tags": {"addr:city": "Bangalore", "addr:housenumber": "Balmuri Main Road, Hulimavu", "addr:postcode": "560076", "addr:street": "Bannerghatta Road", "level": "1", "name": "UCB", "opening_hours": "10:00-21:30", "phone": "9986011137", "shop": "clothes", "website": "https://world.benetton.com"}}, {"type": "node", "id": 4447402860, "lat": 12.8761073, "lon": 77.5961821, "tags": {"addr:city": "Bangalore", "addr:housenumber": "Balmuri Main Road, Hulimavu", "addr:postcode": "560076", "addr:street": "Bannerghatta Road", "level": "2", "name": "show off", "opening_hours": "10:00-21:30", "phone": "8067080222", "shop": "clothes"}}, {"type": "node", "id": 4447422127, "lat": 12.8760888, "lon": 77.5961161, "tags": {"addr:city": "Bangalore", "addr:housenumber": "Balmuri Main Road, Hulimavu", "addr:postcode": "560076", "addr:street": "Bannerghatta Road", "name": "Van Huesen", "opening_hours": "10:00-21:30", "phone": "8067080181", "shop": "clothes", "website": "https://www.vanheusenindia.com/"}}, {"type": "node", "id": 4447439589, "lat": 12.8759384, "lon": 77.5960999, "tags": {"addr:city": "Bangalore", "addr:housenumber": "Balmuri Main Road, Hulimavu,", "addr:postcode": "560076", "addr:street": "Bannerghatta Road", "level": "2", "name": "w", "opening_hours": "10:00-21:30", "phone": "8067080227", "shop": "clothes", "website": "https://www.wforwoman.com/"}}, {"type": "node", "id": 4447514124, "lat": 12.8759894, "lon": 77.5955735, "tags": {"addr:city": "Bangalore", "addr:housenumber": "Balmuri Main Road, Hulimavu", "addr:postcode": "560076", "addr:street": "Bannerghatta Road", "level": "1", "name": "Wrangler", "name:kn": "\u0cb0\u0cbe\u0c82\u0c97\u0ccd\u0cb2\u0cb0\u0ccd", "opening_hours": "10:00-21:30", "phone": "080670 80257", "shop": "clothes", "website": "https://www.wrangler.com/"}}, {"type": "node", "id": 4447519985, "lat": 12.8759398, "lon": 77.5955547, "tags": {"addr:city": "Bangalore", "addr:housenumber": "Balmuri Main Road, Hulimavu", "addr:postcode": "560076", "addr:street": "Bannerghatta Road", "brand": "U.S. Polo Assn.", "brand:wikidata": "Q7863282", "level": "1", "name": "U.S. Polo Assn.", "opening_hours": "10:00-21:30", "phone": "8067080121", "shop": "clothes", "website": "https://www.uspolo.org"}}, {"type": "node", "id": 4447574885, "lat": 12.8760612, "lon": 77.5958575, "tags": {"addr:city": "Bangalore", "addr:housenumber": "Balmuri Main Road, Hulimavu", "addr:postcode": "560076", "addr:street": "Bannerghatta Road", "level": "1", "name": "VIP lounge", "opening_hours": "10:00-21:30", "phone": "8067080264", "shop": "bag", "website": "https://www.vipbags.com/"}}, {"type": "node", "id": 4447581393, "lat": 12.8760769, "lon": 77.5959487, "tags": {"addr:city": "Bangalore", "addr:housenumber": "Balmuri Main Road, Hulimavu", "addr:postcode": "560076", "addr:street": "Bannerghatta Road", "brand": "Biba", "brand:wikidata": "Q4902942", "level": "2", "name": "Biba", "opening_hours": "10:00-21:30", "phone": "080670 80020", "shop": "clothes", "website": "https://www.biba.in/"}}, {"type": "node", "id": 4447586738, "lat": 12.8761109, "lon": 77.5958548, "tags": {"addr:city": "Bangalore", "addr:housenumber": "Balmuri Main Road, Hulimavu", "addr:postcode": "560076", "addr:street": "Bannerghatta Road", "level": "0", "name": "shopper stop", "opening_hours": "10:00-21:30", "phone": "8046658301", "shop": "clothes", "website": "https://www.shoppersstop.com"}}, {"type": "node", "id": 4448660601, "lat": 12.8755356, "lon": 77.5954471, "tags": {"addr:city": "Bangalore", "addr:housenumber": "Balmuri Main Road", "addr:postcode": "560076", "addr:street": "Bannerghatta Road", "level": "1", "name": "eye sense", "opening_hours": "10:00-21:30", "phone": "098445 01111", "shop": "optician", "website": "https://www.eyesense.in/"}}, {"type": "node", "id": 4448660620, "lat": 12.8755644, "lon": 77.5956483, "tags": {"addr:city": "Bangalore", "addr:housenumber": "Balmuri Main Road", "addr:postcode": "560076", "addr:street": "Bannerghatta Road", "level": "3", "name": "travel vacation", "opening_hours": "10:00-21:30", "phone": "080670 80100", "shop": "travel_agency"}}, {"type": "node", "id": 4448661878, "lat": 12.8756821, "lon": 77.5954793, "tags": {"addr:city": "Bangalore", "addr:housenumber": "Balmuri Main Road", "addr:postcode": "560076", "addr:street": "Bannerghatta Road", "level": "1", "name": "Swagger", "opening_hours": "10:00-21:30", "phone": "8025125099", "shop": "clothes"}}, {"type": "node", "id": 4448670452, "lat": 12.8756925, "lon": 77.5958039, "tags": {"addr:city": "Bangalore", "addr:housenumber": "Balmuri Main Road", "addr:postcode": "560076", "addr:street": "Bannerghatta Road", "brand": "Max", "brand:wikidata": "Q24939079", "level": "1", "name": "Max", "opening_hours": "10:00-21:30", "phone": "8067080000", "shop": "clothes", "website": "http://www.maxfashionindia.com/"}}, {"type": "node", "id": 4448671062, "lat": 12.8757945, "lon": 77.595879, "tags": {"addr:city": "Bangalore", "addr:housenumber": "Balmuri Main Road", "addr:postcode": "560076", "addr:street": "Bannerghatta Road", "brand": "Reliance Trends", "level": "1", "name": "Reliance trends", "opening_hours": "10:00-21:30", "phone": "8067080235", "shop": "clothes", "website": "https://www.reliancetrends.com/"}}, {"type": "node", "id": 4448671579, "lat": 12.8758886, "lon": 77.5959889, "tags": {"addr:city": "Bangalore", "addr:housenumber": "Balmuri Main Road", "addr:postcode": "560076", "addr:street": "Bannerghatta Road", "level": "2", "name": "affinity salon", "opening_hours": "10:00-21:30", "phone": "8067080199", "shop": "beauty", "website": "https://affinitysalon.com/"}}, {"type": "node", "id": 4448672308, "lat": 12.8759645, "lon": 77.5957985, "tags": {"addr:city": "Bangalore", "addr:housenumber": "Balmuri Main Road", "addr:postcode": "560076", "addr:street": "Bannerghatta Road", "level": "1", "name": "Body Shop", "opening_hours": "10:00-21:30", "phone": "8067080261", "shop": "beauty", "website": "https://www.thebodyshop.in/"}}, {"type": "node", "id": 4448673212, "lat": 12.8757997, "lon": 77.595769, "tags": {"addr:city": "Bangalore", "addr:housenumber": "Balmuri Main Road,", "addr:postcode": "560076", "addr:street": "Bannerghatta Road", "level": "2", "name": "Health And Glow", "opening_hours": "10:00-21:30", "phone": "080670 80100", "shop": "cosmetics", "website": "www.healthandglow.in"}}, {"type": "node", "id": 4448675649, "lat": 12.8757788, "lon": 77.5956322, "tags": {"addr:city": "Bangalore", "addr:housenumber": "Balmuri Main Road", "addr:postcode": "560076", "addr:street": "Bannerghatta Road", "level": "0", "name": "new U", "opening_hours": "10:00-21:30", "phone": "O8067080100", "shop": "cosmetics", "website": "https://www.newu.in/"}}, {"type": "node", "id": 4448676192, "lat": 12.8757108, "lon": 77.5956993, "tags": {"addr:city": "Bangalore", "addr:housenumber": "Balmuri Main Road", "addr:postcode": "560076", "addr:street": "Bannerghatta Road", "level": "2", "name": "home stop", "opening_hours": "10:00-21:30", "phone": "0804340 1500", "shop": "clothes", "website": "https://www.shoppersstop.com/"}}, {"type": "node", "id": 4487971422, "lat": 12.8758755, "lon": 77.5958084, "tags": {"addr:city": "Bangalore", "addr:postcode": "560076", "addr:street": "Bannerghatta Road", "name": "Hypercity Retail India Pvt Ltd", "phone": "18002097172", "shop": "supermarket"}}, {"type": "node", "id": 4488027413, "lat": 12.8405937, "lon": 77.65114, "tags": {"addr:city": "Bangalore", "addr:postcode": "560100", "addr:street": "Concorde Anthuriums Building, Electronic City, Near Wipro Gate No.16", "name": "Four Point Supermarket", "phone": "+9180-28522666", "shop": "supermarket"}}, {"type": "node", "id": 4488188427, "lat": 12.8545053, "lon": 77.6651751, "tags": {"addr:city": "Bangalore", "addr:housenumber": "78/2", "addr:postcode": "560068", "addr:street": "Hosur Road", "name": "Action One Shop", "phone": "09535656325", "shop": "sports"}}, {"type": "node", "id": 4488483373, "lat": 12.8789971, "lon": 77.5456985, "tags": {"addr:city": "Bangalore", "addr:housenumber": "No.30", "addr:postcode": "560062", "addr:street": "Kanakapura Road", "name": "Glam Spa", "opening_hours": "08:00-21:30", "phone": "+918028425558", "shop": "beauty", "website": "www.glamspa.in"}}, {"type": "node", "id": 4489142043, "lat": 12.878889, "lon": 77.5957702, "tags": {"addr:city": "Bangalore", "addr:housenumber": "740", "addr:postcode": "560076", "addr:street": "Bannerghatta Road", "name": "Foodworld", "phone": "(91)-80-39880707", "shop": "supermarket"}}, {"type": "node", "id": 4489406969, "lat": 12.8637453, "lon": 77.5901225}, {"type": "node", "id": 4489696067, "lat": 12.8684675, "lon": 77.5755685, "tags": {"addr:city": "Bangalore", "addr:housenumber": "24", "addr:postcode": "560076", "addr:street": "JP Nagar", "phone": "(91)-9980633995", "shop": "supermarket"}}, {"type": "node", "id": 4615699489, "lat": 12.8698557, "lon": 77.597124, "tags": {"name": "Galaxy mart", "name:en": "Galaxy mart", "shop": "supermarket"}}, {"type": "node", "id": 4615699490, "lat": 12.8671553, "lon": 77.59804, "tags": {"name": "Patanjali Store", "name:en": "patanjali store", "shop": "department_store"}}, {"type": "node", "id": 4615699491, "lat": 12.8698577, "lon": 77.5970827, "tags": {"name": "Galaxy mart", "name:en": "Galaxy mart", "shop": "supermarket"}}, {"type": "node", "id": 4714421894, "lat": 12.8763164, "lon": 77.5998218, "tags": {"name": "Pet Shop", "name:en": "Pet Shop", "shop": "pet"}}, {"type": "node", "id": 4714435690, "lat": 12.8775594, "lon": 77.6027868, "tags": {"shop": "butcher"}}, {"type": "node", "id": 5018250555, "lat": 12.8713433, "lon": 77.6516147, "tags": {"brand": "Volkswagen", "brand:wikidata": "Q246", "name": "Volkswagen", "shop": "car"}}, {"type": "node", "id": 5381881834, "lat": 12.8443147, "lon": 77.6655818}, {"type": "node", "id": 5395275128, "lat": 12.8423075, "lon": 77.6760387, "tags": {"brand": "Westside", "brand:wikidata": "Q123376384", "check_date": "2025-05-31", "name": "Westside", "payment:cash": "yes", "payment:credit_cards": "yes", "payment:debit_cards": "yes", "shop": "clothes", "source": "survey"}}, {"type": "node", "id": 5395275130, "lat": 12.8405279, "lon": 77.6761406, "tags": {"shop": "furniture"}}, {"type": "node", "id": 5395316022, "lat": 12.8433155, "lon": 77.6749611, "tags": {"check_date": "2024-08-29", "name": "Royal Oak", "payment:cash": "yes", "payment:credit_cards": "yes", "payment:debit_cards": "yes", "shop": "furniture", "source": "survey", "wheelchair": "no"}}, {"type": "node", "id": 5396222723, "lat": 12.8429283, "lon": 77.6740709, "tags": {"brand": "DMart", "brand:wikidata": "Q5203271", "check_date": "2025-03-05", "name": "DMart", "shop": "supermarket"}}, {"type": "node", "id": 5402224040, "lat": 12.7789536, "lon": 77.643564, "tags": {"shop": "bakery"}}, {"type": "node", "id": 5402224042, "lat": 12.8216704, "lon": 77.6225069, "tags": {"name": "Puncher", "shop": "tyres"}}, {"type": "node", "id": 5402224043, "lat": 12.8367106, "lon": 77.6248799, "tags": {"shop": "furniture"}}, {"type": "node", "id": 5402224045, "lat": 12.8651422, "lon": 77.5982894, "tags": {"shop": "hairdresser"}}, {"type": "node", "id": 5402302830, "lat": 12.8362065, "lon": 77.6251288, "tags": {"shop": "bakery"}}, {"type": "node", "id": 5402308128, "lat": 12.7887145, "lon": 77.6294702, "tags": {"shop": "bakery"}}, {"type": "node", "id": 5402308131, "lat": 12.858745, "lon": 77.6117916, "tags": {"shop": "bakery"}}, {"type": "node", "id": 5402308133, "lat": 12.8616608, "lon": 77.6014989, "tags": {"shop": "hairdresser"}}, {"type": "node", "id": 5402312722, "lat": 12.8285547, "lon": 77.6235162, "tags": {"shop": "hairdresser"}}, {"type": "node", "id": 5660679407, "lat": 12.8745847, "lon": 77.6400526, "tags": {"addr:city": "Singasandra", "addr:housenumber": "#155/B", "addr:postcode": "560068", "addr:street": "Manipal County Road", "name": "SR Furniture, Home Decors & interior", "operator": "S Hussan, S Younus", "payment:cash": "yes", "shop": "furniture"}}, {"type": "node", "id": 5660954799, "lat": 12.8748547, "lon": 77.6399437, "tags": {"name": "RV Chicken Center", "payment:cash": "yes", "shop": "yes"}}, {"type": "node", "id": 5660954801, "lat": 12.8738696, "lon": 77.6424281, "tags": {"addr:city": "Bangalore", "addr:street": "Manipal County Road", "amenity": "cafe", "name": "Cane Corner", "payment:cash": "yes", "shop": "juice"}}, {"type": "node", "id": 5661087689, "lat": 12.8741533, "lon": 77.6412186, "tags": {"name": "Priyam Furniture Store", "shop": "furniture"}}, {"type": "node", "id": 5661241448, "lat": 12.8746867, "lon": 77.6401583, "tags": {"name": "Five Star Chicken", "shop": "yes"}}, {"type": "node", "id": 5713068240, "lat": 12.8779115, "lon": 77.6377137, "tags": {"name": "Sri annapoorna rice traders", "shop": "trade"}}, {"type": "node", "id": 5730901023, "lat": 12.8768242, "lon": 77.6391178, "tags": {"addr:city": "Singasandra", "addr:housenumber": "#157/10, Opp. S.R.K Paradise", "addr:postcode": "560068", "addr:street": "Manipal County Road", "name": "Sri Annapoorna Rice Traders", "payment:cash": "yes", "payment:credit_cards": "yes", "payment:debit_cards": "yes", "phone": "08040957575", "shop": "trade", "trade": "rice"}}, {"type": "node", "id": 5730901024, "lat": 12.8768627, "lon": 77.639103, "tags": {"name": "Hoticulture Fruits and Vegetables", "payment:cash": "yes", "shop": "greengrocer"}}, {"type": "node", "id": 5731143337, "lat": 12.8759246, "lon": 77.6131681, "tags": {"addr:city": "Begur Hobli, Bangalore", "addr:housenumber": "DLF New Town,", "addr:postcode": "560076", "addr:street": "Nyanappanahalli", "name": "Ayush Fresh Patanjali", "payment:cash": "yes", "payment:credit_cards": "yes", "payment:debit_cards": "yes", "phone": "6361018187, 6361011535", "shop": "supermarket"}}, {"type": "node", "id": 5745157613, "lat": 12.8741555, "lon": 77.6464491, "tags": {"name": "Magic oven", "shop": "bakery"}}, {"type": "node", "id": 5928737219, "lat": 12.8620718, "lon": 77.6613614}, {"type": "node", "id": 5928737220, "lat": 12.8625326, "lon": 77.6611549}, {"type": "node", "id": 5928737221, "lat": 12.8624016, "lon": 77.6609904}, {"type": "node", "id": 6261291850, "lat": 12.875543, "lon": 77.5953047}, {"type": "node", "id": 6261291851, "lat": 12.8755097, "lon": 77.5955041}, {"type": "node", "id": 6261291852, "lat": 12.8759428, "lon": 77.5962105}, {"type": "node", "id": 6261291853, "lat": 12.8761715, "lon": 77.5962195}, {"type": "node", "id": 6261291854, "lat": 12.8762419, "lon": 77.5956647}, {"type": "node", "id": 6261291855, "lat": 12.8761633, "lon": 77.5954916}, {"type": "node", "id": 6261291856, "lat": 12.8760592, "lon": 77.5954123}, {"type": "node", "id": 6261291857, "lat": 12.8759534, "lon": 77.5953706}, {"type": "node", "id": 6261291858, "lat": 12.8762145, "lon": 77.5955696}, {"type": "node", "id": 6261291859, "lat": 12.8760112, "lon": 77.595382}, {"type": "node", "id": 6261291860, "lat": 12.8761216, "lon": 77.5954641}, {"type": "node", "id": 6434133481, "lat": 12.86255, "lon": 77.5315127, "tags": {"shop": "yes"}}, {"type": "node", "id": 6434220176, "lat": 12.8595271, "lon": 77.5266713}, {"type": "node", "id": 6434220177, "lat": 12.8599599, "lon": 77.5265667}, {"type": "node", "id": 6434220178, "lat": 12.8601429, "lon": 77.5271715}, {"type": "node", "id": 6434220179, "lat": 12.8602619, "lon": 77.5275135}, {"type": "node", "id": 6657899659, "lat": 12.8787708, "lon": 77.6379804, "tags": {"description": "Sweets n Namkeen", "name": "Pandit Ji", "payment:cash": "yes", "payment:credit_cards": "yes", "payment:debit_cards": "yes", "shop": "bakery"}}, {"type": "node", "id": 6657899660, "lat": 12.8775236, "lon": 77.638837, "tags": {"name": "Mani's sea food", "payment:cash": "yes", "shop": "seafood"}}, {"type": "node", "id": 6657987177, "lat": 12.871934, "lon": 77.6384282, "tags": {"name": "Grinding Wheat & Rice Centre", "payment:cash": "yes", "shop": "yes"}}, {"type": "node", "id": 6658119309, "lat": 12.8738174, "lon": 77.642721, "tags": {"name": "Ajwa Dry Fruit & chocolats", "payment:cash": "yes", "payment:credit_cards": "yes", "payment:debit_cards": "yes", "shop": "yes"}}, {"type": "node", "id": 6658119311, "lat": 12.8743701, "lon": 77.6400851, "tags": {"name": "Backery", "payment:cash": "yes", "shop": "bakery"}}, {"type": "node", "id": 6658119314, "lat": 12.8738439, "lon": 77.6425641, "tags": {"name": "Milk center", "shop": "convenience"}}, {"type": "node", "id": 6658119315, "lat": 12.87385, "lon": 77.6426017, "tags": {"name": "Dry clean & Ironing", "payment:cash": "yes", "shop": "dry_cleaning"}}, {"type": "node", "id": 6658119316, "lat": 12.873434, "lon": 77.6457606, "tags": {"name": "Dry Cleaning & Ironing", "payment:cash": "yes", "shop": "dry_cleaning"}}, {"type": "node", "id": 6658580088, "lat": 12.8746031, "lon": 77.6468687}, {"type": "node", "id": 6658580089, "lat": 12.8746293, "lon": 77.6470564}, {"type": "node", "id": 6658580090, "lat": 12.8744018, "lon": 77.6471074}, {"type": "node", "id": 6658580091, "lat": 12.8743443, "lon": 77.6469116}, {"type": "node", "id": 6658580093, "lat": 12.8744175, "lon": 77.6469277, "tags": {"name": "FAB Mobiles", "shop": "mobile_phone"}}, {"type": "node", "id": 6662095289, "lat": 12.8736312, "lon": 77.6448952, "tags": {"name": "Flowers, Xerox and Prints", "payment:cash": "yes", "shop": "florist"}}, {"type": "node", "id": 6662095290, "lat": 12.8731213, "lon": 77.6443212, "tags": {"name": "Xerox and print outs", "payment:cash": "yes", "shop": "copyshop"}}, {"type": "node", "id": 6662095292, "lat": 12.8789035, "lon": 77.6367242}, {"type": "node", "id": 6662095293, "lat": 12.8785801, "lon": 77.6366639}, {"type": "node", "id": 6662095294, "lat": 12.878547, "lon": 77.6369161}, {"type": "node", "id": 6662095295, "lat": 12.8788731, "lon": 77.6369584}, {"type": "node", "id": 6677280438, "lat": 12.8789603, "lon": 77.637845, "tags": {"description": "Unisex Hair & style salon", "level": "1", "name": "Green Trends", "shop": "hairdresser", "unisex": "yes"}}, {"type": "node", "id": 6677364004, "lat": 12.8763799, "lon": 77.6396056, "tags": {"drive_through": "no", "name": "NS Liquor store", "payment:cash": "yes", "payment:credit_cards": "yes", "payment:debit_cards": "yes", "shop": "alcohol"}}, {"type": "node", "id": 6677364005, "lat": 12.8760221, "lon": 77.639765, "tags": {"name": "Radiance Ladies Beauty Salon & Spa", "shop": "beauty"}}, {"type": "node", "id": 7035737454, "lat": 12.8418246, "lon": 77.6456326, "tags": {"air_conditioning": "yes", "description": "Our focus is on design innovation and promotion of handcrafted products made by skilled artisans using natural inputs which sustains and preserves the environment.", "name": "Jute Cottage", "payment:all": "yes", "shop": "gift", "source": "survey;local knowledge;gps;aerial imagery", "website": "https://www.jutecottage.co.in/"}}, {"type": "node", "id": 7105207981, "lat": 12.8783476, "lon": 77.5445759}, {"type": "node", "id": 7105207982, "lat": 12.8785968, "lon": 77.5438825}, {"type": "node", "id": 7105207983, "lat": 12.8785366, "lon": 77.5438613}, {"type": "node", "id": 7105215485, "lat": 12.8782242, "lon": 77.5446254}, {"type": "node", "id": 7141213418, "lat": 12.8084509, "lon": 77.590524, "tags": {"name": "Kaveri Bakery", "shop": "yes"}}, {"type": "node", "id": 7179141562, "lat": 12.853936, "lon": 77.5882726, "tags": {"addr:city": "Bangalore", "addr:postcode": "560083", "addr:street": "Bannerghatta Road", "brand": "DMart", "brand:wikidata": "Q5203271", "check_date:opening_hours": "2023-10-29", "name": "DMart", "opening_hours": "10:00-22:00", "operator": "DMart", "organic": "yes", "shop": "supermarket", "website": "http://dmartindia.com"}}, {"type": "node", "id": 7298163698, "lat": 12.8600079, "lon": 77.5267255}, {"type": "node", "id": 7321574083, "lat": 12.7109698, "lon": 77.2692862, "tags": {"name": "Prakash Chandra Commercial Complex", "shop": "supermarket"}}, {"type": "node", "id": 7321577485, "lat": 12.7151076, "lon": 77.2721988, "tags": {"name": "Patel Mango Mandi", "shop": "supermarket"}}, {"type": "node", "id": 7385159210, "lat": 12.7951805, "lon": 77.6595992, "tags": {"name": "Sneha Bakery & Sweets", "opening_hours": "Mo-Su 06:00-21:15", "shop": "bakery"}}, {"type": "node", "id": 7385275008, "lat": 12.789203, "lon": 77.6602352, "tags": {"shop": "convenience"}}, {"type": "node", "id": 7385275009, "lat": 12.7888097, "lon": 77.6614934, "tags": {"name": "Chicken Shop", "shop": "yes"}}, {"type": "node", "id": 7682106713, "lat": 12.8642562, "lon": 77.5900814}, {"type": "node", "id": 7682106714, "lat": 12.8639751, "lon": 77.5909249}, {"type": "node", "id": 7714597069, "lat": 12.8763589, "lon": 77.5998058, "tags": {"addr:city": "Bengaluru", "addr:housenumber": "2A2", "addr:postcode": "560076", "addr:street": "Muthurayyaswamy layout, Bannerghatta road", "name": "Tattoos and Tales - Tattoo and piercing studio", "opening_hours": "Mo-Su 10:00-22:00", "operator": "Tattoos and Tales", "payment:cash": "yes", "payment:credit_cards": "yes", "payment:debit_cards": "yes", "payment:electronic_purses": "yes", "shop": "tattoo", "studio": "art"}}, {"type": "node", "id": 9010093840, "lat": 12.7185891, "lon": 77.4823183, "tags": {"name": "Itsy Bitsy Factory Outlet", "shop": "craft", "source": "gps"}}, {"type": "node", "id": 9159810899, "lat": 12.8710628, "lon": 77.5937507, "tags": {"addr:street": "Bannerghata Road", "name": "Sai Motors - Chevrolet Service Center", "shop": "car_repair"}}, {"type": "node", "id": 9568556292, "lat": 12.8730816, "lon": 77.5666726, "tags": {"addr:city": "Bangalore", "addr:postcode": "560062", "addr:street": "Amruth Nagar Main Road", "name": "Reliance SMART Point", "operator": "Reliance", "payment:cash": "yes", "payment:credit_cards": "yes", "payment:debit_cards": "yes", "payment:upi": "yes", "shop": "supermarket"}}, {"type": "node", "id": 9568641748, "lat": 12.8677963, "lon": 77.5769733, "tags": {"addr:city": "Bangalore", "addr:postcode": "560076", "addr:street": "Amruth Nagar Main Road", "name": "Reliance SMART Point", "operator": "Reliance", "shop": "supermarket"}}, {"type": "node", "id": 9568686471, "lat": 12.8678116, "lon": 77.5770306, "tags": {"addr:city": "Bangalore", "addr:postcode": "560076", "addr:street": "Amruth Nagar Main Road", "name": "Naturals Unisex Salon & Spa", "payment:cash": "yes", "payment:credit_cards": "yes", "payment:debit_cards": "yes", "payment:upi": "yes", "shop": "beauty", "website": "https://naturals.in"}}, {"type": "node", "id": 9577537663, "lat": 12.8717049, "lon": 77.5738395, "tags": {"name": "Plant Nursery", "shop": "florist"}}, {"type": "node", "id": 9624315230, "lat": 12.7300768, "lon": 77.2779661, "tags": {"name": "Maruti Suzuki", "name:kn": "\u0cae\u0cbe\u0cb0\u0cc1\u0ca4\u0cbf \u0cb8\u0cc1\u0c9c\u0cc1\u0c95\u0cbf", "shop": "car"}}, {"type": "node", "id": 9624315242, "lat": 12.721282, "lon": 77.2748186, "tags": {"name": "Cake World", "shop": "pastry"}}, {"type": "node", "id": 9624315269, "lat": 12.7074031, "lon": 77.2632596, "tags": {"name": "Hi Tech Furniture", "shop": "furniture"}}, {"type": "node", "id": 9624315281, "lat": 12.6877262, "lon": 77.2359306, "tags": {"name": "Nandini", "name:kn": "\u0ca8\u0c82\u0ca6\u0cbf\u0ca8\u0cbf", "shop": "dairy"}}, {"type": "node", "id": 9654011468, "lat": 12.7509329, "lon": 77.3162091, "tags": {"brand": "Hyundai", "name": "Advaith Hyundai", "shop": "car"}}, {"type": "node", "id": 9654011507, "lat": 12.7288497, "lon": 77.2846422, "tags": {"name": "Hero Electric", "shop": "motorcycle"}}, {"type": "node", "id": 9654239427, "lat": 12.8791867, "lon": 77.4461943, "tags": {"name": "Shopper's Choice", "shop": "general"}}, {"type": "node", "id": 9654239453, "lat": 12.8360191, "lon": 77.4156225, "tags": {"name": "Kanti Sweets", "shop": "confectionery"}}, {"type": "node", "id": 9654239490, "lat": 12.8103159, "lon": 77.4031011}, {"type": "node", "id": 9654239491, "lat": 12.8103721, "lon": 77.4029643}, {"type": "node", "id": 9654239492, "lat": 12.810414, "lon": 77.4029824}, {"type": "node", "id": 9654239493, "lat": 12.8103578, "lon": 77.4031192}, {"type": "node", "id": 9654239502, "lat": 12.8100313, "lon": 77.4028138}, {"type": "node", "id": 9654239503, "lat": 12.8100785, "lon": 77.4027012}, {"type": "node", "id": 9654239504, "lat": 12.8101337, "lon": 77.4027255}, {"type": "node", "id": 9654239505, "lat": 12.8100865, "lon": 77.4028382}, {"type": "node", "id": 9838468048, "lat": 12.8416364, "lon": 77.6761293}, {"type": "node", "id": 9838468049, "lat": 12.8420444, "lon": 77.6767918}, {"type": "node", "id": 9838468050, "lat": 12.8425828, "lon": 77.6764313}, {"type": "node", "id": 9858691344, "lat": 12.8686779, "lon": 77.6548058, "tags": {"brand": "Honda", "brand:wikidata": "Q9584", "name": "Honda", "shop": "motorcycle"}}, {"type": "node", "id": 9858691345, "lat": 12.8681183, "lon": 77.655251, "tags": {"brand": "Suzuki", "name": "Suzuki", "shop": "car"}}, {"type": "node", "id": 9858691350, "lat": 12.8614828, "lon": 77.6612731}, {"type": "node", "id": 9887427429, "lat": 12.876303, "lon": 77.5670186, "tags": {"addr:city": "Bengaluru", "addr:postcode": "560062", "addr:street": "Amruth Nagar Main Road", "name": "Kolar Farm Fresh", "payment:cash": "yes", "payment:debit_cards": "yes", "payment:upi": "yes", "shop": "greengrocer"}}, {"type": "node", "id": 9925140127, "lat": 12.8640503, "lon": 77.5733065, "tags": {"addr:city": "Bengaluru", "addr:housenumber": "373", "addr:postcode": "560083", "addr:street": "2nd Block, JP Nagar 8th Phase", "name": "Shivashakti Ply", "shop": "hardware"}}, {"type": "node", "id": 9925167938, "lat": 12.8641395, "lon": 77.5753734, "tags": {"addr:city": "Bengaluru", "addr:postcode": "560083", "addr:street": "Royal count 1st phase", "name": "Nandini milk store", "shop": "dairy"}}, {"type": "node", "id": 10083914232, "lat": 12.8068224, "lon": 77.5789128, "tags": {"check_date": "2022-10-08", "name": "Shri Nandheeswara Condiments", "shop": "convenience"}}, {"type": "node", "id": 10083914303, "lat": 12.8131201, "lon": 77.5797984, "tags": {"check_date": "2022-10-08", "name": "Ashvini Provisions Store", "shop": "convenience"}}, {"type": "node", "id": 10084950597, "lat": 12.8760948, "lon": 77.5954423}, {"type": "node", "id": 10235931770, "lat": 12.8411561, "lon": 77.6764918}, {"type": "node", "id": 10311370639, "lat": 12.8568948, "lon": 77.5417454, "tags": {"addr:city": "Bengaluru", "addr:postcode": "560062", "addr:street": "Kumarans School Holiday Village Road", "air_conditioning": "yes", "brand": "Adishwar Supermarket", "check_date": "2024-10-18", "currency:INR": "yes", "diet:gluten_free": "limited", "diet:sugar_free": "limited", "dog": "no", "internet_access": "no", "name": "Adishwar Convenience Store", "opening_hours": "Mo-Su 06:00-22:00", "panoramax": "de9ac477-2317-4ab7-bcc3-d5bb2c149bc2", "payment:cards": "yes", "payment:cash": "yes", "payment:credit_cards": "yes", "payment:debit_cards": "yes", "payment:google_pay": "yes", "payment:qr_code": "yes", "payment:upi": "yes", "phone": "+91 88610 07304", "second_hand": "no", "shop": "convenience", "source": "survey", "stroller": "no", "toilets": "no", "toilets:wheelchair": "no", "website": "https://www.adishwaremart.com/", "wheelchair": "yes"}}, {"type": "node", "id": 10613535247, "lat": 12.8759878, "lon": 77.544359}, {"type": "node", "id": 10613535248, "lat": 12.8759169, "lon": 77.5446582}, {"type": "node", "id": 10613535249, "lat": 12.8756454, "lon": 77.5445897}, {"type": "node", "id": 10613535250, "lat": 12.8753557, "lon": 77.5444255}, {"type": "node", "id": 10613535251, "lat": 12.8754124, "lon": 77.544253}, {"type": "node", "id": 10613535252, "lat": 12.8754469, "lon": 77.5442675}, {"type": "node", "id": 10613535253, "lat": 12.8759169, "lon": 77.5443693}, {"type": "node", "id": 10613535254, "lat": 12.8759433, "lon": 77.5443465}, {"type": "node", "id": 10620255012, "lat": 12.8791863, "lon": 77.5455794, "tags": {"addr:street": "Kanakapura Road, Doddakallasandra", "name": "Bata Showroom", "shop": "shoes"}}, {"type": "node", "id": 10654009334, "lat": 12.8608799, "lon": 77.5426376}, {"type": "node", "id": 10654009335, "lat": 12.8608654, "lon": 77.5428472}, {"type": "node", "id": 10654009336, "lat": 12.8607253, "lon": 77.542837}, {"type": "node", "id": 10654009337, "lat": 12.8607397, "lon": 77.5426274}, {"type": "node", "id": 10697710346, "lat": 12.8636411, "lon": 77.590184}, {"type": "node", "id": 10697710347, "lat": 12.8634131, "lon": 77.5907412}, {"type": "node", "id": 10697710360, "lat": 12.8610986, "lon": 77.589832, "tags": {"brand": "Crom\u0101", "brand:wikidata": "Q5187683", "name": "Crom\u0101", "shop": "electronics"}}, {"type": "node", "id": 10797148835, "lat": 12.8742316, "lon": 77.5423765, "tags": {"description": "Puncture & other tyre related services", "name": "M.M Tyres", "shop": "tyres"}}, {"type": "node", "id": 10801926245, "lat": 12.8641, "lon": 77.5434658, "tags": {"addr:postcode": "560062", "check_date": "2025-01-19", "covered": "yes", "lit": "yes", "name": "Dr Bright Laundary", "shop": "laundry", "source": "survey"}}, {"type": "node", "id": 10826187893, "lat": 12.8602534, "lon": 77.5423015, "tags": {"addr:city": "Bengaluru", "addr:postcode": "560062", "addr:street": "Kumarans School Holiday Village Road", "male": "yes", "name": "Noob Saloon", "shop": "hairdresser"}}, {"type": "node", "id": 10893490097, "lat": 12.8608459, "lon": 77.5426559, "tags": {"addr:street": "Holiday Village Inn Road, Mallasandra, Bangalore", "brand": "Pericorp", "description": "Unisex Saloon, Massage & Spa", "dog": "no", "email": "imagineco@gmail.com", "internet_access": "no", "name": "Salon Perimeter", "name:ta": "\u0baa\u0bc6\u0bb0\u0bbf\u0bae\u0bc0\u0b9f\u0bcd\u0b9f\u0bb0\u0bcd", "opening_hours": "Mo 10:00-20:00; We-Su 10:00-20:00", "payment:cards": "yes", "payment:cash": "yes", "payment:qr_code": "yes", "phone": "+91 86183 29463", "shop": "beauty"}}, {"type": "node", "id": 11048987729, "lat": 12.8602333, "lon": 77.5422604, "tags": {"addr:postcode": "560062", "check_date": "2023-10-13", "internet_access": "no", "name": "Student Xerox", "shop": "copyshop", "source": "survey"}}, {"type": "node", "id": 11048990363, "lat": 12.8603077, "lon": 77.5423118, "tags": {"addr:street": "JP Hive complex, Holiday Village Resort Road, Mallasandra, Bangalore", "name": "Palak Vegetable Shop", "phone": "8317349903", "shop": "greengrocer"}}, {"type": "node", "id": 11178356426, "lat": 12.8735988, "lon": 77.5837422, "tags": {"check_date": "2023-09-09", "description": "Since 1959", "name": "Sri Jayalakshmi Bakery", "opening_hours": "07:30-21:30", "payment:mastercard": "yes", "payment:visa": "yes", "shop": "bakery", "wheelchair": "limited"}}, {"type": "node", "id": 11245791922, "lat": 12.8621213, "lon": 77.5430328, "tags": {"name": "Sharadha's Spa & Salon", "shop": "beauty"}}, {"type": "node", "id": 11245842785, "lat": 12.8619892, "lon": 77.5430244, "tags": {"name": "Dhanalakshmi Electricals & Power Tools", "shop": "electrical"}}, {"type": "node", "id": 11245866001, "lat": 12.862565, "lon": 77.5430321, "tags": {"name": "UR Wash Laundry", "phone": "6364576666", "shop": "laundry"}}, {"type": "node", "id": 11245879104, "lat": 12.8616583, "lon": 77.5429349, "tags": {"addr:postcode": "560062", "air_conditioning": "no", "check_date": "2023-10-13", "currency:INR": "yes", "internet_access": "no", "name": "Sashi Two Wheeler Mechanic", "shop": "motorcycle_repair"}}, {"type": "node", "id": 11245914595, "lat": 12.8625995, "lon": 77.5430349, "tags": {"addr:postcode": "560062", "air_conditioning": "no", "check_date": "2023-10-13", "currency:INR": "yes", "internet_access": "no", "name": "Nandhini Milk Parlour", "name:ta": "\u0ba8\u0ba8\u0bcd\u0ba4\u0bbf\u0ba9\u0bbf \u0baa\u0bbe\u0bb2\u0b95\u0bae\u0bcd", "shop": "dairy"}}, {"type": "node", "id": 11245927018, "lat": 12.8624194, "lon": 77.5431285, "tags": {"name": "KM Motors", "shop": "motorcycle_repair"}}, {"type": "node", "id": 11245933594, "lat": 12.861409, "lon": 77.5429037, "tags": {"name": "Bushra Men's Salon", "shop": "beauty"}}, {"type": "node", "id": 11250389077, "lat": 12.8636797, "lon": 77.5901379}, {"type": "node", "id": 11299161929, "lat": 12.8789245, "lon": 77.5455065, "tags": {"addr:city": "Bangalore", "addr:district": "Bangalore Urban", "addr:postcode": "560062", "addr:street": "Kanakapura Main Road", "brand": "Mahindra", "description": "Mahindra Car Showroom", "name": "PPS Motors (Mahindra)", "operator": "PPS Motors", "shop": "car"}}, {"type": "node", "id": 11301688308, "lat": 12.8737877, "lon": 77.6433022, "tags": {"level": "0", "name": "Food Paradise Supermarket", "shop": "convenience", "wheelchair": "limited"}}, {"type": "node", "id": 11301688309, "lat": 12.8773968, "lon": 77.638902, "tags": {"level": "0", "name": "Krishna Cake Palace", "shop": "bakery", "wheelchair": "limited"}}, {"type": "node", "id": 11301855956, "lat": 12.8788511, "lon": 77.6370793, "tags": {"level": "0;1;2", "name": "It's My Baby Shop", "shop": "baby_goods", "wheelchair": "no"}}, {"type": "node", "id": 11301855959, "lat": 12.8786953, "lon": 77.6380002, "tags": {"level": "0", "name:signed": "no", "shop": "tobacco"}}, {"type": "node", "id": 11338841699, "lat": 12.8588015, "lon": 77.6068793, "tags": {"addr:city": "Bangalore", "addr:postcode": "560076", "addr:street": "1st Cross", "name": "G N Store", "opening_hours": "Mo-Su 06:30-21:30", "payment:cash": "yes", "payment:contactless": "yes", "payment:google_pay": "yes", "payment:upi": "yes", "phone": "+91 9739654467", "shop": "convenience"}}, {"type": "node", "id": 11377158461, "lat": 12.8404671, "lon": 77.6518958, "tags": {"brand": "Toni & Guy", "brand:wikidata": "Q324784", "name": "Toni & Guy", "shop": "hairdresser"}}, {"type": "node", "id": 11386000339, "lat": 12.8025474, "lon": 77.397193, "tags": {"name": "Amrutha tea", "shop": "tea"}}, {"type": "node", "id": 11386027842, "lat": 12.8022584, "lon": 77.3971813, "tags": {"name": "Nandhini Milk Parlour", "shop": "dairy"}}, {"type": "node", "id": 11386036954, "lat": 12.8022836, "lon": 77.3972227, "tags": {"name": "HP helmet and footware", "shop": "shoes"}}, {"type": "node", "id": 11465490458, "lat": 12.8609441, "lon": 77.5293363, "tags": {"check_date": "2023-12-29", "internet_access": "no", "name": "Sri Durga Condiments", "payment:cards": "no", "payment:cash": "yes", "payment:credit_cards": "no", "payment:debit_cards": "no", "payment:paytm": "yes", "payment:upi": "yes", "shop": "convenience", "wheelchair": "no"}}, {"type": "node", "id": 11465490461, "lat": 12.8610503, "lon": 77.529387, "tags": {"check_date": "2023-12-29", "internet_access": "no", "name": "KGN Bike Garage and Puncture Shop", "payment:cards": "no", "payment:cash": "yes", "payment:credit_cards": "no", "payment:debit_cards": "no", "payment:paytm": "yes", "payment:upi": "yes", "service:vehicle:batteries": "yes", "service:vehicle:brakes": "yes", "service:vehicle:repairs": "yes", "service:vehicle:transmission": "yes", "service:vehicle:tyres": "yes", "service:vehicle:tyres_repair": "yes", "service:vehicle:wheels": "yes", "shop": "motorcycle_repair", "wheelchair": "no"}}, {"type": "node", "id": 11465490463, "lat": 12.8611864, "lon": 77.5294612, "tags": {"check_date": "2023-12-29", "internet_access": "no", "name": "Eswari Motors", "payment:cards": "no", "payment:cash": "yes", "payment:credit_cards": "no", "payment:debit_cards": "no", "payment:paytm": "yes", "payment:upi": "yes", "service:vehicle:batteries": "yes", "service:vehicle:brakes": "yes", "service:vehicle:collision_repair": "yes", "service:vehicle:electrical": "yes", "service:vehicle:repair": "yes", "service:vehicle:servicing": "yes", "service:vehicle:transmission": "yes", "service:vehicle:tyres": "yes", "service:vehicle:tyres_repair": "yes", "shop": "motorcycle_repair", "wheelchair": "no"}}, {"type": "node", "id": 11465490464, "lat": 12.8613006, "lon": 77.5294982, "tags": {"check_date": "2023-12-29", "internet_access": "no", "name": "Sri Vinayaka Enterprise (Nandini)", "payment:cards": "no", "payment:cash": "yes", "payment:credit_cards": "no", "payment:debit_cards": "no", "payment:paytm": "yes", "payment:upi": "yes", "shop": "convenience", "wheelchair": "no"}}, {"type": "node", "id": 11602288094, "lat": 12.7974989, "lon": 77.6056583}, {"type": "node", "id": 11602288095, "lat": 12.7974752, "lon": 77.6059433}, {"type": "node", "id": 11602288096, "lat": 12.7980346, "lon": 77.6059921}, {"type": "node", "id": 11602288097, "lat": 12.7980582, "lon": 77.6057071}, {"type": "node", "id": 11618268739, "lat": 12.8713751, "lon": 77.5409138}, {"type": "node", "id": 11625402107, "lat": 12.8749232, "lon": 77.6167526, "tags": {"addr:city": "Bangalore", "addr:district": "Bengaluru Urban", "addr:full": "Yelanahalli Main Road, Akshaynagar, DLF New Town,Bengaluru-560068", "addr:postcode": "560068", "name": "Safari Super Mart", "opening_hours": "Mo-Su 09:00-21:00", "payment:app": "yes", "payment:cash": "yes", "payment:credit_cards": "yes", "payment:upi": "yes", "shop": "supermarket"}}, {"type": "node", "id": 11871336483, "lat": 12.8766805, "lon": 77.6106794}, {"type": "node", "id": 11871336484, "lat": 12.875849, "lon": 77.6106808}, {"type": "node", "id": 11871336485, "lat": 12.8758621, "lon": 77.6102221}, {"type": "node", "id": 11871336486, "lat": 12.876738, "lon": 77.6101872}, {"type": "node", "id": 11881184341, "lat": 12.871686, "lon": 77.5425249, "tags": {"addr:street": "Holiday Village Resort Road, Off. Kanakapura Road, Bengaluru - 62", "description": "Car Wash, Ceramic Coating, Teflon Coating, PPF, Car Wax, Graphene Coating", "name": "GE Vehicle Care", "phone": "+919513909301", "shop": "car"}}, {"type": "node", "id": 11949185948, "lat": 12.8408999, "lon": 77.6509964, "tags": {"addr:city": "Bengaluru", "addr:district": "Bengaluru", "addr:postcode": "560100", "addr:street": "Phase 1, 1st Cross, Neeladri Rd, Electronic City", "brand": "Crom\u0101", "brand:wikidata": "Q5187683", "level": "1", "name": "Crom\u0101", "opening_hours": "Mo-Su 11:00,21:00", "payment:cash": "yes", "payment:credit_cards": "yes", "payment:debit_cards": "yes", "payment:upi": "yes", "phone": "08867854558", "shop": "electronics", "toilets": "no", "wheelchair": "limited"}}, {"type": "node", "id": 11949667668, "lat": 12.8405323, "lon": 77.6509379, "tags": {"addr:city": "Bengaluru", "addr:district": "Bengaluru", "addr:postcode": "560100", "addr:street": "274, Neeladri Rd, Electronics City Phase 1, Electronic City", "name": "Tandoori Cha", "name:kn": "\u0ca4\u0c82\u0ca6\u0cc2\u0cb0\u0cbf \u0c9a\u0cbe", "opening_hours": "Mo-Su 08:00-23:00", "shop": "tea"}}, {"type": "node", "id": 12009675987, "lat": 12.8695131, "lon": 77.5432472, "tags": {"addr:street": "Holiday Village Resort Road, Off Kanakapura Road, Mallasandra", "name": "Bakers Delicious", "shop": "bakery"}}, {"type": "node", "id": 12041975310, "lat": 12.6003439, "lon": 77.4341518, "tags": {"name": "KBM Toys Emporium", "shop": "toys"}}, {"type": "node", "id": 12060998869, "lat": 12.8409899, "lon": 77.6505563, "tags": {"addr:street": "Neeladri Road", "name": "Dress Mart", "shop": "clothes"}}, {"type": "node", "id": 12060998969, "lat": 12.8408603, "lon": 77.6501305, "tags": {"addr:street": "Neeladri Road", "name": "TRENDS Footwear", "shop": "shoes"}}, {"type": "node", "id": 12060999069, "lat": 12.8408601, "lon": 77.6500741, "tags": {"addr:street": "Neeladri Road", "brand": "Peter England", "brand:wikidata": "Q19573665", "clothes": "men", "name": "Peter England", "shop": "clothes"}}, {"type": "node", "id": 12060999169, "lat": 12.8411117, "lon": 77.6501333, "tags": {"addr:street": "Neeladri Road", "brand": "Samsung", "brand:wikidata": "Q20718", "name": "Samsung", "shop": "electronics"}}, {"type": "node", "id": 12097148759, "lat": 12.8300844, "lon": 77.6647651}, {"type": "node", "id": 12097148760, "lat": 12.829775, "lon": 77.6647667}, {"type": "node", "id": 12097148761, "lat": 12.8297584, "lon": 77.6648237}, {"type": "node", "id": 12097148762, "lat": 12.8300573, "lon": 77.6649053}, {"type": "node", "id": 12179793280, "lat": 12.8694764, "lon": 77.5432603, "tags": {"addr:city": "Bangalore", "addr:postcode": "560062", "addr:street": "Holiday Village Road", "name": "Nandhini Dairy Store", "shop": "dairy"}}, {"type": "node", "id": 12180378247, "lat": 12.8609974, "lon": 77.5426762, "tags": {"addr:street": "Holiday Village Road", "name": "Hasiru Halli Thotta", "shop": "greengrocer"}}, {"type": "node", "id": 12289470919, "lat": 12.8418502, "lon": 77.6769669, "tags": {"check_date": "2025-07-04", "name": "SNITCH", "payment:cash": "yes", "payment:credit_cards": "yes", "payment:debit_cards": "yes", "shop": "clothes"}}, {"type": "node", "id": 12289470920, "lat": 12.841811, "lon": 77.676879, "tags": {"name": "R&B Fashion", "shop": "clothes"}}, {"type": "node", "id": 12289470921, "lat": 12.8423935, "lon": 77.6767878, "tags": {"check_date": "2025-07-04", "name": "Monte Carlo", "payment:cash": "yes", "payment:credit_cards": "yes", "payment:debit_cards": "yes", "shop": "clothes"}}, {"type": "node", "id": 12289470922, "lat": 12.8424445, "lon": 77.6770225, "tags": {"check_date": "2025-07-04", "name": "Mokobara", "payment:cash": "yes", "payment:credit_cards": "yes", "payment:debit_cards": "yes", "shop": "bag"}}, {"type": "node", "id": 12289470923, "lat": 12.8422326, "lon": 77.6769575, "tags": {"check_date": "2025-07-04", "name": "Mia by Tanishq", "payment:cash": "yes", "payment:credit_cards": "yes", "payment:debit_cards": "yes", "shop": "jewelry"}}, {"type": "node", "id": 12289470924, "lat": 12.8418979, "lon": 77.6768354, "tags": {"check_date": "2025-07-04", "name": "GIVA", "payment:cash": "yes", "payment:credit_cards": "yes", "payment:debit_cards": "yes", "shop": "jewelry"}}, {"type": "node", "id": 12289470925, "lat": 12.842013, "lon": 77.6771915, "tags": {"brand": "Gap", "brand:wikidata": "Q420822", "check_date": "2025-07-04", "name": "Gap", "payment:cash": "yes", "payment:credit_cards": "yes", "payment:debit_cards": "yes", "shop": "clothes"}}, {"type": "node", "id": 12289470926, "lat": 12.8421169, "lon": 77.6768703, "tags": {"brand": "Hidesign", "brand:wikidata": "Q5752690", "check_date": "2025-07-04", "name": "Hidesign", "payment:cash": "yes", "payment:credit_cards": "yes", "payment:debit_cards": "yes", "shop": "leather"}}, {"type": "node", "id": 12289470927, "lat": 12.8418796, "lon": 77.6772183, "tags": {"brand": "Aldo", "brand:wikidata": "Q2832297", "check_date": "2025-07-04", "name": "Aldo", "payment:cash": "yes", "payment:credit_cards": "yes", "payment:debit_cards": "yes", "shop": "shoes"}}, {"type": "node", "id": 12289470929, "lat": 12.8420457, "lon": 77.676942, "tags": {"check_date": "2025-07-04", "name": "Beauty & Beyond", "payment:cash": "yes", "payment:credit_cards": "yes", "payment:debit_cards": "yes", "shop": "beauty"}}, {"type": "node", "id": 12289470930, "lat": 12.8421548, "lon": 77.6771291, "tags": {"check_date": "2025-07-04", "name": "Titan Eye Plus", "payment:cash": "yes", "payment:credit_cards": "yes", "payment:debit_cards": "yes", "shop": "optician"}}, {"type": "node", "id": 12289470931, "lat": 12.8423595, "lon": 77.677052, "tags": {"check_date": "2025-07-04", "name": "Jockey", "payment:cash": "yes", "payment:credit_cards": "yes", "payment:debit_cards": "yes", "shop": "clothes"}}, {"type": "node", "id": 12289470932, "lat": 12.8423131, "lon": 77.6768099, "tags": {"brand": "Crocs", "brand:wikidata": "Q926699", "check_date": "2025-07-04", "name": "Crocs", "payment:cash": "yes", "payment:credit_cards": "yes", "payment:debit_cards": "yes", "shop": "shoes"}}, {"type": "node", "id": 12289470933, "lat": 12.8422549, "lon": 77.677099, "tags": {"brand": "Bata", "brand:wikidata": "Q688082", "check_date": "2025-07-04", "name": "Bata", "payment:cash": "yes", "payment:credit_cards": "yes", "payment:debit_cards": "yes", "shop": "shoes"}}, {"type": "node", "id": 12289470934, "lat": 12.8419822, "lon": 77.6770534, "tags": {"brand": "Metro", "brand:wikidata": "Q16938284", "check_date": "2025-07-04", "name": "Metro", "payment:cash": "yes", "payment:credit_cards": "yes", "payment:debit_cards": "yes", "shop": "shoes"}}, {"type": "node", "id": 12289470935, "lat": 12.8417626, "lon": 77.6769863, "tags": {"check_date": "2025-07-04", "name": "Toni & Guy", "payment:cash": "yes", "payment:credit_cards": "yes", "payment:debit_cards": "yes", "shop": "clothes"}}, {"type": "node", "id": 12289470936, "lat": 12.841945, "lon": 77.6769488, "tags": {"brand": "Bath & Body Works", "brand:wikidata": "Q810773", "check_date": "2025-07-04", "name": "Bath & Body Works", "payment:cash": "yes", "payment:credit_cards": "yes", "payment:debit_cards": "yes", "shop": "cosmetics"}}, {"type": "node", "id": 12289470937, "lat": 12.8420633, "lon": 77.6771325, "tags": {"check_date": "2025-07-04", "name": "Beverly Hills Polo Club", "payment:cash": "yes", "payment:credit_cards": "yes", "payment:debit_cards": "yes", "shop": "clothes"}}, {"type": "node", "id": 12289470938, "lat": 12.841845, "lon": 77.6770949, "tags": {"brand": "Raymond", "brand:wikidata": "Q3537018", "check_date": "2025-07-04", "name": "Raymond", "payment:cash": "yes", "payment:credit_cards": "yes", "payment:debit_cards": "yes", "shop": "clothes"}}, {"type": "node", "id": 12289470939, "lat": 12.8424157, "lon": 77.6769085, "tags": {"check_date": "2025-07-04", "name": "Rare Rabbit", "payment:cash": "yes", "payment:credit_cards": "yes", "payment:debit_cards": "yes", "shop": "clothes"}}, {"type": "node", "id": 12289470940, "lat": 12.8421378, "lon": 77.6770098, "tags": {"check_date": "2025-07-04", "name": "Nykaa", "payment:cash": "yes", "payment:credit_cards": "yes", "payment:debit_cards": "yes", "shop": "beauty"}}, {"type": "node", "id": 12289470941, "lat": 12.8418247, "lon": 77.6766463, "tags": {"check_date": "2025-07-04", "name": "Home Centre", "payment:cash": "yes", "payment:credit_cards": "yes", "payment:debit_cards": "yes", "shop": "interior_decoration"}}, {"type": "node", "id": 12289470942, "lat": 12.8422071, "lon": 77.6768415, "tags": {"brand": "Max", "brand:wikidata": "Q24939079", "check_date": "2025-07-04", "name": "Max", "payment:cash": "yes", "payment:credit_cards": "yes", "payment:debit_cards": "yes", "shop": "clothes"}}, {"type": "node", "id": 12289470943, "lat": 12.8423379, "lon": 77.6769286, "tags": {"brand": "Lifestyle", "brand:wikidata": "Q6545496", "check_date": "2025-07-04", "name": "Lifestyle", "payment:cash": "yes", "payment:credit_cards": "yes", "payment:debit_cards": "yes", "shop": "clothes"}}, {"type": "node", "id": 12289470944, "lat": 12.8414259, "lon": 77.6766054, "tags": {"brand": "Lulu Hypermarket", "brand:wikidata": "Q6702930", "name": "Lulu Hypermarket", "shop": "supermarket"}}, {"type": "node", "id": 12323456989, "lat": 12.8799184, "lon": 77.5535523, "tags": {"addr:street": "Swami Vivekananda Road, Off Kanakapura Road, Doddakallandra, Bengaluru", "name": "ItsyBitsy", "shop": "craft", "website": "https://itsybitsy.in"}}, {"type": "node", "id": 12323521698, "lat": 12.8798391, "lon": 77.5536018, "tags": {"name": "Royal Touch Mens Salon", "shop": "beauty"}}, {"type": "node", "id": 12323610631, "lat": 12.8799756, "lon": 77.5535431, "tags": {"addr:city": "Doddakallasandra", "addr:district": "Bengaluru", "addr:street": "Swamy Vivekanandha Road", "name": "Amma Pastries", "payment:cash": "yes", "payment:upi": "yes", "shop": "bakery"}}, {"type": "node", "id": 12464229079, "lat": 12.8696046, "lon": 77.653182, "tags": {"name": "Cycle World", "shop": "bicycle"}}, {"type": "node", "id": 12508633689, "lat": 12.8748842, "lon": 77.5381578, "tags": {"brand": "Nandini", "brand:wikidata": "Q124374212", "name": "Nandini", "shop": "dairy"}}, {"type": "node", "id": 12508633791, "lat": 12.8738265, "lon": 77.5403117}, {"type": "node", "id": 12508633792, "lat": 12.8741311, "lon": 77.538988}, {"type": "node", "id": 12508633793, "lat": 12.8721971, "lon": 77.5399842}, {"type": "node", "id": 12508633794, "lat": 12.8719642, "lon": 77.5410651}, {"type": "node", "id": 12508633823, "lat": 12.8734774, "lon": 77.5399174}, {"type": "node", "id": 12508633824, "lat": 12.8737467, "lon": 77.5388592}, {"type": "node", "id": 12511888173, "lat": 12.8716857, "lon": 77.5398177}, {"type": "node", "id": 12511888174, "lat": 12.8716993, "lon": 77.5395955}, {"type": "node", "id": 12511888175, "lat": 12.8718785, "lon": 77.5389625}, {"type": "node", "id": 12520355585, "lat": 12.8360018, "lon": 77.6651941, "tags": {"addr:city": "Bengaluru", "addr:postcode": "560100", "addr:street": "Gollahalli Electronic City Road, Gollahalli, Electronic City", "name": "Dream Mart", "shop": "supermarket"}}, {"type": "node", "id": 12568274373, "lat": 12.879016, "lon": 77.5455395, "tags": {"addr:city": "Bangalore", "addr:postcode": "560062", "addr:street": "Kanakapura Road", "craft": "watchmaker", "name": "Titan & Fastrack Watch Store", "operator": "Sri Nandi Enterprises", "payment:cash": "yes", "payment:debit_cards": "yes", "payment:upi": "yes", "shop": "watches"}}, {"type": "node", "id": 12686381796, "lat": 12.850866, "lon": 77.6575498}, {"type": "node", "id": 12686381797, "lat": 12.850864, "lon": 77.6575885}, {"type": "node", "id": 12686381798, "lat": 12.8508117, "lon": 77.6575885}, {"type": "node", "id": 12686381799, "lat": 12.8508033, "lon": 77.6575649}, {"type": "node", "id": 12686750594, "lat": 12.8543245, "lon": 77.6662026, "tags": {"addr:full": "2nd floor, Western silicon hotel Building, bus stop, 62/3, Hosur Rd, behind konappana agrahara, Konappana Agrahara, Electronic City, Bengaluru, Karnataka 560100", "beauty": "spa", "name": "Felicity Spa", "opening_hours": "Mo-Su 10:00-21:00", "operator": "Felicity", "phone": "+91 9886469009", "shop": "beauty"}}, {"type": "node", "id": 12706349455, "lat": 12.8647371, "lon": 77.6567357, "tags": {"brand": "Reliance Digital", "brand:wikidata": "Q7311012", "check_date": "2025-03-28", "name": "Reliance Digital", "shop": "electronics"}}, {"type": "node", "id": 12706349456, "lat": 12.860599, "lon": 77.6600081, "tags": {"brand": "Maruti Suzuki", "brand:wikidata": "Q963718", "check_date": "2025-03-28", "name": "Maruti Suzuki", "shop": "car"}}, {"type": "node", "id": 12706349458, "lat": 12.841374, "lon": 77.675306, "tags": {"check_date": "2025-03-28", "name": "Sofas and More Stanley", "shop": "furniture"}}, {"type": "node", "id": 12749347575, "lat": 12.8609396, "lon": 77.5426752, "tags": {"addr:street": "Holiday Village Road, off Kanakapura Road", "name": "Magique Family Saloon", "phone": "7975285129", "shop": "beauty"}}, {"type": "node", "id": 12751909442, "lat": 12.7812636, "lon": 77.6311552, "tags": {"check_date": "2025-04-13", "name": "Cycle World", "service:bicycle:repair": "yes", "service:bicycle:retail": "yes", "shop": "bicycle"}}, {"type": "node", "id": 12751909443, "lat": 12.7813169, "lon": 77.6310271, "tags": {"check_date": "2025-04-13", "name": "Just Bake", "shop": "bakery"}}, {"type": "node", "id": 12876472293, "lat": 12.8734918, "lon": 77.6511181, "tags": {"check_date": "2025-05-31", "name": "Precarmart", "second_hand": "only", "shop": "car", "source": "survey"}}, {"type": "node", "id": 12876472296, "lat": 12.8639476, "lon": 77.6586609, "tags": {"brand": "Hero", "brand:wikidata": "Q1613763", "check_date": "2025-05-31", "name": "Hero", "shop": "motorcycle", "source": "survey"}}, {"type": "node", "id": 12977407787, "lat": 12.8749227, "lon": 77.6496702, "tags": {"check_date": "2025-07-04", "second_hand": "only", "shop": "car"}}, {"type": "node", "id": 12985651797, "lat": 12.859971, "lon": 77.5424112, "tags": {"addr:street": "Tummy Town Food Court, Holiday Village Road, Bengaluru", "name": "Bunny Bakers", "shop": "bakery"}}, {"type": "node", "id": 13009702263, "lat": 12.8419252, "lon": 77.6440169, "tags": {"addr:city": "Bengaluru", "addr:housenumber": "Doddathoguru", "addr:postcode": "560100", "addr:street": "Neeladri Road", "brand": "Westside", "brand:wikidata": "Q123376384", "name": "Westside", "shop": "clothes"}}, {"type": "node", "id": 13009706620, "lat": 12.8426893, "lon": 77.6441226, "tags": {"addr:city": "Bengaluru", "addr:street": "Neeladri Road", "brand": "Zudio", "brand:wikidata": "Q123375926", "name": "Zudio", "shop": "clothes"}}, {"type": "node", "id": 13086260021, "lat": 12.8452017, "lon": 77.6650283, "tags": {"addr:city": "Bangalore", "addr:postcode": "560100", "addr:street": "Infosys Avenue", "name": "Livspace Showroom - Electronic City", "shop": "interior_decoration"}}, {"type": "node", "id": 13110965008, "lat": 12.8762879, "lon": 77.6133473, "tags": {"brand": "Theobroma", "brand:wikidata": "Q124374469", "delivery": "yes", "name": "Theobroma", "shop": "pastry", "takeaway": "yes"}}, {"type": "node", "id": 13110965033, "lat": 12.8736603, "lon": 77.6114062, "tags": {"name": "Ezeebag", "shop": "convenience"}}, {"type": "node", "id": 13112252454, "lat": 12.8487743, "lon": 77.6575738, "tags": {"brand": "Theobroma", "brand:wikidata": "Q124374469", "delivery": "yes", "name": "Theobroma", "shop": "pastry", "takeaway": "yes"}}, {"type": "node", "id": 13113992224, "lat": 12.8201768, "lon": 77.6603394, "tags": {"name": "Dream Mart", "shop": "supermarket"}}, {"type": "node", "id": 13115663809, "lat": 12.8600364, "lon": 77.5423748, "tags": {"name": "New Mangalore Store", "shop": "confectionery"}}, {"type": "node", "id": 13131019717, "lat": 12.859609, "lon": 77.5739469}, {"type": "node", "id": 13131019718, "lat": 12.8596098, "lon": 77.5739347}, {"type": "node", "id": 13131019719, "lat": 12.8595955, "lon": 77.573933}, {"type": "node", "id": 13131019720, "lat": 12.8595955, "lon": 77.5739494}, {"type": "node", "id": 13131326933, "lat": 12.8720023, "lon": 77.5701117, "tags": {"name": "veggie's lover - Tea, vegetables & groceries", "shop": "supermarket"}}, {"type": "node", "id": 13137769253, "lat": 12.8757671, "lon": 77.5440186, "tags": {"addr:street": "Kanakapura Road", "name": "Bloom n Bliss", "phone": "+918073101933", "shop": "florist"}}, {"type": "node", "id": 13245148812, "lat": 12.8781343, "lon": 77.5166908, "tags": {"brand": "Nandini", "brand:wikidata": "Q124374212", "name": "Nandini", "shop": "dairy"}}, {"type": "node", "id": 13249072186, "lat": 12.797608, "lon": 77.6058455, "tags": {"name": "Supreme Granite and Stones", "shop": "trade", "trade": "stone:granite,_marble,_tiles"}}, {"type": "node", "id": 13259525668, "lat": 12.8764048, "lon": 77.5755103, "tags": {"name": "Indian Garage", "shop": "motorcycle_repair"}}, {"type": "node", "id": 13259525669, "lat": 12.8765224, "lon": 77.5750231, "tags": {"name": "Sri Guruprasanna Enterprises", "shop": "mobile_phone_accessories"}}, {"type": "node", "id": 13259525670, "lat": 12.8765307, "lon": 77.5749621, "tags": {"name": "Sri mahalakshmi Fancy and gift center", "shop": "gift"}}, {"type": "node", "id": 13259525671, "lat": 12.8765326, "lon": 77.5749168, "tags": {"name": "Bengaluru Horticulture Flowers, Fruits and Vegetables shop", "shop": "greengrocer"}}, {"type": "node", "id": 13259525672, "lat": 12.8765388, "lon": 77.5748667, "tags": {"name": "Sri guru Samba Shiva rice traders", "shop": "convenience"}}, {"type": "node", "id": 13259525673, "lat": 12.8764914, "lon": 77.5746366, "tags": {"name": "Ramdev Departmental Store", "shop": "convenience"}}, {"type": "node", "id": 13285388550, "lat": 12.8695026, "lon": 77.5433905, "tags": {"addr:street": "Holiday Village Road, opp. to Mahindra Eden, Mallasandra, Bengaluru - 560062", "name": "New Coffee Katte", "shop": "coffee"}}, {"type": "way", "id": 133243134, "nodes": [1466635916, 1466635920, 1466635922, 1466635918, 1466635916], "tags": {"name": "Bimal Motors", "shop": "car"}}, {"type": "way", "id": 188431718, "nodes": [1990609265, 12508633793, 12508633794, 1990609271, 1990609337, 11618268739, 12511888173, 12511888174, 12511888175, 1990609336, 1990609265], "tags": {"landuse": "commercial", "name": "Nandi Toyota", "name:kn": "\u0ca8\u0c82\u0ca6\u0cbf \u0c9f\u0cca\u0caf\u0ccb\u0c9f", "shop": "car"}}, {"type": "way", "id": 250070608, "nodes": [2565850075, 5928737220, 2565850076, 2565850079, 5928737219, 2565850077, 9858691350, 2565850078, 5928737221, 2565850075], "tags": {"addr:city": "Bangalore", "addr:housenumber": "Survey No 33/1A, Bertana Agrahara, Begur", "addr:postcode": "560100", "addr:street": "Hosur Road", "brand": "METRO", "brand:wikidata": "Q13610282", "building": "yes", "name": "METRO", "phone": "+91 80 26082352", "shop": "wholesale", "source": "http://www.metro.co.in/", "website": "http://www.metro.co.in/"}}, {"type": "way", "id": 264102958, "nodes": [2697716962, 2697716963, 2697716924, 2697716923, 5381881834, 2697716962], "tags": {"building": "yes", "building:levels": "2", "name": "Olive beauty parlour", "parlour": "olive", "shop": "stationery"}}, {"type": "way", "id": 335028882, "nodes": [3421574816, 3421574817, 6434220179, 6434220178, 7298163698, 6434220177, 6434220176, 3421574815, 3421574814, 3421574813, 3421574816], "tags": {"brand": "Volkswagen", "brand:wikidata": "Q246", "landuse": "industrial", "name": "Volkswagen", "shop": "car_repair"}}, {"type": "way", "id": 347117181, "nodes": [3535272805, 3535272815, 3535272813, 3535272804, 3535272805], "tags": {"building": "yes", "name": "Easy Shopping Mart", "shop": "supermarket"}}, {"type": "way", "id": 347413110, "nodes": [3537392426, 3537392417, 3537392374, 3537392377, 3537392426], "tags": {"addr:city": "Bengaluru", "addr:district": "Bengaluru Urban", "addr:full": "Govinda Shetty Palya, Hosur Main Road, near Electronic City, Bengaluru-560100", "addr:postcode": "560100", "becknified": "true", "building": "commercial", "name": "Kiran General and Rice Store", "opening_hours": "9:00-21:00", "operator": "Plotch BPP App", "payment:cash": "yes", "phone": "+919880241365", "providerId": "amsterdam-bpp-app.plotch.store", "shop": "supermarket"}}, {"type": "way", "id": 349536480, "nodes": [3553860485, 3553860484, 3553860482, 3553860483, 3553860485], "tags": {"building": "yes", "name": "Advaith Hyundai Service Center Hulimavu", "name:kn": "\u0c85\u0ca6\u0ccd\u0cb5\u0cc8\u0ca4 \u0cb9\u0ccd\u0caf\u0cc1\u0c82\u0ca1\u0cbe\u0caf\u0ccd", "opening_hours": "Mo-Su 09:00-18:00", "shop": "car_repair"}}, {"type": "way", "id": 383730693, "nodes": [3870431434, 3870431435, 3870431436, 3870431437, 3870431434], "tags": {"addr:city": "Bengaluru, Karnataka", "addr:housenumber": "36/9", "addr:postcode": "560068", "addr:street": ", SLV Crystal Apartment, Begur-Koppa Rd, Near SNN Apartment, Yelenahalli,", "name": "Orange Supermarket", "phone": "9663379908", "shop": "supermarket"}}, {"type": "way", "id": 668612930, "nodes": [6261291850, 6261291851, 6261291852, 6261291853, 6261291854, 6261291858, 6261291855, 6261291860, 10084950597, 6261291856, 6261291859, 6261291857, 6261291850], "tags": {"building": "yes", "name": "Royal Meenakshi Mall", "name:en": "Royal Meenakshi Mall", "shop": "mall", "wheelchair": "yes"}}, {"type": "way", "id": 708592741, "nodes": [6658580088, 6658580089, 6658580090, 6658580091, 6658580088], "tags": {"addr:city": "bengaluru", "addr:housenumber": "#58/1", "addr:postcode": "560068", "addr:street": "Manipal County Road", "building": "yes", "contact:phone": "8861060004", "name": "FAB Hypermarket", "payment:cash": "yes", "payment:credit_cards": "yes", "payment:debit_cards": "yes", "phone": "08048544492", "shop": "supermarket"}}, {"type": "way", "id": 708987245, "nodes": [6662095292, 6662095293, 6662095294, 6662095295, 6662095292], "tags": {"building": "yes", "level": "0", "name": "Falkon Hypermarket", "shop": "supermarket", "wheelchair": "yes"}}, {"type": "way", "id": 760579375, "nodes": [7105207981, 7105207982, 7105207983, 7105215485, 7105207981], "tags": {"addr:street": "Kanakapura Road", "brand": "Honda", "brand:wikidata": "Q9584", "building": "yes", "name": "Magnum Honda", "payment:cash": "yes", "payment:credit_cards": "yes", "service:vehicle:car_repair": "yes", "service:vehicle:repairs": "yes", "shop": "car"}}, {"type": "way", "id": 1050574689, "nodes": [9654239493, 9654239492, 9654239491, 9654239490, 9654239493], "tags": {"building": "yes", "name": "Amlamrut", "shop": "convenience"}}, {"type": "way", "id": 1050574692, "nodes": [9654239505, 9654239504, 9654239503, 9654239502, 9654239505], "tags": {"building": "yes", "name": "Eco-Friendly Shop", "organic": "yes", "shop": "convenience"}}, {"type": "way", "id": 1072261799, "nodes": [10235931770, 459513958, 459513959, 1192791296, 1192791496, 9838468050, 9838468049, 9838468048, 10235931770], "tags": {"alt_name": "Mahindra Millennium Mall", "landuse": "retail", "name": "M5 ECity Mall", "shop": "mall", "toilets": "yes"}}, {"type": "way", "id": 1138589740, "nodes": [10613535247, 10613535248, 10613535249, 10613535250, 10613535251, 10613535252, 10613535253, 10613535254, 10613535247], "tags": {"addr:city": "Bengaluru", "addr:postcode": "560062", "addr:street": "Kanakapura Road", "brand": "DMart", "brand:wikidata": "Q5203271", "building": "yes", "diet:gluten_free": "limited", "diet:lactose_free": "limited", "diet:sugar_free": "limited", "dog": "no", "email": "customerservice@dmart.in", "internet_access": "no", "name": "DMart", "payment:cards": "yes", "payment:cash": "yes", "payment:credit_cards": "yes", "payment:debit_cards": "yes", "payment:mastercard": "yes", "payment:qr_code": "yes", "payment:upi": "yes", "payment:visa": "yes", "phone": "+91 40 4691 1700", "shop": "supermarket", "website": "https://dmart.in"}}, {"type": "way", "id": 1144623862, "nodes": [10654009334, 10654009335, 10654009336, 10654009337, 10654009334], "tags": {"addr:city": "Bengaluru", "addr:housenumber": "116", "addr:postcode": "560062", "addr:street": "Kumarans School Holiday Village Road", "air_conditioning": "yes", "building": "yes", "check_date": "2023-10-13", "currency:INR": "yes", "diet:gluten_free": "limited", "diet:lactose_free": "limited", "diet:sugar_free": "limited", "dog": "no", "internet_access": "no", "level": "0", "name": "Market Fresh", "name:ta": "\u0bae\u0bbe\u0bb0\u0bcd\u0b95\u0bcd\u0b95\u0bc6\u0b9f\u0bcd \u0b83\u0baa\u0bc6\u0bb0\u0bc6\u0bb7\u0bcd", "opening_hours": "Mo-Su 07:30-22:00", "payment:cards": "yes", "payment:cash": "yes", "payment:credit_cards": "yes", "payment:debit_cards": "yes", "payment:qr_code": "yes", "payment:upi": "yes", "phone": "+91 88615 53742", "shop": "supermarket", "stroller": "yes", "toilets": "yes", "wheelchair": "no"}}, {"type": "way", "id": 1149959392, "nodes": [7682106713, 4489406969, 11250389077, 10697710346, 10697710347, 7682106714, 7682106713], "tags": {"addr:city": "Bangalore", "addr:housenumber": "# 1st", "addr:postcode": "560083", "addr:street": "Raj Alkaa Park, Kalena Agrahara, Bannerghatta Main Road, Himagiri Meadows", "brand": "Decathlon", "brand:wikidata": "Q509349", "name": "Decathlon", "name:kn": "\u0ca1\u0cc6\u0c95\u0cbe\u0ca4\u0ccd\u0cb2\u0cbe\u0ca8\u0ccd", "opening_hours": "09:00-22:00", "phone": "08095556217", "shop": "sports", "website": "https://decathlon.in/"}}, {"type": "way", "id": 1248131249, "nodes": [11602288097, 11602288096, 11602288095, 11602288094, 11602288097], "tags": {"building": "yes", "building:levels": "1", "name": "Supreme Granite and Stones", "shop": "trade"}}, {"type": "way", "id": 1278735171, "nodes": [11871336486, 11871336485, 11871336484, 11871336483, 11871336486], "tags": {"brand": "DMart", "brand:wikidata": "Q5203271", "landuse": "retail", "name": "DMart", "shop": "supermarket"}}, {"type": "way", "id": 1306167504, "nodes": [12097148759, 12097148760, 12097148761, 12097148762, 12097148759], "tags": {"addr:city": "Electronic City", "addr:housenumber": "Golahalli Main Road", "addr:postcode": "560100", "building": "commercial", "building:levels": "4", "name": "Village Market (Supermarket)", "opening_hours": "08:00-22:00", "operator": "Village Group", "payment:app": "yes", "payment:cash": "yes", "payment:credit_cards": "yes", "payment:debit_cards": "yes", "payment:nfc": "yes", "shop": "supermarket", "wheelchair": "yes"}}, {"type": "way", "id": 1351989863, "nodes": [12508633824, 12508633792, 12508633791, 12508633823, 12508633824], "tags": {"landuse": "industrial", "shop": "car_repair"}}, {"type": "way", "id": 1369863998, "nodes": [12686381796, 12686381797, 12686381798, 12686381799, 12686381796], "tags": {"addr:city": "Bangalore", "addr:district": "Bengaluru Urban", "addr:full": "51/16, Grand falcon hotel building, Doddathogur Road, Near Velankani Tecch Park, Electronics City Phase 1, Electronic City, Bengaluru, Karnataka 560100", "addr:postcode": "560100", "beauty": "spa", "building": "yes", "name": "Aluna Thai Spa in Electronic City", "opening_hours": "Mo-Su 10:30-21:00", "operator": "Aluna", "phone": "+91 9025928992", "shop": "beauty"}}, {"type": "way", "id": 1428295513, "nodes": [13131019717, 13131019718, 13131019719, 13131019720, 13131019717], "tags": {"addr:city": "Bangalore", "addr:district": "Bangalore Urban", "addr:housenumber": "VH5F+QGX, 80 Feet Road, Shekar Layout, Royal County, Classic Pleasant Ville Layout, Gottigere, Bengaluru, Kothnur, Karnataka", "addr:postcode": "560083", "addr:street": "80 Ft Road", "branch": "Milk Parlour", "brand": "Nandini", "brand:wikidata": "Q124374212", "building": "yes", "name": "Nandini", "opening_hours": "Mo-Su 08:00-20:00", "payment:cash": "yes", "payment:upi": "yes", "shop": "dairy"}}]}