{"version": 0.6, "generator": "Overpass API 0.7.62.8 e802775f", "osm3s": {"timestamp_osm_base": "2025-11-29T17:11:55Z", "copyright": "The data included in this document is from www.openstreetmap.org. The data is made available under ODbL."}, "elements": [{"type": "node", "id": 2573448162, "lat": 16.7481251, "lon": 77.4142165, "tags": {"amenity": "school", "name": "Government Higher Primary School Anapur", "name:kn": "\u0cb8\u0cb0\u0ccd\u0c95\u0cbe\u0cb0\u0cbf \u0cb9\u0cbf\u0cb0\u0cbf\u0caf \u0caa\u0ccd\u0cb0\u0cbe\u0ca5\u0cae\u0cbf\u0c95 \u0cb6\u0cbe\u0cb2\u0cc6 \u0c85\u0ca8\u0caa\u0cc2\u0cb0", "operator": "Government", "school_code": "29331000301", "taluk": "Yadgir"}}, {"type": "node", "id": 2573448187, "lat": 16.58744, "lon": 77.42392, "tags": {"amenity": "school", "name": "Government Higher Primary School Azalapur", "name:kn": "\u0cb8\u0cb0\u0ccd\u0c95\u0cbe\u0cb0\u0cbf \u0cb9\u0cbf\u0cb0\u0cbf\u0caf \u0caa\u0ccd\u0cb0\u0cbe\u0ca5\u0cae\u0cbf\u0c95 \u0cb6\u0cbe\u0cb2\u0cc6 \u0c85\u0c9c\u0cb2\u0cbe\u0caa\u0cc2\u0cb0", "operator": "Government", "school_code": "29331000901", "taluk": "Yadgir"}}, {"type": "node", "id": 2573448228, "lat": 16.49272, "lon": 77.27557, "tags": {"amenity": "school", "name": "Government Higher Primary School Badiyal", "name:kn": "\u0cb8\u0cb0\u0ccd\u0c95\u0cbe\u0cb0\u0cbf \u0cb9\u0cbf\u0cb0\u0cbf\u0caf \u0caa\u0ccd\u0cb0\u0cbe\u0ca5\u0cae\u0cbf\u0c95 \u0cb6\u0cbe\u0cb2\u0cc6 \u0cac\u0cbe\u0ca1\u0cbf\u0caf\u0cbe\u0cb3", "operator": "Government", "school_code": "29331001201", "taluk": "Yadgir"}}, {"type": "node", "id": 2573448374, "lat": 16.6797874, "lon": 77.4326234, "tags": {"amenity": "school", "name": "Government Higher Primary School Gornur", "name:kn": "\u0cb8\u0cb0\u0ccd\u0c95\u0cbe\u0cb0\u0cbf \u0cb9\u0cbf\u0cb0\u0cbf\u0caf \u0caa\u0ccd\u0cb0\u0cbe\u0ca5\u0cae\u0cbf\u0c95 \u0cb6\u0cbe\u0cb2\u0cc6, \u0c97\u0cca\u0cb0\u0cc1\u0ca8\u0cc2\u0cb0\u0cc1", "operator": "Government", "school_code": "29331004401", "taluk": "Yadgir"}}, {"type": "node", "id": 2573448417, "lat": 16.6469468, "lon": 77.4247125, "tags": {"addr:place": "Jayagrama", "amenity": "school", "name": "Government Higher Primary School", "name:kn": "\u0cb8\u0cb0\u0ccd\u0c95\u0cbe\u0cb0\u0cbf \u0cb9\u0cbf\u0cb0\u0cbf\u0caf \u0caa\u0ccd\u0cb0\u0cbe\u0ca5\u0cae\u0cbf\u0c95 \u0cb6\u0cbe\u0cb2\u0cc6 \u0c9c\u0cc8\u0c97\u0ccd\u0cb0\u0cbe\u0cae", "operator": "Government", "taluk": "Yadgir"}}, {"type": "node", "id": 2573448536, "lat": 16.69926, "lon": 77.4483, "tags": {"amenity": "school", "name": "Government Higher Primary School Nasalwai", "name:kn": "\u0cb8\u0cb0\u0ccd\u0c95\u0cbe\u0cb0\u0cbf \u0cb9\u0cbf\u0cb0\u0cbf\u0caf \u0caa\u0ccd\u0cb0\u0cbe\u0ca5\u0cae\u0cbf\u0c95 \u0cb6\u0cbe\u0cb2\u0cc6 \u0ca8\u0cb8\u0cb2\u0cb5\u0cbe\u0caf\u0cbf", "operator": "Government", "school_code": "29331009802", "taluk": "Yadgir"}}, {"type": "node", "id": 2573448601, "lat": 16.63, "lon": 77.46187, "tags": {"amenity": "school", "name": "Government Higher Primary School Sanklapur", "name:kn": "\u0cb8\u0cb0\u0ccd\u0c95\u0cbe\u0cb0\u0cbf \u0cb9\u0cbf\u0cb0\u0cbf\u0caf \u0caa\u0ccd\u0cb0\u0cbe\u0ca5\u0cae\u0cbf\u0c95 \u0cb6\u0cbe\u0cb2\u0cc6 \u0cb8\u0c82\u0c95\u0ccd\u0cb2\u0cbe\u0caa\u0cc1\u0cb0", "operator": "Government", "school_code": "29331011401", "taluk": "Yadgir"}}, {"type": "node", "id": 2573448640, "lat": 16.59183, "lon": 77.42508, "tags": {"amenity": "school", "name": "Government Higher Primary School Urdu Azalapur", "name:kn": "\u0cb8\u0cb0\u0ccd\u0c95\u0cbe\u0cb0\u0cbf \u0cb9\u0cbf\u0cb0\u0cbf\u0caf \u0caa\u0ccd\u0cb0\u0cbe\u0ca5\u0cae\u0cbf\u0c95 \u0c89\u0cb0\u0ccd\u0ca6\u0cc1 \u0cb6\u0cbe\u0cb2\u0cc6 \u0c85\u0c9c\u0cb2\u0cbe\u0caa\u0cc2\u0cb0", "operator": "Government", "school_code": "29331000902", "taluk": "Yadgir"}}, {"type": "node", "id": 2573448652, "lat": 16.5179, "lon": 77.32598, "tags": {"amenity": "school", "name": "Government Higher Primary School Urdu Kadechur", "name:kn": "\u0cb8\u0cb0\u0ccd\u0c95\u0cbe\u0cb0\u0cbf \u0cb9\u0cbf\u0cb0\u0cbf\u0caf \u0caa\u0ccd\u0cb0\u0cbe\u0ca5\u0cae\u0cbf\u0c95 \u0c89\u0cb0\u0ccd\u0ca6\u0cc1 \u0cb6\u0cbe\u0cb2\u0cc6 \u0c95\u0ca1\u0cc7\u0c9a\u0cc2\u0cb0\u0cc1", "operator": "Government", "school_code": "29331005403", "taluk": "Yadgir"}}, {"type": "node", "id": 2573448692, "lat": 16.49565, "lon": 77.3641, "tags": {"amenity": "school", "name": "Government Lower Primary School Bammaral Doddi", "name:kn": "\u0cb8\u0cb0\u0ccd\u0c95\u0cbe\u0cb0\u0cbf \u0c95\u0cbf\u0cb0\u0cbf\u0caf \u0caa\u0ccd\u0cb0\u0cbe\u0ca5\u0cae\u0cbf\u0c95 \u0cb6\u0cbe\u0cb2\u0cc6 \u0cac\u0cca\u0cae\u0cb0\u0cbe\u0cb2\u0ca6\u0cca\u0ca1\u0ccd\u0ca1\u0cbf", "operator": "Government", "school_code": "29331002101", "taluk": "Yadgir"}}, {"type": "node", "id": 2573448694, "lat": 16.6182719, "lon": 77.4130792, "tags": {"amenity": "school", "name": "Government Lower Primary School Bassapura", "name:kn": "\u0cb8\u0cb0\u0ccd\u0c95\u0cbe\u0cb0\u0cbf \u0c95\u0cbf\u0cb0\u0cbf\u0caf \u0caa\u0ccd\u0cb0\u0cbe\u0ca5\u0cae\u0cbf\u0c95 \u0cb6\u0cbe\u0cb2\u0cc6", "operator": "Government", "school_code": "29331017601", "taluk": "Yadgir"}}, {"type": "node", "id": 2573448724, "lat": 16.695298, "lon": 77.4308067, "tags": {"amenity": "school", "name": "Government Lower Primary School Kunti Mari", "name:kn": "\u0cb8\u0cb0\u0ccd\u0c95\u0cbe\u0cb0\u0cbf \u0c95\u0cbf\u0cb0\u0cbf\u0caf \u0caa\u0ccd\u0cb0\u0cbe\u0ca5\u0cae\u0cbf\u0c95 \u0cb6\u0cbe\u0cb2\u0cc6, \u0c95\u0cc1\u0c82\u0c9f\u0cbf\u0cae\u0cbe\u0cb0\u0cbf", "operator": "Government", "school_code": "29331007301", "taluk": "Yadgir"}}, {"type": "node", "id": 2573448732, "lat": 16.50365, "lon": 77.3303, "tags": {"addr:place": "Mavinahalli", "amenity": "school", "name": "Government Lower Primary School", "name:kn": "\u0cb8\u0cb0\u0ccd\u0c95\u0cbe\u0cb0\u0cbf \u0c95\u0cbf\u0cb0\u0cbf\u0caf \u0caa\u0ccd\u0cb0\u0cbe\u0ca5\u0cae\u0cbf\u0c95 \u0cb6\u0cbe\u0cb2\u0cc6", "operator": "Government", "taluk": "Yadgir"}}, {"type": "node", "id": 2573448756, "lat": 16.5286, "lon": 77.29117, "tags": {"amenity": "school", "name": "Govt Lower Primary School Shettihalli", "name:kn": "\u0cb8\u0cb0\u0ccd\u0c95\u0cbe\u0cb0\u0cbf \u0c95\u0cbf\u0cb0\u0cbf\u0caf \u0caa\u0ccd\u0cb0\u0cbe\u0ca5\u0cae\u0cbf\u0c95 \u0cb6\u0cbe\u0cb2\u0cc6, \u0cb6\u0cc6\u0c9f\u0ccd\u0c9f\u0cbf\u0cb9\u0cb3\u0ccd\u0cb3\u0cbf", "operator": "Government", "school_code": "29331011601", "taluk": "Yadgir"}}, {"type": "node", "id": 2573448766, "lat": 16.7479786, "lon": 77.4144464, "tags": {"amenity": "school", "name": "Government Lower Primary School Urdu Anapur", "name:kn": "\u0cb8\u0cb0\u0ccd\u0c95\u0cbe\u0cb0\u0cbf \u0c95\u0cbf\u0cb0\u0cbf\u0caf \u0caa\u0ccd\u0cb0\u0cbe\u0ca5\u0cae\u0cbf\u0c95 \u0c89\u0cb0\u0ccd\u0ca6\u0cc1 \u0cb6\u0cbe\u0cb2\u0cc6 \u0c85\u0ca8\u0caa\u0cc2\u0cb0", "operator": "Government", "school_code": "29331000303", "taluk": "Yadgir"}}, {"type": "node", "id": 2573448767, "lat": 16.53175, "lon": 77.36596, "tags": {"amenity": "school", "name": "Govt Lower Primary School Urdu Chandapura", "name:kn": "\u0cb8\u0cb0\u0ccd\u0c95\u0cbe\u0cb0\u0cbf \u0c95\u0cbf\u0cb0\u0cbf\u0caf \u0caa\u0ccd\u0cb0\u0cbe\u0ca5\u0cae\u0cbf\u0c95 \u0c89\u0cb0\u0ccd\u0ca6\u0cc1 \u0cb6\u0cbe\u0cb2\u0cc6 \u0c9a\u0c82\u0ca6\u0cbe\u0caa\u0cc2\u0cb0", "operator": "Government", "school_code": "29331017501", "taluk": "Yadgir"}}, {"type": "node", "id": 2573448776, "lat": 16.701, "lon": 77.44593, "tags": {"amenity": "school", "name": "Government Lower Primary School Urdu Naslval", "name:kn": "\u0cb8\u0cb0\u0ccd\u0c95\u0cbe\u0cb0\u0cbf \u0c95\u0cbf\u0cb0\u0cbf\u0caf \u0caa\u0ccd\u0cb0\u0cbe\u0ca5\u0cae\u0cbf\u0c95 \u0c89\u0cb0\u0ccd\u0ca6\u0cc1 \u0cb6\u0cbe\u0cb2\u0cc6 \u0ca8\u0cb8\u0cb2\u0cb5\u0cbe\u0caf\u0cbf", "operator": "Government", "school_code": "29331009803", "taluk": "Yadgir"}}, {"type": "node", "id": 2573448785, "lat": 16.51824, "lon": 77.32583, "tags": {"amenity": "school", "name": "Government Model Primary School Kadechuru", "name:kn": "\u0cb8\u0cb0\u0ccd\u0c95\u0cbe\u0cb0\u0cbf \u0cae\u0cbe\u0ca6\u0cb0\u0cbf \u0caa\u0ccd\u0cb0\u0cbe\u0ca5\u0cae\u0cbf\u0c95 \u0cb6\u0cbe\u0cb2\u0cc6, \u0c95\u0ca1\u0cc7\u0c9a\u0cc2\u0cb0\u0cc1", "operator": "Government", "school_code": "29331005401", "taluk": "Yadgir"}}, {"type": "node", "id": 2573448801, "lat": 16.5957, "lon": 77.42601, "tags": {"amenity": "school", "name": "Government High School Ajalapura", "name:kn": "\u0cb8\u0cb0\u0ccd\u0c95\u0cbe\u0cb0\u0cbf \u0caa\u0ccd\u0cb0\u0ccc\u0ca1 \u0cb6\u0cbe\u0cb2\u0cc6 \u0c85\u0c9c\u0cb2\u0cbe\u0caa\u0cc2\u0cb0", "operator": "Government", "school_code": "29331000903", "taluk": "Yadgir"}}, {"type": "node", "id": 2573448806, "lat": 16.6145416, "lon": 77.4354805, "tags": {"amenity": "school", "name": "Government High School Edlur", "name:kn": "\u0cb8\u0cb0\u0ccd\u0c95\u0cbe\u0cb0\u0cbf \u0caa\u0ccd\u0cb0\u0ccc\u0ca1 \u0cb6\u0cbe\u0cb2\u0cc6 \u0c87\u0ca1\u0ccd\u0cb2\u0cc2\u0cb0\u0cc1", "operator": "Government", "school_code": "29331003502", "taluk": "Yadgir"}}, {"type": "node", "id": 2573448810, "lat": 16.51836, "lon": 77.32567, "tags": {"amenity": "school", "name": "Government High School Kadechuru", "name:kn": "\u0cb8\u0cb0\u0ccd\u0c95\u0cbe\u0cb0\u0cbf \u0caa\u0ccd\u0cb0\u0ccc\u0ca1 \u0cb6\u0cbe\u0cb2\u0cc6 \u0c95\u0ca1\u0cc7\u0c9a\u0cc2\u0cb0\u0cc1", "operator": "Government", "school_code": "29331005404", "taluk": "Yadgir"}}, {"type": "node", "id": 2587676063, "lat": 16.59797, "lon": 77.4528, "tags": {"amenity": "school", "name": "Govt LPS Cheler", "name:kn": "\u0cb8\u0cb0\u0ccd\u0c95\u0cbe\u0cb0\u0cbf \u0c95\u0cbf\u0cb0\u0cbf\u0caf \u0caa\u0ccd\u0cb0\u0cbe\u0ca5\u0cae\u0cbf\u0c95 \u0cb6\u0cbe\u0cb2\u0cc6", "operator": "Government", "school_code": "29331002501", "taluk": "Yadgir"}}, {"type": "node", "id": 2632325826, "lat": 16.6058561, "lon": 77.4081029, "tags": {"amenity": "school", "name": "Government Higher Primary School Urdu Turukandoddi", "name:kn": "\u0cb8\u0cb0\u0ccd\u0c95\u0cbe\u0cb0\u0cbf \u0cb9\u0cbf\u0cb0\u0cbf\u0caf \u0caa\u0ccd\u0cb0\u0cbe\u0ca5\u0cae\u0cbf\u0c95 \u0c89\u0cb0\u0ccd\u0ca6\u0cc1 \u0cb6\u0cbe\u0cb2\u0cc6", "operator": "Government", "taluk": "Yadgir"}}, {"type": "node", "id": 2632326089, "lat": 16.7543, "lon": 77.3115, "tags": {"amenity": "school", "name": "Government Higher Primary School Ghanapura", "name:kn": "\u0cb8\u0cb0\u0ccd\u0c95\u0cbe\u0cb0\u0cbf \u0cb9\u0cbf\u0cb0\u0cbf\u0caf \u0caa\u0ccd\u0cb0\u0cbe\u0ca5\u0cae\u0cbf\u0c95 \u0cb6\u0cbe\u0cb2\u0cc6 \u0c97\u0ca3\u0caa\u0cc1\u0cb0", "operator": "Government", "taluk": "Yadgir"}}, {"type": "node", "id": 2632326365, "lat": 16.666018, "lon": 77.3705083, "tags": {"amenity": "school", "name": "Government Higher Primary School Toranatippa", "name:kn": "\u0cb8\u0cb0\u0ccd\u0c95\u0cbe\u0cb0\u0cbf \u0cb9\u0cbf\u0cb0\u0cbf\u0caf \u0caa\u0ccd\u0cb0\u0cbe\u0ca5\u0cae\u0cbf\u0c95 \u0cb6\u0cbe\u0cb2\u0cc6 \u0ca4\u0ccb\u0cb0\u0ca3\u0ca4\u0cbf\u0caa\u0ccd\u0caa", "operator": "Government", "taluk": "Yadgir"}}, {"type": "node", "id": 2632326369, "lat": 16.6058896, "lon": 77.4078623, "tags": {"amenity": "school", "name": "Government Higher Primary School Turukadoddi", "name:kn": "\u0cb8\u0cb0\u0ccd\u0c95\u0cbe\u0cb0\u0cbf \u0cb9\u0cbf\u0cb0\u0cbf\u0caf \u0caa\u0ccd\u0cb0\u0cbe\u0ca5\u0cae\u0cbf\u0c95 \u0cb6\u0cbe\u0cb2\u0cc6", "operator": "Government", "taluk": "Yadgir"}}, {"type": "node", "id": 5488238715, "lat": 16.7470667, "lon": 77.4106175}, {"type": "node", "id": 5488238716, "lat": 16.7479585, "lon": 77.4107636}, {"type": "node", "id": 5488238717, "lat": 16.7480278, "lon": 77.4106587}, {"type": "node", "id": 5488238718, "lat": 16.7476921, "lon": 77.4107221}, {"type": "node", "id": 5488238719, "lat": 16.748252, "lon": 77.4103653}, {"type": "node", "id": 5488238720, "lat": 16.74705, "lon": 77.410073}, {"type": "node", "id": 5488238821, "lat": 16.7469909, "lon": 77.4105531}, {"type": "node", "id": 5488238822, "lat": 16.7471835, "lon": 77.410655}, {"type": "node", "id": 5488238823, "lat": 16.7474301, "lon": 77.4107006}, {"type": "node", "id": 5488238825, "lat": 16.7481955, "lon": 77.4104109}, {"type": "node", "id": 6847212580, "lat": 16.7449638, "lon": 77.4926121, "tags": {"amenity": "school", "name": "Govt Girls High School", "source": "survey"}}, {"type": "node", "id": 8733945166, "lat": 16.5525979, "lon": 77.2778523}, {"type": "node", "id": 8733945167, "lat": 16.5519424, "lon": 77.2788118}, {"type": "node", "id": 8733945168, "lat": 16.5506584, "lon": 77.2786614}, {"type": "node", "id": 8733945169, "lat": 16.5498726, "lon": 77.2786614}, {"type": "node", "id": 8733945170, "lat": 16.5494078, "lon": 77.2787644}, {"type": "node", "id": 8733945171, "lat": 16.549523, "lon": 77.2774726}, {"type": "node", "id": 8733945172, "lat": 16.5505555, "lon": 77.2774426}, {"type": "node", "id": 8733945173, "lat": 16.5514852, "lon": 77.2776614}, {"type": "way", "id": 570921135, "nodes": [5488238825, 5488238717, 5488238716, 5488238718, 5488238823, 5488238822, 5488238715, 5488238821, 5488238720, 5488238719, 5488238825], "tags": {"amenity": "school", "name": "Government High School, Anpur", "name:kn": "\u0cb8\u0cb0\u0ccd\u0c95\u0cbe\u0cb0\u0cbf \u0caa\u0ccd\u0cb0\u0ccc\u0ca1\u0cb6\u0cbe\u0cb2\u0cc6 \u0c85\u0ca8\u0caa\u0cc2\u0cb0"}}, {"type": "way", "id": 943252361, "nodes": [8733945166, 8733945167, 8733945168, 8733945169, 8733945170, 8733945171, 8733945172, 8733945173, 8733945166], "tags": {"amenity": "school", "name": "Kittur Rani Chennamma Residential School", "name:etymology:wikidata": "Q3536979", "operator": "Govt of Karnataka", "operator:type": "government"}}]}