{"version": 0.6, "generator": "Overpass API 0.7.62.8 e802775f", "osm3s": {"timestamp_osm_base": "2025-11-29T17:17:56Z", "copyright": "The data included in this document is from www.openstreetmap.org. The data is made available under ODbL."}, "elements": [{"type": "node", "id": 1815853642, "lat": 17.7233671, "lon": 83.3184421, "tags": {"addr:postcode": "530003", "amenity": "bank", "atm": "yes", "brand:wikidata": "Q2003476", "brand:wikipedia": "en:Andhra Bank", "check_date": "2024-02-11", "name": "Union Bank", "name:en": "Union Bank"}}, {"type": "node", "id": 1824367464, "lat": 17.7433577, "lon": 83.337881, "tags": {"addr:street": "MVP Main Rd, MVP ColonyVisakhapatnam(Vizag), Andhra Pradesh, India", "amenity": "bank", "brand": "SBI", "brand:wikidata": "Q1340361", "brand:wikipedia": "en:State Bank of India", "name": "State Bank of India", "short_name": "SBI", "website": "https://www.sbi.co.in"}}, {"type": "node", "id": 1824367493, "lat": 17.7432733, "lon": 83.3383985, "tags": {"amenity": "bank", "brand:wikidata": "Q2003797", "brand:wikipedia": "en:Bank of Baroda", "name": "Bank of Baroda", "name:en": "Bank of Baroda", "short_name": "BoB", "website": "http://www.bankofbaroda.com"}}, {"type": "node", "id": 3574044430, "lat": 17.7580458, "lon": 83.3336715, "tags": {"amenity": "bank", "atm": "no", "branch": "Visalakhi Nagar", "brand": "State Bank of India", "brand:wikidata": "Q1340361", "brand:wikipedia": "en:State Bank of India", "name": "State Bank of India", "short_name": "SBI"}}, {"type": "node", "id": 3923016957, "lat": 17.7241652, "lon": 83.3268901}, {"type": "node", "id": 3923016958, "lat": 17.7243415, "lon": 83.3268829}, {"type": "node", "id": 3923016959, "lat": 17.7243513, "lon": 83.327147}, {"type": "node", "id": 3923016960, "lat": 17.7241749, "lon": 83.3271542}, {"type": "node", "id": 3969756843, "lat": 17.7264205, "lon": 83.3195855}, {"type": "node", "id": 3969756844, "lat": 17.7264669, "lon": 83.3195316}, {"type": "node", "id": 3969756845, "lat": 17.7264861, "lon": 83.3195498}, {"type": "node", "id": 3969756847, "lat": 17.7265282, "lon": 83.319501}, {"type": "node", "id": 3969756848, "lat": 17.7265436, "lon": 83.3195157}, {"type": "node", "id": 3969756849, "lat": 17.7266473, "lon": 83.319801}, {"type": "node", "id": 3969756850, "lat": 17.7267182, "lon": 83.3192419}, {"type": "node", "id": 3969756851, "lat": 17.7267519, "lon": 83.3192739}, {"type": "node", "id": 3969756852, "lat": 17.7267387, "lon": 83.3196949}, {"type": "node", "id": 3969756853, "lat": 17.7267654, "lon": 83.3191871}, {"type": "node", "id": 3969756855, "lat": 17.7266597, "lon": 83.3196198}, {"type": "node", "id": 3969756856, "lat": 17.726827, "lon": 83.3192456}, {"type": "node", "id": 3969776957, "lat": 17.7266993, "lon": 83.3195738}, {"type": "node", "id": 3969776958, "lat": 17.7268491, "lon": 83.3195473}, {"type": "node", "id": 3969776959, "lat": 17.7268268, "lon": 83.3194161}, {"type": "node", "id": 3969776960, "lat": 17.7268645, "lon": 83.3195295}, {"type": "node", "id": 3969776961, "lat": 17.7268386, "lon": 83.3192321}, {"type": "node", "id": 3969776962, "lat": 17.7269288, "lon": 83.3195906}, {"type": "node", "id": 3969776963, "lat": 17.7269041, "lon": 83.3194895}, {"type": "node", "id": 3969776964, "lat": 17.7269966, "lon": 83.3193822}, {"type": "node", "id": 4050143627, "lat": 17.7225327, "lon": 83.3304902, "tags": {"addr:street": "tamil street", "amenity": "bank", "atm": "yes", "brand": "ICICI", "brand:wikidata": "Q1653258", "name": "ICICI Bank", "name:en": "ICICI Bank", "short_name": "ICICI", "website": "https://www.icicibank.com", "wikidata": "Q1653258", "wikipedia": "en:ICICI Bank"}}, {"type": "node", "id": 4050155430, "lat": 17.7227664, "lon": 83.3307893, "tags": {"addr:street": "tamil street", "amenity": "bank", "brand:wikidata": "Q2004088", "name": "Syndicate Bank", "name:en": "Syndicate Bank", "website": "https://www.syndicatebank.in", "wikidata": "Q2004088", "wikipedia": "en:Syndicate Bank"}}, {"type": "node", "id": 4052444801, "lat": 17.7276915, "lon": 83.3192457}, {"type": "node", "id": 4052444802, "lat": 17.7278071, "lon": 83.3194018}, {"type": "node", "id": 4052444803, "lat": 17.7276578, "lon": 83.3195237}, {"type": "node", "id": 4052444804, "lat": 17.7275422, "lon": 83.3193676}, {"type": "node", "id": 4061670866, "lat": 17.7267631, "lon": 83.3187143}, {"type": "node", "id": 4061670867, "lat": 17.7266992, "lon": 83.3186433}, {"type": "node", "id": 4061670868, "lat": 17.7265945, "lon": 83.3187519}, {"type": "node", "id": 4061670869, "lat": 17.7266737, "lon": 83.318835}, {"type": "node", "id": 4061670870, "lat": 17.7267312, "lon": 83.318768}, {"type": "node", "id": 4095692899, "lat": 17.7388289, "lon": 83.3001943, "tags": {"amenity": "bank", "atm": "yes", "brand": "State Bank of India", "brand:wikidata": "Q1340361", "brand:wikipedia": "en:State Bank of India", "name": "State Bank of India", "short_name": "SBI"}}, {"type": "node", "id": 4095692900, "lat": 17.7383597, "lon": 83.2997883, "tags": {"amenity": "bank", "atm": "yes", "brand": "HDFC Bank", "brand:wikidata": "Q631047", "brand:wikipedia": "en:HDFC Bank", "name": "HDFC Bank", "short_name": "HDFC", "website": "https://www.hdfcbank.com"}}, {"type": "node", "id": 4095692902, "lat": 17.7379868, "lon": 83.3001745, "tags": {"amenity": "bank", "atm": "yes", "brand:wikidata": "Q1340361", "brand:wikipedia": "en:State Bank of India", "name": "State Bank of India", "short_name": "SBI", "website": "https://www.sbi.co.in"}}, {"type": "node", "id": 4148730056, "lat": 17.8045923, "lon": 83.3554154, "tags": {"addr:city": "visakhapatnam", "addr:postcode": "530041", "addr:street": "Mithilapuri Colony Road", "amenity": "bank", "atm": "yes", "brand:wikidata": "Q2004439", "brand:wikipedia": "en:Bank of India", "name": "Bank of India", "name:en": "Bank of India", "operator": "Bank Of India", "short_name": "BoI", "website": "https://www.bankofindia.co.in/"}}, {"type": "node", "id": 4274862404, "lat": 17.7196417, "lon": 83.3064945, "tags": {"amenity": "bank", "atm": "yes", "brand": "State Bank of India", "brand:wikidata": "Q1340361", "brand:wikipedia": "en:State Bank of India", "mapillary": "550136006362754", "name": "State Bank of India", "short_name": "SBI"}}, {"type": "node", "id": 4299599962, "lat": 17.7154918, "lon": 83.3075044, "tags": {"amenity": "bank"}}, {"type": "node", "id": 4305483313, "lat": 17.7223052, "lon": 83.3165051, "tags": {"amenity": "bank"}}, {"type": "node", "id": 4483401707, "lat": 17.7340863, "lon": 83.3318508, "tags": {"amenity": "bank", "atm": "yes", "brand:wikidata": "Q2003611", "brand:wikipedia": "en:Indian Overseas Bank", "check_date": "2025-08-30", "name": "Indian Overseas Bank", "name:en": "Indian Overseas Bank", "short_name": "IOB", "website": "https://www.iob.in"}}, {"type": "node", "id": 4541109256, "lat": 17.7415448, "lon": 83.3325477, "tags": {"addr:postcode": "530017", "addr:street": "Sector 5 MVP", "amenity": "bank", "atm": "yes", "brand": "Punjab National Bank", "brand:wikidata": "Q2743499", "name": "Punjab National Bank", "name:en": "Punjab National Bank", "short_name": "PNB", "website": "https://www.pnbindia.in"}}, {"type": "node", "id": 4541118445, "lat": 17.7422046, "lon": 83.3312928, "tags": {"addr:city": "visakhapatnam", "addr:postcode": "530017", "addr:street": "Sector 4 MVP", "amenity": "bank", "atm": "yes", "brand:wikidata": "Q2003387", "brand:wikipedia": "en:Corporation Bank", "name": "Corporation Bank", "name:en": "Corporation Bank", "website": "https://corpbank.com/"}}, {"type": "node", "id": 4541118446, "lat": 17.7426196, "lon": 83.3281991, "tags": {"addr:postcode": "530017", "addr:street": "sector 4 MVP", "amenity": "bank", "atm": "yes", "brand": "ICICI", "brand:wikidata": "Q1653258", "name": "ICICI Bank", "name:en": "ICICI Bank", "short_name": "ICICI", "website": "https://www.icicibank.com", "wikidata": "Q1653258", "wikipedia": "en:ICICI Bank"}}, {"type": "node", "id": 4541118447, "lat": 17.7423017, "lon": 83.3293554, "tags": {"addr:city": "VISAKHAPATNAM", "addr:postcode": "530017", "addr:street": "Sector 4 MVP", "amenity": "bank", "atm": "yes", "brand": "Kotak Mahindra Bank", "brand:wikidata": "Q2040404", "brand:wikipedia": "en:Kotak Mahindra Bank", "name": "Kotak Mahindra Bank", "name:en": "Kotak Mahindra Bank", "website": "http://www.kotak.com"}}, {"type": "node", "id": 4541118448, "lat": 17.742715, "lon": 83.3289771, "tags": {"addr:city": "VISAKHAPATNAM", "addr:postcode": "530017", "addr:street": "Sector 1 MVP", "amenity": "bank", "atm": "yes", "brand:wikidata": "Q2003549", "brand:wikipedia": "en:Axis Bank", "name": "Axis Bank", "name:en": "Axis Bank", "website": "https://www.axisbank.com"}}, {"type": "node", "id": 4801326525, "lat": 17.7152437, "lon": 83.3089345, "tags": {"addr:city": "visakhapatnam", "addr:postcode": "530002", "addr:street": "Nowroji street", "amenity": "bank", "brand": "HDFC Bank", "brand:wikidata": "Q631047", "brand:wikipedia": "en:HDFC Bank", "name": "HDFC Bank", "short_name": "HDFC", "website": "https://www.hdfcbank.com"}}, {"type": "node", "id": 4896511351, "lat": 17.7367272, "lon": 83.3043682, "tags": {"amenity": "bank", "atm": "no", "brand:wikidata": "Q1340361", "brand:wikipedia": "en:State Bank of India", "name": "State Bank of India", "short_name": "SBI"}}, {"type": "node", "id": 4896511352, "lat": 17.7367936, "lon": 83.3044004, "tags": {"amenity": "bank", "atm": "yes", "brand": "Canara Bank", "brand:en": "Canara Bank", "brand:hi": "\u0915\u0947\u0928\u0930\u093e \u092c\u0948\u0902\u0915", "brand:kn": "\u0c95\u0cc6\u0ca8\u0cb0\u0cbe \u0cac\u0ccd\u0caf\u0cbe\u0c82\u0c95\u0ccd", "brand:pa": "\u0a15\u0a47\u0a28\u0a30\u0a3e \u0a2c\u0a48\u0a02\u0a15", "brand:pnb": "\u06a9\u06cc\u0646\u0631\u0627 \u0628\u06cc\u0646\u06a9", "brand:ur": "\u06a9\u06cc\u0646\u0631\u0627 \u0628\u06cc\u0646\u06a9", "brand:wikidata": "Q2003777", "brand:wikipedia": "en:Canara Bank", "brand:wikipedia:pa": "\u0a15\u0a47\u0a28\u0a30\u0a3e \u0a2c\u0a48\u0a02\u0a15", "name": "Canara Bank", "name:en": "Canara Bank", "name:hi": "\u0915\u0947\u0928\u0930\u093e \u092c\u0948\u0902\u0915", "name:kn": "\u0c95\u0cc6\u0ca8\u0cb0\u0cbe \u0cac\u0ccd\u0caf\u0cbe\u0c82\u0c95\u0ccd", "name:pa": "\u0a15\u0a47\u0a28\u0a30\u0a3e \u0a2c\u0a48\u0a02\u0a15", "name:pnb": "\u06a9\u06cc\u0646\u0631\u0627 \u0628\u06cc\u0646\u06a9", "name:ur": "\u06a9\u06cc\u0646\u0631\u0627 \u0628\u06cc\u0646\u06a9", "website": "https://www.canarabank.com/"}}, {"type": "node", "id": 4896511355, "lat": 17.7357998, "lon": 83.3042984, "tags": {"amenity": "bank", "atm": "yes", "drive_through": "yes", "name": "karanataka bank"}}, {"type": "node", "id": 4965280227, "lat": 17.6889968, "lon": 83.2420312, "tags": {"amenity": "bank", "name": "Andhra bank Malkapuram"}}, {"type": "node", "id": 4965320295, "lat": 17.6885733, "lon": 83.2445457, "tags": {"amenity": "bank", "name": "SBI Malkapuram"}}, {"type": "node", "id": 4990149797, "lat": 17.728088, "lon": 83.3208258}, {"type": "node", "id": 4990149798, "lat": 17.7281137, "lon": 83.3208943}, {"type": "node", "id": 4990149799, "lat": 17.7280153, "lon": 83.3209336}, {"type": "node", "id": 5007138357, "lat": 17.7417218, "lon": 83.237643, "tags": {"amenity": "bank", "atm": "yes", "brand": "Punjab National Bank", "brand:wikidata": "Q2743499", "check_date": "2024-01-30", "name": "Punjab National Bank", "operator": "punjab national bank"}}, {"type": "node", "id": 5014409723, "lat": 17.6873142, "lon": 83.0971401, "tags": {"addr:city": "lankelapalem", "addr:housenumber": "6-45", "addr:postcode": "531019", "addr:street": "main road", "amenity": "bank", "name": "State Bank of India", "opening_hours": "Mo-Sa 09:00-16:00"}}, {"type": "node", "id": 5080788099, "lat": 17.6892402, "lon": 83.2341921, "tags": {"amenity": "bank"}}, {"type": "node", "id": 5080788100, "lat": 17.6895469, "lon": 83.2330576, "tags": {"amenity": "bank"}}, {"type": "node", "id": 5210610350, "lat": 17.7267674, "lon": 83.3196048}, {"type": "node", "id": 5210610351, "lat": 17.7267473, "lon": 83.3196282}, {"type": "node", "id": 5210610352, "lat": 17.7268293, "lon": 83.3197061}, {"type": "node", "id": 5210610353, "lat": 17.726722, "lon": 83.3194267}, {"type": "node", "id": 5210610354, "lat": 17.726742, "lon": 83.3194035}, {"type": "node", "id": 5210610355, "lat": 17.7267946, "lon": 83.3194535}, {"type": "node", "id": 5210610356, "lat": 17.7267189, "lon": 83.3195586}, {"type": "node", "id": 5210610357, "lat": 17.7266556, "lon": 83.3194985}, {"type": "node", "id": 5210610358, "lat": 17.7266396, "lon": 83.3195171}, {"type": "node", "id": 5210610359, "lat": 17.7279898, "lon": 83.320865}, {"type": "node", "id": 6227135670, "lat": 17.7222129, "lon": 83.317566, "tags": {"amenity": "bank", "name": "HSBC BPO"}}, {"type": "node", "id": 6435403864, "lat": 17.7342382, "lon": 83.2726273, "tags": {"amenity": "bank", "name": "BOI"}}, {"type": "node", "id": 6435540943, "lat": 17.7353485, "lon": 83.2703989, "tags": {"amenity": "bank", "name": "SBI"}}, {"type": "node", "id": 6629371430, "lat": 17.7107329, "lon": 83.3135668, "tags": {"amenity": "bank", "brand": "Indian Bank", "brand:wikidata": "Q2003789", "name": "Indian Bank"}}, {"type": "node", "id": 6629410701, "lat": 17.7089852, "lon": 83.3134488, "tags": {"amenity": "bank", "name": "Andhra bank staff college", "name:te": "\u0c06\u0c02\u0c27\u0c4d\u0c30 \u0c2c\u0c3e\u0c02\u0c15\u0c4d \u0c38\u0c4d\u0c1f\u0c3e\u0c2b\u0c4d \u0c15\u0c3e\u0c32\u0c47\u0c1c\u0c4d"}}, {"type": "node", "id": 6811920169, "lat": 17.7423175, "lon": 83.3310397, "tags": {"amenity": "bank", "name": "Indian", "website": "https://www.indianbank.in/"}}, {"type": "node", "id": 6829763836, "lat": 17.7458138, "lon": 83.2230086, "tags": {"amenity": "bank", "name": "Karnataka Bank"}}, {"type": "node", "id": 7246507848, "lat": 17.7239926, "lon": 83.3099303, "tags": {"amenity": "bank", "brand": "Bank of India", "brand:wikidata": "Q2004439", "brand:wikipedia": "en:Bank of India", "name": "Bank of India"}}, {"type": "node", "id": 7246507877, "lat": 17.7133209, "lon": 83.3149166, "tags": {"amenity": "bank", "brand": "State Bank of India", "brand:wikidata": "Q1340361", "brand:wikipedia": "en:State Bank of India", "name": "State Bank of India", "short_name": "SBI"}}, {"type": "node", "id": 9020173963, "lat": 17.6556065, "lon": 83.1591623}, {"type": "node", "id": 9020173964, "lat": 17.6556297, "lon": 83.1593006}, {"type": "node", "id": 9020173965, "lat": 17.6557347, "lon": 83.1592812}, {"type": "node", "id": 9020173966, "lat": 17.6557366, "lon": 83.1592926}, {"type": "node", "id": 9020173967, "lat": 17.6558095, "lon": 83.1592791}, {"type": "node", "id": 9020173968, "lat": 17.6557881, "lon": 83.1591517}, {"type": "node", "id": 9020173969, "lat": 17.6557208, "lon": 83.1591641}, {"type": "node", "id": 9020173970, "lat": 17.655717, "lon": 83.1591419}, {"type": "node", "id": 9039455673, "lat": 17.6508915, "lon": 83.1526384}, {"type": "node", "id": 9039455674, "lat": 17.6508907, "lon": 83.1526742}, {"type": "node", "id": 9039455675, "lat": 17.6508782, "lon": 83.1526744}, {"type": "node", "id": 9039455676, "lat": 17.6508778, "lon": 83.1527433}, {"type": "node", "id": 9039455677, "lat": 17.6508952, "lon": 83.1527441}, {"type": "node", "id": 9039455678, "lat": 17.6508935, "lon": 83.1528055}, {"type": "node", "id": 9039455679, "lat": 17.6508757, "lon": 83.1528059}, {"type": "node", "id": 9039455680, "lat": 17.6508756, "lon": 83.1528784}, {"type": "node", "id": 9039455681, "lat": 17.6508703, "lon": 83.1528863}, {"type": "node", "id": 9039455682, "lat": 17.6507445, "lon": 83.1528863}, {"type": "node", "id": 9039455683, "lat": 17.6507514, "lon": 83.1526305}, {"type": "node", "id": 9039774867, "lat": 17.6500194, "lon": 83.1583999}, {"type": "node", "id": 9039774868, "lat": 17.6501034, "lon": 83.1582819}, {"type": "node", "id": 9039774869, "lat": 17.6501951, "lon": 83.1583538}, {"type": "node", "id": 9039774870, "lat": 17.6501564, "lon": 83.1584082}, {"type": "node", "id": 9039774871, "lat": 17.6502462, "lon": 83.1584786}, {"type": "node", "id": 9039774872, "lat": 17.6502191, "lon": 83.1585168}, {"type": "node", "id": 9039774873, "lat": 17.6501372, "lon": 83.1584525}, {"type": "node", "id": 9039774874, "lat": 17.6501052, "lon": 83.1584975}, {"type": "node", "id": 9039774875, "lat": 17.6500445, "lon": 83.1584499}, {"type": "node", "id": 9039774876, "lat": 17.6500584, "lon": 83.1584304}, {"type": "node", "id": 9039774877, "lat": 17.6501449, "lon": 83.1583144}, {"type": "node", "id": 9714678391, "lat": 17.7229521, "lon": 83.3322949, "tags": {"addr:city": "visakhapatnam", "addr:postcode": "530017", "addr:street": "Chinna Waltair Road", "amenity": "bank", "atm": "yes", "brand": "HDFC Bank", "brand:wikidata": "Q631047", "level": "0", "name": "HDFC Bank", "short_name": "HDFC"}}, {"type": "node", "id": 9714678392, "lat": 17.7229764, "lon": 83.3321742, "tags": {"addr:city": "visakhapatnam", "addr:postcode": "530017", "addr:street": "Chinna Waltair Road", "air_conditioning": "yes", "amenity": "bank", "atm": "yes", "brand": "Kotak Mahindra Bank", "brand:wikidata": "Q2040404", "level": "0", "name": "Kotak Mahindra Bank"}}, {"type": "node", "id": 9768845472, "lat": 17.746747, "lon": 83.2463246, "tags": {"addr:city": "Visakhapatnam", "addr:postcode": "530009", "amenity": "bank", "atm": "yes", "brand": "State Bank of India", "brand:wikidata": "Q1340361", "name": "State Bank of India", "short_name": "SBI"}}, {"type": "node", "id": 9772561606, "lat": 17.7493754, "lon": 83.2190557, "tags": {"amenity": "bank", "branch": "Gopalapatnam Branch", "brand": "State Bank of India", "brand:wikidata": "Q1340361", "name": "State Bank of India", "short_name": "SBI"}}, {"type": "node", "id": 11568850048, "lat": 17.8499761, "lon": 83.1963252, "tags": {"amenity": "bank", "brand": "State Bank of India", "brand:wikidata": "Q1340361", "check_date": "2024-01-30", "name": "State Bank of India", "short_name": "SBI"}}, {"type": "node", "id": 11568858418, "lat": 17.8197838, "lon": 83.2059576, "tags": {"amenity": "bank", "check_date": "2024-01-30", "name": "Kanka Mahalaxmi Cooperative"}}, {"type": "node", "id": 11568858420, "lat": 17.8177056, "lon": 83.2064043, "tags": {"amenity": "bank", "brand": "HDFC Bank", "brand:wikidata": "Q631047", "check_date": "2024-01-30", "name": "HDFC Bank", "short_name": "HDFC"}}, {"type": "node", "id": 11568858429, "lat": 17.7977463, "lon": 83.2107762, "tags": {"amenity": "bank", "brand": "State Bank of India", "brand:wikidata": "Q1340361", "check_date": "2024-01-30", "name": "State Bank of India", "short_name": "SBI"}}, {"type": "node", "id": 11568906507, "lat": 17.7519994, "lon": 83.2181636, "tags": {"amenity": "bank", "check_date": "2024-01-30", "name": "Visakhapatnam Cooperative Bank"}}, {"type": "node", "id": 11568906514, "lat": 17.7449734, "lon": 83.2248957, "tags": {"amenity": "bank", "brand": "Axis Bank", "brand:wikidata": "Q2003549", "check_date": "2024-01-30", "name": "Axis Bank"}}, {"type": "node", "id": 11568906523, "lat": 17.7421207, "lon": 83.2382736, "tags": {"amenity": "bank", "atm": "yes", "brand": "State Bank of India", "brand:wikidata": "Q1340361", "check_date": "2024-01-30", "name": "State Bank of India", "short_name": "SBI"}}, {"type": "node", "id": 11568906524, "lat": 17.7421467, "lon": 83.2381573, "tags": {"amenity": "bank", "atm": "yes", "brand": "Federal Bank", "brand:wikidata": "Q2044983", "check_date": "2024-01-30", "name": "Federal Bank"}}, {"type": "node", "id": 11585567241, "lat": 17.8049159, "lon": 83.2088062, "tags": {"amenity": "bank", "atm": "yes", "brand": "Canara Bank", "brand:en": "Canara Bank", "brand:hi": "\u0915\u0947\u0928\u0930\u093e \u092c\u0948\u0902\u0915", "brand:kn": "\u0c95\u0cc6\u0ca8\u0cb0\u0cbe \u0cac\u0ccd\u0caf\u0cbe\u0c82\u0c95\u0ccd", "brand:pa": "\u0a15\u0a47\u0a28\u0a30\u0a3e \u0a2c\u0a48\u0a02\u0a15", "brand:pnb": "\u06a9\u06cc\u0646\u0631\u0627 \u0628\u06cc\u0646\u06a9", "brand:ur": "\u06a9\u06cc\u0646\u0631\u0627 \u0628\u06cc\u0646\u06a9", "brand:wikidata": "Q2003777", "check_date": "2024-02-05", "name": "Canara Bank", "name:en": "Canara Bank", "name:hi": "\u0915\u0947\u0928\u0930\u093e \u092c\u0948\u0902\u0915", "name:kn": "\u0c95\u0cc6\u0ca8\u0cb0\u0cbe \u0cac\u0ccd\u0caf\u0cbe\u0c82\u0c95\u0ccd", "name:pa": "\u0a15\u0a47\u0a28\u0a30\u0a3e \u0a2c\u0a48\u0a02\u0a15", "name:pnb": "\u06a9\u06cc\u0646\u0631\u0627 \u0628\u06cc\u0646\u06a9", "name:ur": "\u06a9\u06cc\u0646\u0631\u0627 \u0628\u06cc\u0646\u06a9", "operator": "Canara Bank"}}, {"type": "node", "id": 11585567244, "lat": 17.8082706, "lon": 83.2078775, "tags": {"amenity": "bank", "atm": "yes", "brand": "Karur Vysya Bank", "brand:wikidata": "Q6373724", "check_date": "2024-02-05", "name": "Karur Vysya Bank"}}, {"type": "node", "id": 11585574892, "lat": 17.7384348, "lon": 83.2591469, "tags": {"amenity": "bank", "brand": "HDFC Bank", "brand:wikidata": "Q631047", "check_date": "2024-02-05", "name": "HDFC Bank", "short_name": "HDFC"}}, {"type": "node", "id": 11585574902, "lat": 17.7438324, "lon": 83.2318057, "tags": {"amenity": "bank", "brand": "Bank of India", "brand:wikidata": "Q2004439", "check_date": "2024-02-05", "name": "Bank of India"}}, {"type": "node", "id": 11609359603, "lat": 17.8779085, "lon": 83.1894091, "tags": {"amenity": "bank", "brand": "Canara Bank", "brand:en": "Canara Bank", "brand:hi": "\u0915\u0947\u0928\u0930\u093e \u092c\u0948\u0902\u0915", "brand:kn": "\u0c95\u0cc6\u0ca8\u0cb0\u0cbe \u0cac\u0ccd\u0caf\u0cbe\u0c82\u0c95\u0ccd", "brand:pa": "\u0a15\u0a47\u0a28\u0a30\u0a3e \u0a2c\u0a48\u0a02\u0a15", "brand:pnb": "\u06a9\u06cc\u0646\u0631\u0627 \u0628\u06cc\u0646\u06a9", "brand:ur": "\u06a9\u06cc\u0646\u0631\u0627 \u0628\u06cc\u0646\u06a9", "brand:wikidata": "Q2003777", "check_date": "2024-02-11", "name": "Canara Bank", "name:en": "Canara Bank", "name:hi": "\u0915\u0947\u0928\u0930\u093e \u092c\u0948\u0902\u0915", "name:kn": "\u0c95\u0cc6\u0ca8\u0cb0\u0cbe \u0cac\u0ccd\u0caf\u0cbe\u0c82\u0c95\u0ccd", "name:pa": "\u0a15\u0a47\u0a28\u0a30\u0a3e \u0a2c\u0a48\u0a02\u0a15", "name:pnb": "\u06a9\u06cc\u0646\u0631\u0627 \u0628\u06cc\u0646\u06a9", "name:ur": "\u06a9\u06cc\u0646\u0631\u0627 \u0628\u06cc\u0646\u06a9"}}, {"type": "node", "id": 11609359631, "lat": 17.8044525, "lon": 83.2088061, "tags": {"amenity": "bank", "brand": "State Bank of India", "brand:wikidata": "Q1340361", "check_date": "2024-02-11", "name": "State Bank of India", "short_name": "SBI"}}, {"type": "node", "id": 11609568066, "lat": 17.7251977, "lon": 83.3058912, "tags": {"amenity": "bank", "atm": "yes", "brand": "Union Bank of India", "brand:wikidata": "Q2004078", "cash_in": "yes", "check_date": "2024-02-11", "currency:INR": "yes", "name": "Union Bank of India", "operator": "Union Bank of India"}}, {"type": "node", "id": 11609594320, "lat": 17.7237607, "lon": 83.3092599, "tags": {"amenity": "bank", "atm": "yes", "brand": "Union Bank of India", "brand:wikidata": "Q2004078", "check_date": "2024-02-11", "name": "Union Bank of India", "payment:cash": "yes", "payment:credit_cards": "yes", "payment:debit_cards": "yes", "wheelchair": "yes"}}, {"type": "node", "id": 11609602290, "lat": 17.7239634, "lon": 83.3100375, "tags": {"amenity": "bank", "brand": "Punjab National Bank", "brand:wikidata": "Q2743499", "check_date": "2024-02-11", "name": "Punjab National Bank"}}, {"type": "node", "id": 11609605774, "lat": 17.7245633, "lon": 83.3109513, "tags": {"amenity": "bank", "check_date": "2024-02-11", "name": "Indian Bank", "name:en": "Siripuram Branch"}}, {"type": "node", "id": 11609616974, "lat": 17.7241807, "lon": 83.3181993, "tags": {"amenity": "bank", "brand": "State Bank of India", "brand:wikidata": "Q1340361", "check_date": "2024-02-11", "name": "State Bank of India", "short_name": "SBI"}}, {"type": "node", "id": 11609619167, "lat": 17.7242399, "lon": 83.3089987, "tags": {"amenity": "bank", "atm": "yes", "brand": "State Bank of India", "brand:wikidata": "Q1340361", "check_date": "2024-02-11", "name": "State Bank of India", "short_name": "SBI"}}, {"type": "node", "id": 11609636090, "lat": 17.7247653, "lon": 83.3142081, "tags": {"amenity": "bank", "brand": "Kotak Mahindra Bank", "brand:wikidata": "Q2040404", "check_date": "2024-02-11", "name": "Kotak Mahindra Bank"}}, {"type": "node", "id": 11609643794, "lat": 17.7253315, "lon": 83.3170989, "tags": {"amenity": "bank", "brand": "HDFC Bank", "brand:wikidata": "Q631047", "check_date": "2024-02-11", "name": "HDFC Bank", "short_name": "HDFC"}}, {"type": "node", "id": 11609659693, "lat": 17.7247219, "lon": 83.3144677, "tags": {"amenity": "bank", "brand": "Kotak Mahindra Bank", "brand:wikidata": "Q2040404", "check_date": "2024-02-11", "name": "Kotak Mahindra Bank"}}, {"type": "node", "id": 11609979006, "lat": 17.7260709, "lon": 83.3049632, "tags": {"amenity": "bank", "brand": "Bank of India", "brand:wikidata": "Q2004439", "check_date": "2024-02-11", "name": "Bank of India"}}, {"type": "node", "id": 11610149585, "lat": 17.7684152, "lon": 83.2172691, "tags": {"amenity": "bank", "brand": "Canara Bank", "brand:en": "Canara Bank", "brand:hi": "\u0915\u0947\u0928\u0930\u093e \u092c\u0948\u0902\u0915", "brand:kn": "\u0c95\u0cc6\u0ca8\u0cb0\u0cbe \u0cac\u0ccd\u0caf\u0cbe\u0c82\u0c95\u0ccd", "brand:pa": "\u0a15\u0a47\u0a28\u0a30\u0a3e \u0a2c\u0a48\u0a02\u0a15", "brand:pnb": "\u06a9\u06cc\u0646\u0631\u0627 \u0628\u06cc\u0646\u06a9", "brand:ur": "\u06a9\u06cc\u0646\u0631\u0627 \u0628\u06cc\u0646\u06a9", "brand:wikidata": "Q2003777", "check_date": "2024-02-11", "name": "Canara Bank", "name:en": "Canara Bank", "name:hi": "\u0915\u0947\u0928\u0930\u093e \u092c\u0948\u0902\u0915", "name:kn": "\u0c95\u0cc6\u0ca8\u0cb0\u0cbe \u0cac\u0ccd\u0caf\u0cbe\u0c82\u0c95\u0ccd", "name:pa": "\u0a15\u0a47\u0a28\u0a30\u0a3e \u0a2c\u0a48\u0a02\u0a15", "name:pnb": "\u06a9\u06cc\u0646\u0631\u0627 \u0628\u06cc\u0646\u06a9", "name:ur": "\u06a9\u06cc\u0646\u0631\u0627 \u0628\u06cc\u0646\u06a9"}}, {"type": "node", "id": 11610149589, "lat": 17.7753172, "lon": 83.2167083, "tags": {"amenity": "bank", "check_date": "2024-02-11", "name": "The Adavivaram Co - Operative Credit Society Ltd.", "start_date": "1916"}}, {"type": "node", "id": 11610187359, "lat": 17.7222982, "lon": 83.3038421, "tags": {"amenity": "bank", "brand": "State Bank of India", "brand:wikidata": "Q1340361", "check_date": "2024-02-11", "name": "State Bank of India", "short_name": "SBI"}}, {"type": "node", "id": 11610187367, "lat": 17.7327775, "lon": 83.2775821, "tags": {"amenity": "bank", "brand": "State Bank of India", "brand:wikidata": "Q1340361", "check_date": "2025-02-24", "description": "Kancharapalem Mettu branch", "name": "State Bank of India", "short_name": "SBI"}}, {"type": "node", "id": 11610201174, "lat": 17.7386052, "lon": 83.2583852, "tags": {"amenity": "bank", "brand": "Union Bank of India", "brand:wikidata": "Q2004078", "check_date": "2024-02-11", "name": "Union Bank of India"}}, {"type": "node", "id": 11610201181, "lat": 17.7418266, "lon": 83.2391825, "tags": {"amenity": "bank", "brand": "City Union Bank", "brand:en": "City Union Bank", "brand:hi": "\u0938\u093f\u091f\u0940 \u092f\u0942\u0928\u093f\u092f\u0928 \u092c\u0948\u0902\u0915", "brand:ta": "\u0b9a\u0bbf\u0b9f\u0bcd\u0b9f\u0bbf \u0baf\u0bc2\u0ba9\u0bbf\u0baf\u0ba9\u0bcd \u0bb5\u0b99\u0bcd\u0b95\u0bbf", "brand:wikidata": "Q2040264", "check_date": "2024-02-11", "name": "City Union Bank", "name:en": "City Union Bank", "name:hi": "\u0938\u093f\u091f\u0940 \u092f\u0942\u0928\u093f\u092f\u0928 \u092c\u0948\u0902\u0915", "name:ta": "\u0b9a\u0bbf\u0b9f\u0bcd\u0b9f\u0bbf \u0baf\u0bc2\u0ba9\u0bbf\u0baf\u0ba9\u0bcd \u0bb5\u0b99\u0bcd\u0b95\u0bbf", "short_name": "CUB"}}, {"type": "node", "id": 11610201187, "lat": 17.743739, "lon": 83.2322712, "tags": {"amenity": "bank", "atm": "yes", "brand": "Union Bank of India", "brand:wikidata": "Q2004078", "check_date": "2024-04-05", "drive_through": "no", "name": "Union Bank of India"}}, {"type": "node", "id": 11610201191, "lat": 17.74436, "lon": 83.2282535, "tags": {"amenity": "bank", "check_date": "2024-02-11", "name": "Kanaka mahalaxmi Cooperative Bank"}}, {"type": "node", "id": 11647344274, "lat": 17.7448167, "lon": 83.2538537, "tags": {"amenity": "bank", "brand": "HDFC Bank", "brand:wikidata": "Q631047", "check_date": "2024-02-21", "name": "HDFC Bank", "short_name": "HDFC"}}, {"type": "node", "id": 11647344275, "lat": 17.7448841, "lon": 83.2537005, "tags": {"amenity": "bank", "brand": "State Bank of India", "brand:wikidata": "Q1340361", "check_date": "2024-02-21", "name": "State Bank of India", "short_name": "SBI"}}, {"type": "node", "id": 11647371224, "lat": 17.7020392, "lon": 83.2059934, "tags": {"amenity": "bank", "brand": "Indian Bank", "brand:wikidata": "Q2003789", "check_date": "2024-02-21", "name": "Indian Bank"}}, {"type": "node", "id": 11647371230, "lat": 17.6872185, "lon": 83.2048993, "tags": {"amenity": "bank", "brand": "Karur Vysya Bank", "brand:wikidata": "Q6373724", "check_date": "2024-02-21", "name": "Karur Vysya Bank"}}, {"type": "node", "id": 11647371232, "lat": 17.6844933, "lon": 83.2032064, "tags": {"amenity": "bank", "brand": "Kotak Mahindra Bank", "brand:wikidata": "Q2040404", "check_date": "2024-02-21", "name": "Kotak Mahindra Bank"}}, {"type": "node", "id": 11647371237, "lat": 17.6831589, "lon": 83.1964277, "tags": {"amenity": "bank", "brand": "Axis Bank", "brand:wikidata": "Q2003549", "check_date": "2024-02-21", "name": "Axis Bank"}}, {"type": "node", "id": 11647371238, "lat": 17.6829737, "lon": 83.1954276, "tags": {"amenity": "bank", "brand": "ICICI Bank", "brand:wikidata": "Q1653258", "check_date": "2024-02-21", "name": "ICICI Bank", "short_name": "ICICI"}}, {"type": "node", "id": 11647435226, "lat": 17.6881064, "lon": 83.1338896, "tags": {"amenity": "bank", "brand": "HDFC Bank", "brand:wikidata": "Q631047", "check_date": "2024-02-21", "name": "HDFC Bank", "short_name": "HDFC"}}, {"type": "node", "id": 11688050198, "lat": 17.7375378, "lon": 83.3094423, "tags": {"amenity": "bank", "name": "Karur Vysya Bank"}}, {"type": "node", "id": 11690446178, "lat": 17.7409506, "lon": 83.3076673, "tags": {"amenity": "bank", "name": "Kotak Mahindra Bank"}}, {"type": "node", "id": 11690449429, "lat": 17.7381952, "lon": 83.2997621, "tags": {"amenity": "bank", "brand": "IndusInd Bank", "brand:wikidata": "Q2040323", "name": "IndusInd Bank"}}, {"type": "node", "id": 11703280598, "lat": 17.7454366, "lon": 83.2239122, "tags": {"amenity": "bank", "check_date": "2024-03-08", "name": "DBS Bank"}}, {"type": "node", "id": 11738939287, "lat": 17.7954852, "lon": 83.3537099, "tags": {"amenity": "bank", "atm": "yes", "brand": "State Bank of India", "brand:wikidata": "Q1340361", "check_date": "2024-03-17", "name": "State Bank of India", "short_name": "SBI"}}, {"type": "node", "id": 11740567982, "lat": 17.7354008, "lon": 83.3206723, "tags": {"amenity": "bank", "branch": "Maddilapalem", "brand": "HDFC Bank", "brand:wikidata": "Q631047", "check_date": "2024-03-17", "name": "HDFC Bank", "short_name": "HDFC"}}, {"type": "node", "id": 11740567983, "lat": 17.7350086, "lon": 83.3203947, "tags": {"amenity": "bank", "brand": "Union Bank of India", "brand:wikidata": "Q2004078", "check_date": "2024-03-17", "name": "Union Bank of India"}}, {"type": "node", "id": 11740884425, "lat": 17.8019538, "lon": 83.35337, "tags": {"amenity": "bank", "atm": "yes", "branch": "Madhurwada - 1", "brand": "Union Bank of India", "brand:wikidata": "Q2004078", "check_date": "2024-03-18", "drive_through": "no", "name": "Union Bank of India"}}, {"type": "node", "id": 11740884427, "lat": 17.8020167, "lon": 83.3533642, "tags": {"amenity": "bank", "check_date": "2024-03-18", "name": "Kanaka Mahalaxmi Co-operative Bank Ltd."}}, {"type": "node", "id": 11741089435, "lat": 17.8033907, "lon": 83.2092008, "tags": {"amenity": "bank", "brand": "IndusInd Bank", "brand:wikidata": "Q2040323", "check_date": "2024-03-18", "name": "IndusInd Bank"}}, {"type": "node", "id": 11741089436, "lat": 17.8023474, "lon": 83.2095148, "tags": {"amenity": "bank", "brand": "Federal Bank", "brand:wikidata": "Q2044983", "check_date": "2024-03-18", "name": "Federal Bank"}}, {"type": "node", "id": 11741089442, "lat": 17.7960772, "lon": 83.2117123, "tags": {"amenity": "bank", "atm": "yes", "brand": "ICICI Bank", "brand:wikidata": "Q1653258", "check_date": "2024-03-18", "name": "ICICI Bank", "short_name": "ICICI"}}, {"type": "node", "id": 11741096310, "lat": 17.7836471, "lon": 83.3579035, "tags": {"amenity": "bank", "brand": "Andhra Pradesh Grameena Vikas Bank", "brand:en": "Andhra Pradesh Grameena Vikas Bank", "brand:te": "\u0c06\u0c02\u0c27\u0c4d\u0c30\u200c\u0c2a\u0c4d\u0c30\u200c\u0c26\u0c47\u0c36\u0c4d \u0c17\u0c4d\u0c30\u0c3e\u0c2e\u0c40\u0c23 \u0c35\u0c3f\u0c15\u0c3e\u0c38\u0c4d \u0c2c\u0c4d\u0c2f\u0c3e\u0c02\u0c15\u0c4d", "brand:wikidata": "Q18109664", "check_date": "2024-03-18", "name": "Andhra Pradesh Grameena Vikas Bank", "name:en": "Andhra Pradesh Grameena Vikas Bank", "name:te": "\u0c06\u0c02\u0c27\u0c4d\u0c30\u200c\u0c2a\u0c4d\u0c30\u200c\u0c26\u0c47\u0c36\u0c4d \u0c17\u0c4d\u0c30\u0c3e\u0c2e\u0c40\u0c23 \u0c35\u0c3f\u0c15\u0c3e\u0c38\u0c4d \u0c2c\u0c4d\u0c2f\u0c3e\u0c02\u0c15\u0c4d"}}, {"type": "node", "id": 11741602444, "lat": 17.8148809, "lon": 83.2064016, "tags": {"amenity": "bank", "check_date": "2024-03-18", "name": "The District Cooperative Bank"}}, {"type": "node", "id": 11741602445, "lat": 17.8176537, "lon": 83.2064753, "tags": {"amenity": "bank", "brand": "Punjab National Bank", "brand:wikidata": "Q2743499", "check_date": "2024-03-18", "name": "Punjab National Bank"}}, {"type": "node", "id": 11793760681, "lat": 17.7461728, "lon": 83.2219216, "tags": {"amenity": "bank", "atm": "yes", "brand": "Karnataka Bank", "brand:wikidata": "Q2042632", "name": "Karnataka Bank"}}, {"type": "node", "id": 11801296954, "lat": 17.7124553, "lon": 83.3003522, "tags": {"amenity": "bank", "brand": "ICICI Bank", "brand:wikidata": "Q1653258", "check_date": "2024-04-07", "name": "ICICI Bank", "short_name": "ICICI"}}, {"type": "node", "id": 11801296957, "lat": 17.7272523, "lon": 83.3019758, "tags": {"amenity": "bank", "brand": "RBL Bank", "brand:wikidata": "Q13120398", "check_date": "2024-04-07", "name": "RBL Bank"}}, {"type": "node", "id": 11810625066, "lat": 17.8019531, "lon": 83.3535575, "tags": {"amenity": "bank", "check_date": "2024-03-18"}}, {"type": "node", "id": 11830210674, "lat": 17.817021, "lon": 83.2066467, "tags": {"amenity": "bank", "brand": "CSB Bank", "brand:wikidata": "Q5053244", "name": "CSB Bank", "official_name": "Catholic Syrian Bank"}}, {"type": "node", "id": 11830210675, "lat": 17.8169913, "lon": 83.2067511, "tags": {"amenity": "bank", "atm": "yes", "brand": "State Bank of India", "brand:wikidata": "Q1340361", "name": "State Bank of India", "short_name": "SBI"}}, {"type": "node", "id": 11830210729, "lat": 17.8132798, "lon": 83.2066667, "tags": {"amenity": "bank", "atm": "yes", "brand": "Union Bank of India", "brand:wikidata": "Q2004078", "name": "Union Bank of India"}}, {"type": "node", "id": 11830210783, "lat": 17.7500302, "lon": 83.2187544, "tags": {"amenity": "bank", "atm": "yes", "brand": "Union Bank of India", "brand:wikidata": "Q2004078", "name": "Union Bank of India"}}, {"type": "node", "id": 11982632626, "lat": 17.8214257, "lon": 83.3478387, "tags": {"amenity": "bank", "brand": "Canara Bank", "brand:en": "Canara Bank", "brand:hi": "\u0915\u0947\u0928\u0930\u093e \u092c\u0948\u0902\u0915", "brand:kn": "\u0c95\u0cc6\u0ca8\u0cb0\u0cbe \u0cac\u0ccd\u0caf\u0cbe\u0c82\u0c95\u0ccd", "brand:pa": "\u0a15\u0a47\u0a28\u0a30\u0a3e \u0a2c\u0a48\u0a02\u0a15", "brand:pnb": "\u06a9\u06cc\u0646\u0631\u0627 \u0628\u06cc\u0646\u06a9", "brand:ur": "\u06a9\u06cc\u0646\u0631\u0627 \u0628\u06cc\u0646\u06a9", "brand:wikidata": "Q2003777", "check_date": "2024-06-15", "name": "Canara Bank", "name:en": "Canara Bank", "name:hi": "\u0915\u0947\u0928\u0930\u093e \u092c\u0948\u0902\u0915", "name:kn": "\u0c95\u0cc6\u0ca8\u0cb0\u0cbe \u0cac\u0ccd\u0caf\u0cbe\u0c82\u0c95\u0ccd", "name:pa": "\u0a15\u0a47\u0a28\u0a30\u0a3e \u0a2c\u0a48\u0a02\u0a15", "name:pnb": "\u06a9\u06cc\u0646\u0631\u0627 \u0628\u06cc\u0646\u06a9", "name:ur": "\u06a9\u06cc\u0646\u0631\u0627 \u0628\u06cc\u0646\u06a9"}}, {"type": "node", "id": 11982634284, "lat": 17.8235553, "lon": 83.3550288, "tags": {"amenity": "bank", "brand": "Union Bank of India", "brand:wikidata": "Q2004078", "check_date": "2024-06-15", "name": "Union Bank of India"}}, {"type": "node", "id": 12171321609, "lat": 17.7648849, "lon": 83.3238037, "tags": {"amenity": "bank", "brand": "Canara Bank", "brand:en": "Canara Bank", "brand:hi": "\u0915\u0947\u0928\u0930\u093e \u092c\u0948\u0902\u0915", "brand:kn": "\u0c95\u0cc6\u0ca8\u0cb0\u0cbe \u0cac\u0ccd\u0caf\u0cbe\u0c82\u0c95\u0ccd", "brand:pa": "\u0a15\u0a47\u0a28\u0a30\u0a3e \u0a2c\u0a48\u0a02\u0a15", "brand:pnb": "\u06a9\u06cc\u0646\u0631\u0627 \u0628\u06cc\u0646\u06a9", "brand:ur": "\u06a9\u06cc\u0646\u0631\u0627 \u0628\u06cc\u0646\u06a9", "brand:wikidata": "Q2003777", "name": "Canara Bank", "name:en": "Canara Bank", "name:hi": "\u0915\u0947\u0928\u0930\u093e \u092c\u0948\u0902\u0915", "name:kn": "\u0c95\u0cc6\u0ca8\u0cb0\u0cbe \u0cac\u0ccd\u0caf\u0cbe\u0c82\u0c95\u0ccd", "name:pa": "\u0a15\u0a47\u0a28\u0a30\u0a3e \u0a2c\u0a48\u0a02\u0a15", "name:pnb": "\u06a9\u06cc\u0646\u0631\u0627 \u0628\u06cc\u0646\u06a9", "name:ur": "\u06a9\u06cc\u0646\u0631\u0627 \u0628\u06cc\u0646\u06a9"}}, {"type": "node", "id": 12213911064, "lat": 17.8026681, "lon": 83.2092718, "tags": {"amenity": "bank", "name": "The Maharaja Co-Op Urban Bank"}}, {"type": "node", "id": 12213911091, "lat": 17.8043248, "lon": 83.2086959, "tags": {"amenity": "bank", "atm": "yes"}}, {"type": "node", "id": 12364821446, "lat": 17.7156106, "lon": 83.3022925, "tags": {"amenity": "bank", "brand": "Canara Bank", "brand:en": "Canara Bank", "brand:hi": "\u0915\u0947\u0928\u0930\u093e \u092c\u0948\u0902\u0915", "brand:kn": "\u0c95\u0cc6\u0ca8\u0cb0\u0cbe \u0cac\u0ccd\u0caf\u0cbe\u0c82\u0c95\u0ccd", "brand:pa": "\u0a15\u0a47\u0a28\u0a30\u0a3e \u0a2c\u0a48\u0a02\u0a15", "brand:pnb": "\u06a9\u06cc\u0646\u0631\u0627 \u0628\u06cc\u0646\u06a9", "brand:ur": "\u06a9\u06cc\u0646\u0631\u0627 \u0628\u06cc\u0646\u06a9", "brand:wikidata": "Q2003777", "check_date": "2024-11-22", "name": "Canara Bank", "name:en": "Canara Bank", "name:hi": "\u0915\u0947\u0928\u0930\u093e \u092c\u0948\u0902\u0915", "name:kn": "\u0c95\u0cc6\u0ca8\u0cb0\u0cbe \u0cac\u0ccd\u0caf\u0cbe\u0c82\u0c95\u0ccd", "name:pa": "\u0a15\u0a47\u0a28\u0a30\u0a3e \u0a2c\u0a48\u0a02\u0a15", "name:pnb": "\u06a9\u06cc\u0646\u0631\u0627 \u0628\u06cc\u0646\u06a9", "name:ur": "\u06a9\u06cc\u0646\u0631\u0627 \u0628\u06cc\u0646\u06a9"}}, {"type": "node", "id": 12441119125, "lat": 17.7284446, "lon": 83.311661, "tags": {"amenity": "bank", "atm": "yes", "branch": "Srinagar", "check_date": "2025-09-28", "name": "HDFC Bank"}}, {"type": "node", "id": 12441119232, "lat": 17.7326408, "lon": 83.3171864, "tags": {"amenity": "bank", "atm": "yes", "brand": "Canara", "name": "Canara Bank"}}, {"type": "node", "id": 12464149228, "lat": 17.726158, "lon": 83.3163092}, {"type": "node", "id": 12464149229, "lat": 17.7261619, "lon": 83.3164276}, {"type": "node", "id": 12464149230, "lat": 17.7259712, "lon": 83.3164361}, {"type": "node", "id": 12464149231, "lat": 17.725966, "lon": 83.3163083}, {"type": "node", "id": 12470766248, "lat": 17.7356175, "lon": 83.2687356, "tags": {"amenity": "bank", "atm": "yes", "name": "ICICI ATM"}}, {"type": "node", "id": 12470766326, "lat": 17.7352192, "lon": 83.2688915, "tags": {"amenity": "bank", "atm": "yes", "name": "Bank of India"}}, {"type": "node", "id": 12470766409, "lat": 17.7353827, "lon": 83.270178, "tags": {"amenity": "bank", "atm": "yes", "name": "The Visakhapatnam Cooperative Bank"}}, {"type": "node", "id": 12526089383, "lat": 17.7471574, "lon": 83.2212022, "tags": {"amenity": "bank", "atm": "yes", "name": "Indian Bank"}}, {"type": "node", "id": 12532231945, "lat": 17.7149689, "lon": 83.3022683, "tags": {"amenity": "bank", "name": "Indian Overseas Bank"}}, {"type": "node", "id": 12711064610, "lat": 17.7956042, "lon": 83.2118582, "tags": {"addr:postcode": "530051", "amenity": "bank", "atm": "no", "brand": "Union Bank of India", "brand:wikidata": "Q2004078", "check_date": "2025-03-30", "name": "Union Bank of India"}}, {"type": "node", "id": 12713010154, "lat": 17.7106321, "lon": 83.3014254, "tags": {"amenity": "bank", "atm": "yes", "brand": "Bank of India", "brand:wikidata": "Q2004439", "check_date": "2025-03-30", "name": "Bank of India"}}, {"type": "node", "id": 12713010159, "lat": 17.7104533, "lon": 83.3001197, "tags": {"amenity": "bank", "atm": "yes", "brand": "HDFC Bank", "brand:wikidata": "Q631047", "check_date": "2025-03-30", "name": "HDFC Bank", "short_name": "HDFC"}}, {"type": "node", "id": 12713010164, "lat": 17.707038, "lon": 83.298633, "tags": {"amenity": "bank", "atm": "yes", "brand": "ICICI Bank", "brand:wikidata": "Q1653258", "check_date": "2025-03-30", "name": "ICICI Bank", "short_name": "ICICI"}}, {"type": "node", "id": 12713010165, "lat": 17.7069642, "lon": 83.2985509, "tags": {"amenity": "bank", "atm": "yes", "brand": "State Bank of India", "brand:wikidata": "Q1340361", "check_date": "2025-03-30", "name": "State Bank of India", "short_name": "SBI"}}, {"type": "node", "id": 12753804148, "lat": 17.8082164, "lon": 83.2079164, "tags": {"amenity": "bank", "brand": "IDBI Bank", "brand:wikidata": "Q3633485", "check_date": "2025-04-14", "name": "IDBI Bank", "short_name": "IDBI"}}, {"type": "node", "id": 12753804149, "lat": 17.8081516, "lon": 83.2078806, "tags": {"amenity": "bank", "brand": "ESAF Small Finance Bank", "brand:wikidata": "Q28173964", "check_date": "2025-04-14", "name": "ESAF Small Finance Bank"}}, {"type": "node", "id": 12836726843, "lat": 17.7892711, "lon": 83.1215924, "tags": {"amenity": "bank", "brand": "CSB Bank", "brand:wikidata": "Q5053244", "check_date": "2025-05-14", "name": "CSB Bank", "official_name": "Catholic Syrian Bank"}}, {"type": "node", "id": 12837010522, "lat": 17.6869678, "lon": 83.204066, "tags": {"amenity": "bank", "atm": "yes", "brand": "Indian Overseas Bank", "brand:wikidata": "Q2003611", "check_date": "2025-05-14", "name": "Indian Overseas Bank"}}, {"type": "node", "id": 12837010529, "lat": 17.6858434, "lon": 83.1676198, "tags": {"amenity": "bank", "brand": "State Bank of India", "brand:wikidata": "Q1340361", "check_date": "2025-05-14", "name": "State Bank of India", "short_name": "SBI"}}, {"type": "node", "id": 12837010540, "lat": 17.6835938, "lon": 83.1946184, "tags": {"amenity": "bank", "brand": "Bandhan Bank", "brand:wikidata": "Q19882235", "check_date": "2025-05-14", "name": "Bandhan Bank"}}, {"type": "node", "id": 12837010541, "lat": 17.683614, "lon": 83.1963862, "tags": {"amenity": "bank", "brand": "IDBI Bank", "brand:wikidata": "Q3633485", "check_date": "2025-05-14", "name": "IDBI Bank", "short_name": "IDBI"}}, {"type": "node", "id": 12837010568, "lat": 17.6959809, "lon": 83.2043279, "tags": {"amenity": "bank", "brand": "ICICI Bank", "brand:wikidata": "Q1653258", "check_date": "2025-05-14", "name": "ICICI Bank", "short_name": "ICICI"}}, {"type": "node", "id": 12864714666, "lat": 17.6927971, "lon": 83.1666971, "tags": {"amenity": "bank", "check_date": "2025-05-25", "name": "The Visakhapatnam Cooperative Bank"}}, {"type": "node", "id": 12959446210, "lat": 17.6960574, "lon": 83.2927595}, {"type": "node", "id": 12959446211, "lat": 17.6958552, "lon": 83.2926551}, {"type": "node", "id": 12959446212, "lat": 17.6957539, "lon": 83.2928718}, {"type": "node", "id": 12959446213, "lat": 17.6959547, "lon": 83.2929753}, {"type": "node", "id": 12959446214, "lat": 17.6959742, "lon": 83.2929336}, {"type": "node", "id": 12959446215, "lat": 17.6962141, "lon": 83.2930573}, {"type": "node", "id": 12959446216, "lat": 17.6962708, "lon": 83.2929363}, {"type": "node", "id": 12959446217, "lat": 17.6963082, "lon": 83.2929556}, {"type": "node", "id": 12959446218, "lat": 17.6963521, "lon": 83.2928617}, {"type": "node", "id": 12959446219, "lat": 17.6963159, "lon": 83.292843}, {"type": "node", "id": 12959446220, "lat": 17.696359, "lon": 83.2927509}, {"type": "node", "id": 12959446221, "lat": 17.6961981, "lon": 83.292668}, {"type": "node", "id": 12959446222, "lat": 17.6961552, "lon": 83.2927596}, {"type": "node", "id": 12959446223, "lat": 17.6961961, "lon": 83.2927807}, {"type": "node", "id": 12959446224, "lat": 17.6961473, "lon": 83.2928851}, {"type": "node", "id": 12959446225, "lat": 17.6961045, "lon": 83.2928631}, {"type": "node", "id": 12959446226, "lat": 17.6961152, "lon": 83.2928404}, {"type": "node", "id": 12959446227, "lat": 17.6960381, "lon": 83.2928006}, {"type": "node", "id": 12959446228, "lat": 17.6957679, "lon": 83.2928417}, {"type": "node", "id": 12959446229, "lat": 17.6958393, "lon": 83.292689}, {"type": "node", "id": 12959446230, "lat": 17.6958033, "lon": 83.2926704}, {"type": "node", "id": 12959446231, "lat": 17.6957318, "lon": 83.2928231}, {"type": "node", "id": 12959450602, "lat": 17.796139, "lon": 83.2117114, "tags": {"amenity": "bank", "atm": "yes", "brand": "Indian Overseas Bank", "brand:wikidata": "Q2003611", "name": "Indian Overseas Bank"}}, {"type": "node", "id": 12986990323, "lat": 17.7415454, "lon": 83.3341903, "tags": {"amenity": "bank", "brand": "Bandhan Bank", "brand:wikidata": "Q19882235", "name": "Bandhan Bank"}}, {"type": "node", "id": 12986990348, "lat": 17.7417938, "lon": 83.3330734, "tags": {"amenity": "bank", "brand": "Yes Bank", "brand:wikidata": "Q2040394", "name": "Yes Bank"}}, {"type": "node", "id": 12986990363, "lat": 17.7434029, "lon": 83.331326, "tags": {"amenity": "bank", "branch": "Venkojipalem Road", "brand": "State Bank of India", "brand:wikidata": "Q1340361", "name": "State Bank of India", "short_name": "SBI"}}, {"type": "node", "id": 12986990368, "lat": 17.7434909, "lon": 83.3313576, "tags": {"amenity": "bank", "atm": "yes", "brand": "Indian Bank", "brand:wikidata": "Q2003789", "name": "Indian Bank"}}, {"type": "node", "id": 12986990369, "lat": 17.7437152, "lon": 83.3310703, "tags": {"amenity": "bank", "name": "The Visakhapatnam Coperative Bank"}}, {"type": "node", "id": 12986990372, "lat": 17.7439416, "lon": 83.3310873, "tags": {"amenity": "bank", "atm": "yes", "name": "The Kanaka Mahalakshmi Cooperative Bank"}}, {"type": "node", "id": 12986990377, "lat": 17.7446188, "lon": 83.3316667, "tags": {"amenity": "bank", "name": "DCCB"}}, {"type": "node", "id": 12990165864, "lat": 17.8200063, "lon": 83.3568772, "tags": {"amenity": "bank", "branch": "Madhurawada", "brand": "State Bank of India", "brand:wikidata": "Q1340361", "name": "State Bank of India", "short_name": "SBI"}}, {"type": "node", "id": 12990165865, "lat": 17.8201428, "lon": 83.356887, "tags": {"amenity": "bank", "atm": "yes", "branch": "Madhurawada", "brand": "UCO Bank", "brand:wikidata": "Q2005310", "name": "UCO Bank"}}, {"type": "node", "id": 12990196817, "lat": 17.8245237, "lon": 83.3511779, "tags": {"addr:city": "visakhapatnam", "addr:district": "andhra pradesh", "addr:housenumber": "530048", "addr:street": "Kommadi 100 Feet Rd", "amenity": "bank", "atm": "yes", "brand": "State Bank of India", "brand:wikidata": "Q1340361", "drive_through": "yes", "name": "State Bank of India", "opening_hours": "Mo-Fr 09:00-17:00", "opening_hours:drive_through": "24/7", "operator": "ATM", "short_name": "SBI"}}, {"type": "node", "id": 12992712261, "lat": 17.7377541, "lon": 83.3358361, "tags": {"amenity": "bank", "brand": "UCO Bank", "brand:wikidata": "Q2005310", "name": "UCO Bank"}}, {"type": "node", "id": 12992712274, "lat": 17.7466097, "lon": 83.3317246, "tags": {"amenity": "bank", "atm": "yes", "branch": "Sector-1, MVP", "brand": "State Bank of India", "brand:wikidata": "Q1340361", "name": "State Bank of India", "short_name": "SBI"}}, {"type": "node", "id": 12992712275, "lat": 17.746712, "lon": 83.3320223, "tags": {"amenity": "bank", "brand": "Bank of India", "brand:wikidata": "Q2004439", "name": "Bank of India"}}, {"type": "node", "id": 12993878514, "lat": 17.7038922, "lon": 83.2974366, "tags": {"amenity": "bank", "brand": "Union Bank of India", "brand:wikidata": "Q2004078", "name": "Union Bank of India"}}, {"type": "node", "id": 12993878522, "lat": 17.7029246, "lon": 83.2969926, "tags": {"amenity": "bank", "atm": "yes", "branch": "Poorna Market", "brand": "Karur Vysya Bank", "brand:wikidata": "Q6373724", "name": "Karur Vysya Bank"}}, {"type": "node", "id": 13065369444, "lat": 17.8040842, "lon": 83.3494588, "tags": {"amenity": "bank", "atm": "yes", "brand": "IndusInd Bank", "brand:wikidata": "Q2040323", "name": "IndusInd Bank"}}, {"type": "node", "id": 13065369453, "lat": 17.804063, "lon": 83.3485871, "tags": {"amenity": "bank", "branch": "PM Palem", "brand": "ICICI Bank", "brand:wikidata": "Q1653258", "name": "ICICI Bank", "short_name": "ICICI"}}, {"type": "node", "id": 13065369458, "lat": 17.8040678, "lon": 83.3478596, "tags": {"amenity": "bank", "atm": "yes", "branch": "Madhurawada", "brand": "Indian Bank", "brand:wikidata": "Q2003789", "name": "Indian Bank"}}, {"type": "node", "id": 13065369473, "lat": 17.8040457, "lon": 83.34679, "tags": {"amenity": "bank", "atm": "yes", "branch": "P.M. Palem", "brand": "State Bank of India", "brand:wikidata": "Q1340361", "name": "State Bank of India", "short_name": "SBI"}}, {"type": "node", "id": 13065369482, "lat": 17.8043861, "lon": 83.3435157, "tags": {"amenity": "bank", "branch": "P.M. Palem", "name": "Andhra Pradesh Grameena Bank"}}, {"type": "node", "id": 13065378811, "lat": 17.8049973, "lon": 83.3427318, "tags": {"amenity": "bank", "brand": "Bank of Maharashtra", "brand:wikidata": "Q2004304", "name": "Bank of Maharashtra"}}, {"type": "node", "id": 13065378828, "lat": 17.8044408, "lon": 83.345643, "tags": {"amenity": "bank", "atm": "yes", "brand": "Canara Bank", "brand:en": "Canara Bank", "brand:hi": "\u0915\u0947\u0928\u0930\u093e \u092c\u0948\u0902\u0915", "brand:kn": "\u0c95\u0cc6\u0ca8\u0cb0\u0cbe \u0cac\u0ccd\u0caf\u0cbe\u0c82\u0c95\u0ccd", "brand:pa": "\u0a15\u0a47\u0a28\u0a30\u0a3e \u0a2c\u0a48\u0a02\u0a15", "brand:pnb": "\u06a9\u06cc\u0646\u0631\u0627 \u0628\u06cc\u0646\u06a9", "brand:ur": "\u06a9\u06cc\u0646\u0631\u0627 \u0628\u06cc\u0646\u06a9", "brand:wikidata": "Q2003777", "name": "Canara Bank", "name:en": "Canara Bank", "name:hi": "\u0915\u0947\u0928\u0930\u093e \u092c\u0948\u0902\u0915", "name:kn": "\u0c95\u0cc6\u0ca8\u0cb0\u0cbe \u0cac\u0ccd\u0caf\u0cbe\u0c82\u0c95\u0ccd", "name:pa": "\u0a15\u0a47\u0a28\u0a30\u0a3e \u0a2c\u0a48\u0a02\u0a15", "name:pnb": "\u06a9\u06cc\u0646\u0631\u0627 \u0628\u06cc\u0646\u06a9", "name:ur": "\u06a9\u06cc\u0646\u0631\u0627 \u0628\u06cc\u0646\u06a9"}}, {"type": "node", "id": 13065378830, "lat": 17.8045462, "lon": 83.3463192, "tags": {"amenity": "bank", "brand": "Union Bank of India", "brand:wikidata": "Q2004078", "name": "Union Bank of India"}}, {"type": "node", "id": 13065378836, "lat": 17.8044134, "lon": 83.3479524, "tags": {"amenity": "bank", "atm": "yes", "brand": "Karnataka Bank", "brand:wikidata": "Q2042632", "name": "Karnataka Bank"}}, {"type": "node", "id": 13065378837, "lat": 17.8044541, "lon": 83.3492824, "tags": {"amenity": "bank", "brand": "HDFC Bank", "brand:wikidata": "Q631047", "name": "HDFC Bank", "short_name": "HDFC"}}, {"type": "node", "id": 13065378840, "lat": 17.8045595, "lon": 83.3498758, "tags": {"amenity": "bank", "brand": "IDBI Bank", "brand:wikidata": "Q3633485", "name": "IDBI Bank", "short_name": "IDBI"}}, {"type": "node", "id": 13086305482, "lat": 17.7289853, "lon": 83.328207, "tags": {"amenity": "bank", "name": "DCCB Bank"}}, {"type": "node", "id": 13086308329, "lat": 17.7312334, "lon": 83.3308557, "tags": {"amenity": "bank", "atm": "yes", "branch": "Waltair", "brand": "State Bank of India", "brand:wikidata": "Q1340361", "name": "State Bank of India", "short_name": "SBI"}}, {"type": "node", "id": 13086308332, "lat": 17.7313775, "lon": 83.3310802, "tags": {"amenity": "bank", "atm": "yes", "brand": "HDFC Bank", "brand:wikidata": "Q631047", "name": "HDFC Bank", "short_name": "HDFC"}}, {"type": "node", "id": 13086308355, "lat": 17.7321008, "lon": 83.3333059, "tags": {"amenity": "bank", "atm": "yes", "brand": "Karur Vysya Bank", "brand:wikidata": "Q6373724", "name": "Karur Vysya Bank"}}, {"type": "node", "id": 13086308375, "lat": 17.7319446, "lon": 83.3342689, "tags": {"amenity": "bank", "atm": "yes", "brand": "Union Bank of India", "brand:wikidata": "Q2004078", "name": "Union Bank of India"}}, {"type": "node", "id": 13086394264, "lat": 17.8237646, "lon": 83.3520493}, {"type": "node", "id": 13086394265, "lat": 17.8236925, "lon": 83.3519202}, {"type": "node", "id": 13086394266, "lat": 17.8236485, "lon": 83.3519457}, {"type": "node", "id": 13086394267, "lat": 17.8236331, "lon": 83.351983}, {"type": "node", "id": 13086394268, "lat": 17.8236813, "lon": 83.3520888}, {"type": "node", "id": 13086404922, "lat": 17.8229368, "lon": 83.3504694}, {"type": "node", "id": 13086404923, "lat": 17.822854, "lon": 83.3503039}, {"type": "node", "id": 13086404924, "lat": 17.8227398, "lon": 83.3503728}, {"type": "node", "id": 13086404925, "lat": 17.8227973, "lon": 83.3504845}, {"type": "node", "id": 13086562473, "lat": 17.7311156, "lon": 83.316391, "tags": {"amenity": "bank", "branch": "Maddilapalem", "brand": "Bank of India", "brand:wikidata": "Q2004439", "name": "Bank of India"}}, {"type": "node", "id": 13086573723, "lat": 17.7295514, "lon": 83.3144704, "tags": {"amenity": "bank", "atm": "yes", "brand": "Indian Bank", "brand:wikidata": "Q2003789", "name": "Indian Bank"}}, {"type": "node", "id": 13086573735, "lat": 17.7291564, "lon": 83.3137469, "tags": {"amenity": "bank", "atm": "yes", "brand": "Karnataka Bank", "brand:wikidata": "Q2042632", "name": "Karnataka Bank"}}, {"type": "node", "id": 13086573744, "lat": 17.7286503, "lon": 83.3128984, "tags": {"amenity": "bank", "branch": "Rama Talkies Road", "brand": "ICICI Bank", "brand:wikidata": "Q1653258", "name": "ICICI Bank", "short_name": "ICICI"}}, {"type": "node", "id": 13088174534, "lat": 17.8266381, "lon": 83.3579975}, {"type": "node", "id": 13088174535, "lat": 17.8266778, "lon": 83.3579175}, {"type": "node", "id": 13088174536, "lat": 17.8265416, "lon": 83.3578792}, {"type": "node", "id": 13088174537, "lat": 17.8265196, "lon": 83.3579412}, {"type": "node", "id": 13096015213, "lat": 17.7435999, "lon": 83.3147237, "tags": {"amenity": "bank", "brand": "IndusInd Bank", "brand:wikidata": "Q2040323", "name": "IndusInd Bank"}}, {"type": "node", "id": 13096015214, "lat": 17.7436109, "lon": 83.3148602, "tags": {"amenity": "bank", "atm": "yes", "brand": "ESAF Small Finance Bank", "brand:wikidata": "Q28173964", "name": "ESAF Small Finance Bank"}}, {"type": "node", "id": 13096015216, "lat": 17.7435831, "lon": 83.3153402, "tags": {"amenity": "bank", "branch": "Seethammadhara", "brand": "Axis Bank", "brand:wikidata": "Q2003549", "name": "Axis Bank"}}, {"type": "node", "id": 13096015217, "lat": 17.7436172, "lon": 83.3155339, "tags": {"amenity": "bank", "atm": "yes", "brand": "South Indian Bank", "brand:wikidata": "Q2044973", "name": "South Indian Bank"}}, {"type": "node", "id": 13096493246, "lat": 17.7250778, "lon": 83.3051175, "tags": {"amenity": "bank", "brand": "Indian Overseas Bank", "brand:wikidata": "Q2003611", "name": "Indian Overseas Bank"}}, {"type": "node", "id": 13096493253, "lat": 17.7264089, "lon": 83.3064778, "tags": {"amenity": "bank", "brand": "HDFC Bank", "brand:wikidata": "Q631047", "name": "HDFC Bank", "short_name": "HDFC"}}, {"type": "node", "id": 13096493254, "lat": 17.7266167, "lon": 83.306478, "tags": {"amenity": "bank", "brand": "ICICI Bank", "brand:wikidata": "Q1653258", "name": "ICICI Bank", "short_name": "ICICI"}}, {"type": "node", "id": 13096493281, "lat": 17.7269864, "lon": 83.3060802, "tags": {"amenity": "bank", "brand": "IDFC First Bank", "brand:wikidata": "Q22031467", "name": "IDFC First Bank"}}, {"type": "node", "id": 13096493282, "lat": 17.7269368, "lon": 83.3060906, "tags": {"amenity": "bank", "brand": "ICICI Bank", "brand:wikidata": "Q1653258", "name": "ICICI Bank", "short_name": "ICICI"}}, {"type": "node", "id": 13096493288, "lat": 17.7271865, "lon": 83.3065494, "tags": {"amenity": "bank", "brand": "State Bank of India", "brand:wikidata": "Q1340361", "name": "State Bank of India", "short_name": "SBI"}}, {"type": "node", "id": 13096493290, "lat": 17.7273213, "lon": 83.3065919, "tags": {"amenity": "bank", "brand": "DBS Bank India", "brand:wikidata": "Q76514597", "name": "DBS Bank India"}}, {"type": "node", "id": 13096493291, "lat": 17.7274523, "lon": 83.3065912, "tags": {"amenity": "bank", "brand": "AU Small Finance Bank", "brand:wikidata": "Q48729722", "name": "AU Small Finance Bank"}}, {"type": "node", "id": 13096498950, "lat": 17.7306418, "lon": 83.3069374, "tags": {"amenity": "bank", "name": "DCB Bank"}}, {"type": "node", "id": 13096498951, "lat": 17.7307304, "lon": 83.3069473, "tags": {"amenity": "bank", "atm": "yes", "brand": "CSB Bank", "brand:wikidata": "Q5053244", "name": "CSB Bank", "official_name": "Catholic Syrian Bank"}}, {"type": "node", "id": 13096498976, "lat": 17.7335911, "lon": 83.3067813, "tags": {"amenity": "bank", "brand": "Karur Vysya Bank", "brand:wikidata": "Q6373724", "name": "Karur Vysya Bank"}}, {"type": "node", "id": 13096498977, "lat": 17.7337996, "lon": 83.3068804, "tags": {"amenity": "bank", "atm": "yes", "brand": "Central Bank of India", "brand:wikidata": "Q2007090", "name": "Central Bank of India"}}, {"type": "node", "id": 13096777771, "lat": 17.7276377, "lon": 83.2925981, "tags": {"amenity": "bank", "brand": "IndusInd Bank", "brand:wikidata": "Q2040323", "name": "IndusInd Bank"}}, {"type": "node", "id": 13096777806, "lat": 17.7273866, "lon": 83.2953782, "tags": {"amenity": "bank", "brand": "State Bank of India", "brand:wikidata": "Q1340361", "name": "State Bank of India", "short_name": "SBI"}}, {"type": "node", "id": 13096777807, "lat": 17.7273948, "lon": 83.29552, "tags": {"amenity": "bank", "brand": "HDFC Bank", "brand:wikidata": "Q631047", "name": "HDFC Bank", "short_name": "HDFC"}}, {"type": "node", "id": 13098112580, "lat": 17.7280931, "lon": 83.3038217, "tags": {"amenity": "bank", "atm": "yes", "brand": "Bank of Baroda", "brand:wikidata": "Q2003797", "name": "Bank of Baroda"}}, {"type": "node", "id": 13098139566, "lat": 17.7310041, "lon": 83.3041465, "tags": {"amenity": "bank", "branch": "Sankaramatam Road", "brand": "HDFC Bank", "brand:wikidata": "Q631047", "name": "HDFC Bank", "short_name": "HDFC"}}, {"type": "node", "id": 13098139567, "lat": 17.7310586, "lon": 83.3041913, "tags": {"amenity": "bank", "brand": "Canara Bank", "brand:en": "Canara Bank", "brand:hi": "\u0915\u0947\u0928\u0930\u093e \u092c\u0948\u0902\u0915", "brand:kn": "\u0c95\u0cc6\u0ca8\u0cb0\u0cbe \u0cac\u0ccd\u0caf\u0cbe\u0c82\u0c95\u0ccd", "brand:pa": "\u0a15\u0a47\u0a28\u0a30\u0a3e \u0a2c\u0a48\u0a02\u0a15", "brand:pnb": "\u06a9\u06cc\u0646\u0631\u0627 \u0628\u06cc\u0646\u06a9", "brand:ur": "\u06a9\u06cc\u0646\u0631\u0627 \u0628\u06cc\u0646\u06a9", "brand:wikidata": "Q2003777", "name": "Canara Bank", "name:en": "Canara Bank", "name:hi": "\u0915\u0947\u0928\u0930\u093e \u092c\u0948\u0902\u0915", "name:kn": "\u0c95\u0cc6\u0ca8\u0cb0\u0cbe \u0cac\u0ccd\u0caf\u0cbe\u0c82\u0c95\u0ccd", "name:pa": "\u0a15\u0a47\u0a28\u0a30\u0a3e \u0a2c\u0a48\u0a02\u0a15", "name:pnb": "\u06a9\u06cc\u0646\u0631\u0627 \u0628\u06cc\u0646\u06a9", "name:ur": "\u06a9\u06cc\u0646\u0631\u0627 \u0628\u06cc\u0646\u06a9"}}, {"type": "node", "id": 13098139585, "lat": 17.7317714, "lon": 83.3038146, "tags": {"amenity": "bank", "brand": "Axis Bank", "brand:wikidata": "Q2003549", "name": "Axis Bank"}}, {"type": "node", "id": 13098139628, "lat": 17.7360353, "lon": 83.3042022, "tags": {"amenity": "bank", "brand": "Karnataka Bank", "brand:wikidata": "Q2042632", "name": "Karnataka Bank"}}, {"type": "node", "id": 13109119269, "lat": 17.7389866, "lon": 83.2997753, "tags": {"amenity": "bank", "atm": "yes", "brand": "Union Bank of India", "brand:wikidata": "Q2004078", "name": "Union Bank of India"}}, {"type": "node", "id": 13109119273, "lat": 17.7392072, "lon": 83.300158, "tags": {"amenity": "bank", "brand": "Kotak Mahindra Bank", "brand:wikidata": "Q2040404", "name": "Kotak Mahindra Bank"}}, {"type": "node", "id": 13109119275, "lat": 17.73867, "lon": 83.2997978, "tags": {"amenity": "bank", "name": "Coastal Bank"}}, {"type": "node", "id": 13109119294, "lat": 17.7375948, "lon": 83.3001853, "tags": {"amenity": "bank", "atm": "yes", "brand": "Bank of Baroda", "brand:wikidata": "Q2003797", "name": "Bank of Baroda"}}, {"type": "node", "id": 13109119811, "lat": 17.73703, "lon": 83.3002058, "tags": {"amenity": "bank", "atm": "yes", "brand": "Karur Vysya Bank", "brand:wikidata": "Q6373724", "name": "Karur Vysya Bank"}}, {"type": "node", "id": 13109119817, "lat": 17.7365082, "lon": 83.3001379, "tags": {"amenity": "bank", "name": "The Kanaka Mahalakshmi Co-operative Bank"}}, {"type": "node", "id": 13109119822, "lat": 17.7351599, "lon": 83.2995882, "tags": {"amenity": "bank", "atm": "yes", "brand": "Indian Overseas Bank", "brand:wikidata": "Q2003611", "name": "Indian Overseas Bank"}}, {"type": "node", "id": 13132824837, "lat": 17.8072704, "lon": 83.208167, "tags": {"amenity": "bank", "atm": "yes", "brand": "HDFC Bank", "brand:wikidata": "Q631047", "check_date": "2025-09-10", "name": "HDFC Bank", "short_name": "HDFC"}}, {"type": "node", "id": 13140598844, "lat": 17.7408857, "lon": 83.2984209, "tags": {"amenity": "bank", "brand": "State Bank of India", "brand:wikidata": "Q1340361", "check_date": "2025-09-13", "name": "State Bank of India", "short_name": "SBI"}}, {"type": "node", "id": 13312857699, "lat": 17.7262946, "lon": 83.3023497, "tags": {"amenity": "bank", "atm": "yes", "branch": "Diamond Park", "brand": "State Bank of India", "brand:wikidata": "Q1340361", "check_date": "2025-11-18", "name": "State Bank of India", "short_name": "SBI"}}, {"type": "node", "id": 13313009615, "lat": 17.7268441, "lon": 83.3018316, "tags": {"amenity": "bank", "brand": "Kotak Mahindra Bank", "brand:wikidata": "Q2040404", "check_date": "2025-11-18", "name": "Kotak Mahindra Bank"}}, {"type": "node", "id": 13316892803, "lat": 17.7273649, "lon": 83.2987351, "tags": {"amenity": "bank", "branch": "Dondaparthy", "brand": "ICICI Bank", "brand:wikidata": "Q1653258", "name": "ICICI Bank", "short_name": "ICICI"}}, {"type": "node", "id": 13316892810, "lat": 17.7274, "lon": 83.2985006, "tags": {"amenity": "bank", "brand": "IDFC First Bank", "brand:wikidata": "Q22031467", "name": "IDFC First Bank"}}, {"type": "node", "id": 13316892872, "lat": 17.7321355, "lon": 83.2991694, "tags": {"amenity": "bank", "brand": "Federal Bank", "brand:wikidata": "Q2044983", "name": "Federal Bank"}}, {"type": "node", "id": 13318612066, "lat": 17.7115311, "lon": 83.3176353, "tags": {"amenity": "bank", "branch": "R.K. Mission", "brand": "Union Bank of India", "brand:wikidata": "Q2004078", "name": "Union Bank of India"}}, {"type": "node", "id": 13319047234, "lat": 17.7499484, "lon": 83.2511169, "tags": {"amenity": "bank", "branch": "Madhavadara", "brand": "HDFC Bank", "brand:wikidata": "Q631047", "name": "HDFC Bank", "short_name": "HDFC"}}, {"type": "node", "id": 13319047250, "lat": 17.7497777, "lon": 83.2528057, "tags": {"amenity": "bank", "brand": "Indian Bank", "brand:wikidata": "Q2003789", "name": "Indian Bank"}}, {"type": "node", "id": 13319047284, "lat": 17.7493389, "lon": 83.2558911, "tags": {"amenity": "bank", "atm": "yes", "brand": "State Bank of India", "brand:wikidata": "Q1340361", "name": "State Bank of India", "short_name": "SBI"}}, {"type": "way", "id": 389137368, "nodes": [3923016957, 3923016958, 3923016959, 3923016960, 3923016957], "tags": {"amenity": "bank", "brand:wikidata": "Q1340361", "brand:wikipedia": "en:State Bank of India", "name": "State Bank of India", "short_name": "SBI"}}, {"type": "way", "id": 393927803, "nodes": [3969756843, 3969756844, 3969756845, 3969756847, 3969756848, 3969756851, 3969756850, 3969756853, 3969756856, 3969776961, 3969776964, 3969776963, 3969776959, 5210610355, 5210610354, 5210610353, 3969776958, 3969776960, 3969776962, 5210610352, 5210610351, 5210610350, 5210610356, 5210610357, 5210610358, 3969776957, 3969756855, 3969756852, 3969756849, 3969756843], "tags": {"amenity": "bank", "atm": "yes", "building": "yes", "name": "SBI Zonal Office"}}, {"type": "way", "id": 402836656, "nodes": [4052444801, 4052444802, 4052444803, 4052444804, 4052444801], "tags": {"amenity": "bank", "brand:wikidata": "Q1340361", "brand:wikipedia": "en:State Bank of India", "building": "yes", "name": "Abandoned building", "short_name": "SBI", "website": "https://www.sbi.co.in"}}, {"type": "way", "id": 403863605, "nodes": [4061670866, 4061670867, 4061670868, 4061670869, 4061670870, 4061670866], "tags": {"amenity": "bank", "building": "yes", "name": "Cooperative Credit Society SBI Employees"}}, {"type": "way", "id": 509878606, "nodes": [4990149797, 4990149798, 4990149799, 5210610359, 4990149797], "tags": {"addr:postcode": "530003", "amenity": "bank", "atm": "yes", "building": "yes", "building:levels": "1", "drive_through": "yes", "height": "4", "name": "Andhra Bank"}}, {"type": "way", "id": 974669396, "nodes": [9020173963, 9020173964, 9020173965, 9020173966, 9020173967, 9020173968, 9020173969, 9020173970, 9020173963], "tags": {"amenity": "bank", "atm": "yes", "branch": "E Corner", "brand": "State Bank of India", "brand:wikidata": "Q1340361", "brand:wikipedia": "en:State Bank of India", "building": "yes", "name": "State Bank of India", "short_name": "SBI"}}, {"type": "way", "id": 976841619, "nodes": [9039455673, 9039455674, 9039455675, 9039455676, 9039455677, 9039455678, 9039455679, 9039455680, 9039455681, 9039455682, 9039455683, 9039455673], "tags": {"air_conditioning": "yes", "amenity": "bank", "atm": "yes", "brand": "Union Bank of India", "brand:wikidata": "Q2004078", "brand:wikipedia": "en:Union Bank of India", "building": "yes", "name": "Union Bank of India"}}, {"type": "way", "id": 976874618, "nodes": [9039774867, 9039774868, 9039774877, 9039774869, 9039774870, 9039774871, 9039774872, 9039774873, 9039774874, 9039774875, 9039774876, 9039774867], "tags": {"addr:city": "Visakhapatnam", "addr:postcode": "530032", "addr:street": "Sector 1", "air_conditioning": "yes", "amenity": "bank", "atm": "yes", "branch": "Steel plant Township", "brand": "State Bank of India", "brand:wikidata": "Q1340361", "brand:wikipedia": "en:State Bank of India", "building": "yes", "name": "State Bank of India", "short_name": "SBI"}}, {"type": "way", "id": 1347455868, "nodes": [12464149228, 12464149229, 12464149230, 12464149231, 12464149228], "tags": {"amenity": "bank", "brand": "Dhanlaxmi Bank", "brand:wikidata": "Q2040440", "building": "commercial", "name": "Dhanlaxmi Bank"}}, {"type": "way", "id": 1410364468, "nodes": [12959446210, 12959446211, 12959446229, 12959446230, 12959446231, 12959446228, 12959446212, 12959446213, 12959446214, 12959446215, 12959446216, 12959446217, 12959446218, 12959446219, 12959446220, 12959446221, 12959446222, 12959446223, 12959446224, 12959446225, 12959446226, 12959446227, 12959446210], "tags": {"amenity": "bank", "brand": "State Bank of India", "brand:wikidata": "Q1340361", "building": "yes", "building:levels": "2", "name": "State Bank of India (Imperial Bank of India Building)", "short_name": "SBI"}}, {"type": "way", "id": 1423828443, "nodes": [13086394264, 13086394265, 13086394266, 13086394267, 13086394268, 13086394264], "tags": {"addr:city": "visakhapatnam", "addr:district": "andhra pradesh", "addr:housenumber": "530048", "addr:street": "Kala Nagar Road", "amenity": "bank", "branch": "LOCAL BRANCH", "building": "yes", "drive_through": "yes", "name": "APGV  garimiyana BANK", "opening_hours": "Mo-Fr 08:00-17:00", "opening_hours:drive_through": "MONDAY TO FRIDAY"}}, {"type": "way", "id": 1423828455, "nodes": [13086404922, 13086404923, 13086404924, 13086404925, 13086404922], "tags": {"addr:city": "visakhapatnam", "addr:district": "andhra pradesh", "addr:housenumber": "530048", "amenity": "bank", "building": "yes", "name": "canara main branch", "opening_hours": "Mo-Fr 08:00-17:00"}}, {"type": "way", "id": 1424017840, "nodes": [13088174534, 13088174535, 13088174536, 13088174537, 13088174534], "tags": {"addr:city": "visakhaptnam", "addr:district": "andhra pradesh", "addr:housenumber": "530048", "addr:street": "Srinivasa Nagar Road", "amenity": "bank", "building": "commercial", "name": "PNB ATM", "opening_hours": "24/7"}}]}