{"version": 0.6, "generator": "Overpass API 0.7.62.8 e802775f", "osm3s": {"timestamp_osm_base": "2025-11-29T17:16:58Z", "copyright": "The data included in this document is from www.openstreetmap.org. The data is made available under ODbL."}, "elements": [{"type": "node", "id": 1252069848, "lat": 13.6393505, "lon": 78.4515263, "tags": {"addr:country": "IN", "addr:full": "Rishi Valley School, Rishi Valley", "addr:housename": "Rishi Valley Rural Education Center", "addr:postcode": "517352", "amenity": "school", "name": "Rishi Valley Rural Education Center", "name:te": "\u0c30\u0c3f\u0c37\u0c3f \u0c35\u0c4d\u0c2f\u0c3e\u0c32\u0c40 \u0c17\u0c4d\u0c30\u0c3e\u0c2e\u0c40\u0c23 \u0c35\u0c3f\u0c26\u0c4d\u0c2f\u0c3e\u0c15\u0c47\u0c02\u0c26\u0c4d\u0c30\u0c02", "operator": "Krishnamurti Foundation India", "source": "Bing", "website": "https://www.rishivalley.org/rural_education/overview.htm"}}, {"type": "node", "id": 1315816085, "lat": 13.6313009, "lon": 78.4379553}, {"type": "node", "id": 1315816087, "lat": 13.6312863, "lon": 78.4380349}, {"type": "node", "id": 1315816088, "lat": 13.6311331, "lon": 78.4379117}, {"type": "node", "id": 1315816089, "lat": 13.6312469, "lon": 78.4378472, "tags": {"school": "entrance"}}, {"type": "node", "id": 1315816090, "lat": 13.6311404, "lon": 78.4379988}, {"type": "node", "id": 1315816091, "lat": 13.6311492, "lon": 78.4378246}, {"type": "node", "id": 1315816092, "lat": 13.6312965, "lon": 78.4378622}, {"type": "node", "id": 4446041492, "lat": 13.5708165, "lon": 78.4985273, "tags": {"addr:city": ",MADANAPALLE (VILL)", "addr:housenumber": "2nd WARD", "addr:postcode": "517325", "addr:street": ",NEERUGATTUVARI PALLE", "amenity": "school", "name": "VIVEKANANDA MPL.HIGH SCH", "phone": "+9194942 30715", "website": "www.vivekanandamplsch.com"}}, {"type": "node", "id": 4446392938, "lat": 13.551867, "lon": 78.5031359, "tags": {"addr:city": "Madanapalle", "addr:housenumber": "32B,11", "addr:postcode": "517325", "addr:street": "Kota Veedhi, Basinikonda", "amenity": "school", "name": "HOPE MPL.HIGH SCHOOL"}}, {"type": "node", "id": 4446404691, "lat": 13.5530543, "lon": 78.5049617, "tags": {"addr:city": "Madanapalle", "addr:postcode": "517325", "addr:street": "Avenue Rd,", "amenity": "school", "name": "HOPE MPL.HIGH SCHOOL"}}, {"type": "node", "id": 4446466424, "lat": 13.5554738, "lon": 78.4980168, "tags": {"addr:city": "MADANAPALLE", "addr:housenumber": "2nd WARD", "addr:street": "GIRIRAOSTREET", "amenity": "school", "name": "GIRIRAOTHEOSOPHICAL"}}, {"type": "node", "id": 4446545470, "lat": 13.5494443, "lon": 78.5190523, "tags": {"addr:city": "Madanapalle", "addr:postcode": "517330", "addr:street": "Nimmanapalle Rd, Police Residential Quarters", "amenity": "school", "name": "Vidyodaya E.M. High School"}}, {"type": "node", "id": 4446558529, "lat": 13.5534674, "lon": 78.5082247, "tags": {"addr:city": "Madanapalle", "addr:postcode": "517325", "addr:street": "Rama Gopal Naidu Colony", "amenity": "school", "name": "LEELA. EM HIGH SCHOOL"}}, {"type": "node", "id": 4450297312, "lat": 13.3417824, "lon": 78.2129342, "tags": {"amenity": "school"}}, {"type": "node", "id": 4550265478, "lat": 13.5644174, "lon": 78.5030297, "tags": {"amenity": "school", "name": "master minds"}}, {"type": "node", "id": 6043697304, "lat": 13.6334284, "lon": 78.456282}, {"type": "node", "id": 6043697305, "lat": 13.6322554, "lon": 78.4564215}, {"type": "node", "id": 6043697306, "lat": 13.6315464, "lon": 78.4565127}, {"type": "node", "id": 6043697307, "lat": 13.6312544, "lon": 78.4559655}, {"type": "node", "id": 6043697308, "lat": 13.6311919, "lon": 78.4553325}, {"type": "node", "id": 6043697309, "lat": 13.6313483, "lon": 78.454265}, {"type": "node", "id": 6043697310, "lat": 13.6316611, "lon": 78.4529883}, {"type": "node", "id": 6043697311, "lat": 13.6319322, "lon": 78.4516257}, {"type": "node", "id": 6043697312, "lat": 13.6318592, "lon": 78.4507889}, {"type": "node", "id": 6043697313, "lat": 13.631536, "lon": 78.4503061}, {"type": "node", "id": 6043697314, "lat": 13.6315881, "lon": 78.4500003}, {"type": "node", "id": 6043697315, "lat": 13.6321824, "lon": 78.4483588}, {"type": "node", "id": 6043697316, "lat": 13.6324848, "lon": 78.4484661}, {"type": "node", "id": 6043697317, "lat": 13.6325474, "lon": 78.4478974}, {"type": "node", "id": 6043697318, "lat": 13.6327663, "lon": 78.4479511}, {"type": "node", "id": 6043697319, "lat": 13.6329123, "lon": 78.4466421}, {"type": "node", "id": 6043697320, "lat": 13.6322763, "lon": 78.4457731}, {"type": "node", "id": 6043697321, "lat": 13.6323701, "lon": 78.4454942}, {"type": "node", "id": 6043697322, "lat": 13.6327663, "lon": 78.4454298}, {"type": "node", "id": 6043697323, "lat": 13.6342886, "lon": 78.4456766}, {"type": "node", "id": 6043697324, "lat": 13.6346222, "lon": 78.4465134}, {"type": "node", "id": 6043697325, "lat": 13.6347265, "lon": 78.4477579}, {"type": "node", "id": 6043697326, "lat": 13.6351331, "lon": 78.4484446}, {"type": "node", "id": 6043697327, "lat": 13.6351853, "lon": 78.4489167}, {"type": "node", "id": 6043697328, "lat": 13.6368066, "lon": 78.4488898}, {"type": "node", "id": 6043697329, "lat": 13.6371298, "lon": 78.4497482}, {"type": "node", "id": 6043697330, "lat": 13.6376772, "lon": 78.4500486}, {"type": "node", "id": 6043697331, "lat": 13.6381985, "lon": 78.4500056}, {"type": "node", "id": 6043697332, "lat": 13.6385373, "lon": 78.4530151}, {"type": "node", "id": 6043697333, "lat": 13.6375364, "lon": 78.4534013}, {"type": "node", "id": 6043697334, "lat": 13.6370985, "lon": 78.4538519}, {"type": "node", "id": 6043697335, "lat": 13.6369213, "lon": 78.4554237}, {"type": "node", "id": 6043697336, "lat": 13.635644, "lon": 78.4553111}, {"type": "node", "id": 6043697337, "lat": 13.6355815, "lon": 78.4557509}, {"type": "node", "id": 6043697338, "lat": 13.6341165, "lon": 78.4557509}, {"type": "node", "id": 6043697339, "lat": 13.6341009, "lon": 78.4566361}, {"type": "node", "id": 11493831073, "lat": 13.6606877, "lon": 78.2225109, "tags": {"amenity": "school", "name": "APSWR school B. Kothakota"}}, {"type": "node", "id": 11494481934, "lat": 13.6608385, "lon": 78.2216687}, {"type": "node", "id": 11494481935, "lat": 13.6614257, "lon": 78.2238247}, {"type": "node", "id": 11494481936, "lat": 13.6602447, "lon": 78.2241749}, {"type": "node", "id": 11494481937, "lat": 13.6591971, "lon": 78.2239552}, {"type": "node", "id": 11494481938, "lat": 13.6594106, "lon": 78.2215657}, {"type": "node", "id": 11494481939, "lat": 13.6604982, "lon": 78.2213734}, {"type": "node", "id": 11652005958, "lat": 13.6362016, "lon": 78.4553603}, {"type": "node", "id": 11665394061, "lat": 13.7054678, "lon": 78.2142926, "tags": {"amenity": "school", "name": "PTM MODEL SCHOOL"}}, {"type": "node", "id": 11665394062, "lat": 13.7055131, "lon": 78.2135241}, {"type": "node", "id": 11665394063, "lat": 13.7057778, "lon": 78.2147467}, {"type": "node", "id": 11665394064, "lat": 13.7056714, "lon": 78.2149097}, {"type": "node", "id": 11665394065, "lat": 13.7055628, "lon": 78.2149563}, {"type": "node", "id": 11665394066, "lat": 13.7052936, "lon": 78.2149795}, {"type": "node", "id": 11665394067, "lat": 13.705038, "lon": 78.2134542}, {"type": "node", "id": 11665394068, "lat": 13.7054271, "lon": 78.2133308}, {"type": "node", "id": 11747862615, "lat": 13.3694089, "lon": 78.4472318}, {"type": "node", "id": 11747862616, "lat": 13.3695245, "lon": 78.4480688}, {"type": "node", "id": 11747862617, "lat": 13.3684901, "lon": 78.4481593}, {"type": "node", "id": 11747862618, "lat": 13.3684901, "lon": 78.4473619}, {"type": "node", "id": 11747862619, "lat": 13.3688697, "lon": 78.4475768, "tags": {"amenity": "school", "name": "KGBV School Ramasamudram"}}, {"type": "node", "id": 11747867118, "lat": 13.3707752, "lon": 78.4469967, "tags": {"amenity": "school", "name": "Model school, Dinnipalle"}}, {"type": "node", "id": 11747867119, "lat": 13.3714575, "lon": 78.446447}, {"type": "node", "id": 11747867120, "lat": 13.371562, "lon": 78.4474517}, {"type": "node", "id": 11747867121, "lat": 13.3710703, "lon": 78.4477613}, {"type": "node", "id": 11747867122, "lat": 13.3708059, "lon": 78.4477802}, {"type": "node", "id": 11747867123, "lat": 13.370308, "lon": 78.447736}, {"type": "node", "id": 11747867124, "lat": 13.3699945, "lon": 78.4471989}, {"type": "node", "id": 11747867125, "lat": 13.3700068, "lon": 78.4467187}, {"type": "node", "id": 13192387468, "lat": 13.6376201, "lon": 78.2532304}, {"type": "node", "id": 13192387469, "lat": 13.6374639, "lon": 78.2535345}, {"type": "node", "id": 13192387470, "lat": 13.637559, "lon": 78.2539049}, {"type": "node", "id": 13192387471, "lat": 13.6372601, "lon": 78.254443}, {"type": "node", "id": 13192387472, "lat": 13.6367677, "lon": 78.2542089}, {"type": "node", "id": 13192387473, "lat": 13.6368288, "lon": 78.2531361}, {"type": "node", "id": 13192387474, "lat": 13.6362666, "lon": 78.2524968}, {"type": "node", "id": 13192387475, "lat": 13.6362885, "lon": 78.2531325}, {"type": "node", "id": 13192387476, "lat": 13.6359707, "lon": 78.2531401}, {"type": "node", "id": 13192387477, "lat": 13.6359456, "lon": 78.2524814}, {"type": "way", "id": 116785547, "nodes": [1315816092, 1315816085, 1315816087, 1315816090, 1315816088, 1315816091, 1315816089, 1315816092], "tags": {"amenity": "school", "name": "Chandanavanam", "operator": "Krishnamurti Foundation of India"}}, {"type": "way", "id": 641830072, "nodes": [6043697339, 6043697338, 6043697337, 6043697336, 11652005958, 6043697335, 6043697334, 6043697333, 6043697332, 6043697331, 6043697330, 6043697329, 6043697328, 6043697327, 6043697326, 6043697325, 6043697324, 6043697323, 6043697322, 6043697321, 6043697320, 6043697319, 6043697318, 6043697317, 6043697316, 6043697315, 6043697314, 6043697313, 6043697312, 6043697311, 6043697310, 6043697309, 6043697308, 6043697307, 6043697306, 6043697305, 6043697304, 6043697339], "tags": {"addr:city": "Madanapalli", "addr:postcode": "517352", "amenity": "school", "name": "Rishi Valley School", "office": "educational_institution", "opening_hours": "09:00-16:30", "phone": "+08571280044", "website": "www.rishivally.org", "wikidata": "Q7336050", "wikimedia_commons": "Category:Rishi Valley School", "wikipedia": "en:Rishi Valley School"}}, {"type": "way", "id": 1237534307, "nodes": [11494481934, 11494481935, 11494481936, 11494481937, 11494481938, 11494481939, 11494481934], "tags": {"amenity": "school"}}, {"type": "way", "id": 1254896021, "nodes": [11665394062, 11665394063, 11665394064, 11665394065, 11665394066, 11665394067, 11665394068, 11665394062], "tags": {"amenity": "school", "name": "PTM MODEL SCHOOL"}}, {"type": "way", "id": 1264486068, "nodes": [11747867119, 11747867120, 11747867121, 11747867122, 11747867123, 11747867124, 11747867125, 11747867119], "tags": {"amenity": "school", "name": "Model school, Dinnipalle"}}, {"type": "way", "id": 1264487134, "nodes": [11747862615, 11747862616, 11747862617, 11747862618, 11747862615], "tags": {"amenity": "school", "name": "KGBV School Ramasamudram"}}, {"type": "way", "id": 1435294029, "nodes": [13192387468, 13192387469, 13192387470, 13192387471, 13192387472, 13192387473, 13192387468], "tags": {"amenity": "school", "name": "AP Model School & Jr College , B . Kottakota"}}, {"type": "way", "id": 1435294030, "nodes": [13192387474, 13192387475, 13192387476, 13192387477, 13192387474], "tags": {"amenity": "school", "name": "AP Model School & Jr College Hostel , B. Kottakota"}}]}