{"version": 0.6, "generator": "Overpass API 0.7.62.8 e802775f", "osm3s": {"timestamp_osm_base": "2025-11-29T17:20:02Z", "copyright": "The data included in this document is from www.openstreetmap.org. The data is made available under ODbL."}, "elements": [{"type": "node", "id": 4320645789, "lat": 13.5549022, "lon": 77.4551509, "tags": {"name": "Namma Dinne", "shop": "bookmaker"}}, {"type": "node", "id": 8917315458, "lat": 13.6399127, "lon": 77.5279717, "tags": {"shop": "motorcycle_repair"}}, {"type": "node", "id": 8917315467, "lat": 13.6308965, "lon": 77.5168834, "tags": {"shop": "dairy"}}, {"type": "node", "id": 8917315469, "lat": 13.6211135, "lon": 77.5183211, "tags": {"shop": "bakery"}}, {"type": "node", "id": 8917315470, "lat": 13.6165776, "lon": 77.5179027, "tags": {"shop": "bakery"}}, {"type": "node", "id": 8918314316, "lat": 13.6500367, "lon": 77.5670114, "tags": {"shop": "supermarket"}}, {"type": "node", "id": 8918316817, "lat": 13.649939, "lon": 77.5664883, "tags": {"shop": "motorcycle_repair"}}, {"type": "node", "id": 8918331762, "lat": 13.656185, "lon": 77.5543002, "tags": {"addr:city": "Gauribidanur", "addr:postcode": "561208", "addr:street": "Opp. Safffron Petals", "name": "Golden Seeds Pvt Ltd", "shop": "agrarian"}}, {"type": "node", "id": 8919834461, "lat": 13.6505345, "lon": 77.569119, "tags": {"name": "Medical Store", "shop": "medical_supply"}}, {"type": "node", "id": 8919834465, "lat": 13.611054, "lon": 77.5172523, "tags": {"name": "Janaushadi", "name:kn": "\u0c9c\u0ca8\u0ccc\u0cb7\u0ca6\u0cbf", "shop": "medical_supply"}}, {"type": "node", "id": 8958887074, "lat": 13.6556985, "lon": 77.5546046, "tags": {"addr:city": "Gauribidanur", "addr:postcode": "561208", "addr:street": "Opp Saffron Petals", "name": "Welcome Crop Science Pvt Ltd", "shop": "agrarian"}}, {"type": "node", "id": 9538841808, "lat": 13.3203114, "lon": 77.5621004, "tags": {"name": "Timmasandra Puncture", "shop": "motorcycle_repair"}}, {"type": "node", "id": 9568620134, "lat": 13.5789135, "lon": 77.4458912, "tags": {"addr:place": "Hale Upparahalli", "name": "Suresh Grocery Store", "shop": "grocery", "source": "local knowledge"}}, {"type": "node", "id": 9568620138, "lat": 13.5788509, "lon": 77.4459529, "tags": {"addr:place": "Hale Upparahalli", "name": "Hale Upparahalli Halina kendra", "operator": "H N Lakshminarayana", "shop": "dairy", "vending": "milk"}}, {"type": "node", "id": 9568620143, "lat": 13.5782089, "lon": 77.4455291, "tags": {"shop": "grocery", "source": "local knowledge"}}, {"type": "node", "id": 9568642135, "lat": 13.5788744, "lon": 77.4461822, "tags": {"shop": "grocery", "source": "local knowledge"}}, {"type": "node", "id": 9570177108, "lat": 13.5793059, "lon": 77.4463002, "tags": {"name": "Nataraj Grocery Store", "shop": "grocery", "source": "local knowledge"}}, {"type": "node", "id": 9570201420, "lat": 13.5791938, "lon": 77.4470687, "tags": {"name": "Kumuditha Pravision Store", "shop": "grocery"}}, {"type": "node", "id": 9919038052, "lat": 13.3695887, "lon": 77.6820429, "tags": {"addr:street": "Nandi Hill Road", "brand": "Nandini", "brand:wikidata": "Q124374212", "name": "Nandini", "name:kn": "\u0ca8\u0c82\u0ca6\u0cbf\u0ca8\u0cbf", "operator": "Nandini", "payment:cash": "yes", "payment:upi": "yes", "shop": "dairy"}}, {"type": "node", "id": 11117175989, "lat": 13.3714531, "lon": 77.6794492, "tags": {"shop": "ticket"}}]}