{"version": 0.6, "generator": "Overpass API 0.7.62.8 e802775f", "osm3s": {"timestamp_osm_base": "2025-11-29T17:33:21Z", "copyright": "The data included in this document is from www.openstreetmap.org. The data is made available under ODbL."}, "elements": [{"type": "node", "id": 541326797, "lat": 12.3088663, "lon": 76.6537754, "tags": {"name": "Geetha Book House", "shop": "books"}}, {"type": "node", "id": 1153369396, "lat": 12.3034445, "lon": 76.6551749, "tags": {"name": "Vahara ticket counter", "shop": "ticket"}}, {"type": "node", "id": 1153369482, "lat": 12.308793, "lon": 76.6539732, "tags": {"name": "Nirmala Bakery", "shop": "bakery"}}, {"type": "node", "id": 1636780522, "lat": 12.2951363, "lon": 76.6414996, "tags": {"addr:postcode": "570001", "addr:street": "Kanthraj urs road", "designation": "Tata car Sales", "name": "URS Kars", "shop": "car"}}, {"type": "node", "id": 1636795510, "lat": 12.2969603, "lon": 76.6422587, "tags": {"addr:postcode": "570001", "addr:street": "Ambedkar Road", "name": "Saraswathi Bakery", "shop": "bakery"}}, {"type": "node", "id": 1636805210, "lat": 12.2960955, "lon": 76.6386163, "tags": {"name": "Nirmala Bakery", "name:kn": "\u0ca8\u0cbf\u0cb0\u0ccd\u0cae\u0cb2 \u0cac\u0ccb\u0c95\u0cb0\u0cbf", "shop": "bakery"}}, {"type": "node", "id": 1636833763, "lat": 12.2940173, "lon": 76.6447398, "tags": {"addr:city": "Mysuru", "addr:street": "Jhansi Lakshmibai Road", "brand": "Hyundai", "brand:wikidata": "Q55931", "name": "Advaith Hyundai", "name:kn": "\u0c85\u0ca6\u0ccd\u0cb5\u0cc8\u0ca4 \u0cb9\u0ccd\u0caf\u0cc1\u0c82\u0ca1\u0cc8", "shop": "car"}}, {"type": "node", "id": 1636846799, "lat": 12.2955923, "lon": 76.6419261, "tags": {"addr:postcode": "570001", "addr:street": "Ambedkar Road", "alt_name": "Mystore", "int_name": "Mystore", "name": "Mystore", "old_name": "Mystore", "shop": "supermarket"}}, {"type": "node", "id": 1636849498, "lat": 12.3003541, "lon": 76.6426905, "tags": {"branch": "World", "brand": "Sony", "brand:wikidata": "Q41187", "name": "Sony World", "shop": "electronics"}}, {"type": "node", "id": 1636856805, "lat": 12.2949345, "lon": 76.6464671, "tags": {"brand": "Yamaha", "brand:wikidata": "Q158888", "name": "Arjun Yamaha!", "shop": "motorcycle"}}, {"type": "node", "id": 1636858282, "lat": 12.295566, "lon": 76.6421945, "tags": {"shop": "florist"}}, {"type": "node", "id": 1636860011, "lat": 12.3027467, "lon": 76.6435971, "tags": {"name": "American Hairdresser", "shop": "hairdresser"}}, {"type": "node", "id": 1637357780, "lat": 12.2926993, "lon": 76.6456838, "tags": {"addr:postcode": "570004", "addr:street": "JLB Road", "name": "Sona TVS", "shop": "motorcycle"}}, {"type": "node", "id": 1637361838, "lat": 12.3118115, "lon": 76.6426288, "tags": {"name": "Reliance Trends", "name:kn": "\u0cb0\u0cbf\u0cb2\u0caf\u0ca8\u0ccd\u0cb8\u0ccd \u0c9f\u0ccd\u0cb0\u0cc6\u0c82\u0ca1\u0ccd\u0cb8\u0ccd", "shop": "clothes"}}, {"type": "node", "id": 1638081256, "lat": 12.3085404, "lon": 76.6596102, "tags": {"name": "Josalukas", "shop": "jewelry"}}, {"type": "node", "id": 1638081438, "lat": 12.3139885, "lon": 76.658886, "tags": {"name": "Malabar Gold", "shop": "jewelry"}}, {"type": "node", "id": 1645766196, "lat": 12.3121317, "lon": 76.648122, "tags": {"addr:city": "Mysuru", "addr:street": "Narayana Shastri Road", "name": "Sapna Book Shop", "shop": "books"}}, {"type": "node", "id": 1645771880, "lat": 12.318468, "lon": 76.6253715, "tags": {"name": "Scarlett Yamaha", "shop": "motorcycle"}}, {"type": "node", "id": 1645775976, "lat": 12.3214186, "lon": 76.6210102, "tags": {"addr:city": "Mysuru,", "addr:postcode": "570012", "addr:street": "Gokulam Main Road", "description": "Formerly Easy Day SuperaMarket", "name": "Big Bazaar", "shop": "supermarket"}}, {"type": "node", "id": 1645792112, "lat": 12.3381312, "lon": 76.6167187, "tags": {"alt_name": "Reliance Fresh", "int_name": "Reliance Fresh", "name": "Reliance Fresh", "name:kn": "\u0cb0\u0cbf\u0cb2\u0cbe\u0caf\u0ca8\u0ccd\u0cb8\u0ccd \u0cab\u0ccd\u0cb0\u0cc6\u0cb6\u0ccd", "old_name": "Reliance Fresh", "shop": "supermarket"}}, {"type": "node", "id": 1645793415, "lat": 12.3491884, "lon": 76.618387, "tags": {"int_name": "More Store", "name": "More Store", "payment:cash": "yes", "payment:credit_cards": "yes", "payment:maestro": "yes", "payment:upi": "yes", "payment:visa": "yes", "shop": "convenience"}}, {"type": "node", "id": 1649133296, "lat": 12.2978367, "lon": 76.6643044, "tags": {"name": "Mall of Mysore", "name:kn": "\u0cae\u0cbe\u0cb2\u0ccd \u0c86\u0cab\u0ccd \u0cae\u0cc8\u0cb8\u0cc2\u0cb0\u0cc1", "shop": "clothes"}}, {"type": "node", "id": 1649157327, "lat": 12.2864942, "lon": 76.6549005, "tags": {"shop": "car_repair"}}, {"type": "node", "id": 1653868191, "lat": 12.2961244, "lon": 76.631719, "tags": {"name": "Mysore Suzuki", "shop": "motorcycle"}}, {"type": "node", "id": 1653868687, "lat": 12.3020078, "lon": 76.626698, "tags": {"addr:city": "Mysuru", "addr:street": "Sahukar Chennaiah Road", "name": "Bake Point", "shop": "bakery"}}, {"type": "node", "id": 1653868826, "lat": 12.3006162, "lon": 76.6265156, "tags": {"addr:city": "Mysuru", "addr:street": "Vishvamanava Road", "name": "Popular Bajaj", "shop": "motorcycle"}}, {"type": "node", "id": 1654527695, "lat": 12.3232316, "lon": 76.6304465, "tags": {"alt_name": "Loyal World", "check_date": "2023-02-16", "int_name": "Loyal World", "name": "Loyal World", "old_name": "Loyal World", "shop": "supermarket"}}, {"type": "node", "id": 1681443536, "lat": 12.2884613, "lon": 76.6267376, "tags": {"name": "Sangeeta Mobile Stores", "shop": "hifi"}}, {"type": "node", "id": 1681443538, "lat": 12.2864957, "lon": 76.6282853, "tags": {"name": "Kitchen Collections", "shop": "doityourself"}}, {"type": "node", "id": 1681443540, "lat": 12.2863975, "lon": 76.6299131, "tags": {"brand": "Reliance Fresh", "brand:wikidata": "Q7311014", "name": "Reliance Fresh", "name:kn": "\u0cb0\u0cbf\u0cb2\u0cbe\u0caf\u0ca8\u0ccd\u0cb8\u0ccd \u0cab\u0ccd\u0cb0\u0cc6\u0cb6\u0ccd", "shop": "supermarket"}}, {"type": "node", "id": 1681443545, "lat": 12.2866477, "lon": 76.626633, "tags": {"brand": "More", "brand:wikidata": "Q6910891", "name": "More", "shop": "supermarket"}}, {"type": "node", "id": 1681443552, "lat": 12.2866084, "lon": 76.6267484, "tags": {"name": "Men's Saloon", "shop": "hairdresser"}}, {"type": "node", "id": 1681456734, "lat": 12.2865507, "lon": 76.6272338, "tags": {"name": "Fish Stall", "shop": "fishmonger"}}, {"type": "node", "id": 1681456735, "lat": 12.285429, "lon": 76.6259759, "tags": {"name": "Chicken and Mutton", "shop": "butcher"}}, {"type": "node", "id": 1681456739, "lat": 12.2867054, "lon": 76.6262119, "tags": {"name": "Shubam Electronics", "shop": "hifi"}}, {"type": "node", "id": 1681456754, "lat": 12.286818, "lon": 76.6247206, "tags": {"name": "ShowOff", "shop": "clothes"}}, {"type": "node", "id": 1681456763, "lat": 12.2864407, "lon": 76.6260859, "tags": {"name": "Jockey", "shop": "clothes"}}, {"type": "node", "id": 1681456770, "lat": 12.2871928, "lon": 76.6247501, "tags": {"name": "Sri Krishna Bakery", "shop": "confectionery"}}, {"type": "node", "id": 1681456775, "lat": 12.2866844, "lon": 76.626515, "tags": {"brand": "Peter England", "brand:wikidata": "Q19573665", "clothes": "men", "name": "Peter England", "name:kn": "\u0caa\u0cc0\u0c9f\u0cb0\u0ccd \u0c87\u0c82\u0c97\u0ccd\u0cb2\u0cc6\u0c82\u0ca1\u0ccd", "shop": "clothes"}}, {"type": "node", "id": 1681456783, "lat": 12.2867709, "lon": 76.6256809, "tags": {"name": "Loyal World", "shop": "supermarket"}}, {"type": "node", "id": 1681456785, "lat": 12.286176, "lon": 76.6257399, "tags": {"name": "Kuvempunagar Shopping Complex", "shop": "supermarket"}}, {"type": "node", "id": 1681456787, "lat": 12.2822736, "lon": 76.6255897, "tags": {"name": "Pooja Bakery", "shop": "bakery"}}, {"type": "node", "id": 1681456789, "lat": 12.2867656, "lon": 76.6255414, "tags": {"name": "Woodlands", "shop": "clothes"}}, {"type": "node", "id": 1681456793, "lat": 12.2863673, "lon": 76.6265901, "tags": {"name": "People", "shop": "clothes"}}, {"type": "node", "id": 1681456799, "lat": 12.282195, "lon": 76.6255923, "tags": {"shop": "alcohol"}}, {"type": "node", "id": 1681456808, "lat": 12.2867394, "lon": 76.6258096, "tags": {"name": "Rangoli Showroom", "shop": "clothes"}}, {"type": "node", "id": 1700603185, "lat": 12.2745821, "lon": 76.6460271}, {"type": "node", "id": 1700603187, "lat": 12.2748337, "lon": 76.6460432}, {"type": "node", "id": 1700603188, "lat": 12.2745401, "lon": 76.6464616}, {"type": "node", "id": 1700603189, "lat": 12.2748022, "lon": 76.6464724}, {"type": "node", "id": 1798360177, "lat": 12.3242706, "lon": 76.6315177, "tags": {"addr:street": "Temple road", "designation": "Star Bajaj", "name": "Star Bajaj", "shop": "motorcycle", "source": "Star Bajaj"}}, {"type": "node", "id": 1798430525, "lat": 12.3579301, "lon": 76.6220219}, {"type": "node", "id": 1798430526, "lat": 12.3577753, "lon": 76.6215254}, {"type": "node", "id": 1798430527, "lat": 12.3582495, "lon": 76.6213705}, {"type": "node", "id": 1798430528, "lat": 12.3584043, "lon": 76.621867}, {"type": "node", "id": 1798917008, "lat": 12.3264086, "lon": 76.6169662}, {"type": "node", "id": 1798917009, "lat": 12.3264438, "lon": 76.6174248}, {"type": "node", "id": 1798917010, "lat": 12.3263312, "lon": 76.6173827}, {"type": "node", "id": 1798917011, "lat": 12.3262937, "lon": 76.6170202}, {"type": "node", "id": 1936904721, "lat": 12.2961252, "lon": 76.6315971, "tags": {"name": "Mega Mart", "shop": "clothes"}}, {"type": "node", "id": 2027761255, "lat": 12.295324, "lon": 76.6142885, "tags": {"name": "Day To Day Food Stuffs", "shop": "supermarket"}}, {"type": "node", "id": 2028141373, "lat": 12.2953499, "lon": 76.6143699, "tags": {"addr:city": "Mysuru", "addr:street": "New Kantharaje Urs Road", "name": "Royal Zoom", "shop": "gift"}}, {"type": "node", "id": 2028141375, "lat": 12.2955309, "lon": 76.6213452, "tags": {"name": "Bakery", "shop": "bakery"}}, {"type": "node", "id": 2039568205, "lat": 12.3092568, "lon": 76.6469656, "tags": {"name": "Chopra's", "shop": "clothes"}}, {"type": "node", "id": 2039570936, "lat": 12.3092542, "lon": 76.647207, "tags": {"name": "Bhima & Brothers", "shop": "jewelry"}}, {"type": "node", "id": 2039570941, "lat": 12.3098683, "lon": 76.6498889, "tags": {"name": "Big Bus", "shop": "clothes"}}, {"type": "node", "id": 2039596007, "lat": 12.3087982, "lon": 76.6537383}, {"type": "node", "id": 2039596008, "lat": 12.3087379, "lon": 76.6541058}, {"type": "node", "id": 2039596009, "lat": 12.3092437, "lon": 76.6534728}, {"type": "node", "id": 2039596010, "lat": 12.3094036, "lon": 76.6539931}, {"type": "node", "id": 2039596011, "lat": 12.3093014, "lon": 76.653977}, {"type": "node", "id": 2039596012, "lat": 12.309387, "lon": 76.6541712}, {"type": "node", "id": 2039611973, "lat": 12.3213299, "lon": 76.6202996}, {"type": "node", "id": 2039611981, "lat": 12.3208854, "lon": 76.6210263}, {"type": "node", "id": 2039612013, "lat": 12.3218298, "lon": 76.6206266}, {"type": "node", "id": 2039612015, "lat": 12.3214256, "lon": 76.6213812}, {"type": "node", "id": 2041340107, "lat": 12.2834041, "lon": 76.6417403, "tags": {"name": "Pariwar Bakery", "shop": "bakery"}}, {"type": "node", "id": 2233907044, "lat": 12.3121963, "lon": 76.6585251, "tags": {"addr:city": "Mysore", "addr:country": "IN", "addr:state": "KA", "name": "Reliance Mart", "shop": "supermarket"}}, {"type": "node", "id": 2381298564, "lat": 12.2937216, "lon": 76.6255377, "tags": {"addr:city": "Mysuru", "addr:postcode": "570023", "addr:street": "Vishvamanava Road", "name": "A2Z Supermarket", "shop": "supermarket"}}, {"type": "node", "id": 2403685819, "lat": 12.2972194, "lon": 76.6173393, "tags": {"name": "Cosmos Ladies Beauty Parlour", "shop": "hairdresser"}}, {"type": "node", "id": 2403687836, "lat": 12.2953531, "lon": 76.616538, "tags": {"name": "Men's Parlour", "shop": "hairdresser"}}, {"type": "node", "id": 2403723096, "lat": 12.304969, "lon": 76.635257, "tags": {"name": "Sweet Palace", "shop": "bakery"}}, {"type": "node", "id": 2447869986, "lat": 12.357228, "lon": 76.36672, "tags": {"name": "Milk Dairy Hagaranahalli", "shop": "dairy"}}, {"type": "node", "id": 2621836996, "lat": 12.221315, "lon": 76.4098705, "tags": {"name": "Milk Dairy", "name:kn": "\u0cb9\u0cbe\u0cb2\u0cbf\u0ca8 \u0c85\u0c82\u0c97\u0ca1\u0cbf", "operator": "Private", "shop": "deli"}}, {"type": "node", "id": 2621837003, "lat": 12.1934932, "lon": 76.4091702, "tags": {"name": "Pravision Store", "shop": "supermarket"}}, {"type": "node", "id": 2621882005, "lat": 12.1953908, "lon": 76.4305758, "tags": {"name": "Milk Dairy", "name:kn": "\u0cb9\u0cbe\u0cb2\u0cbf\u0ca8 \u0c85\u0c82\u0c97\u0ca1\u0cbf", "shop": "deli"}}, {"type": "node", "id": 2621882006, "lat": 12.1949127, "lon": 76.433108, "tags": {"name": "PDS Shop", "shop": "supermarket"}}, {"type": "node", "id": 2621882007, "lat": 12.1948924, "lon": 76.4342651, "tags": {"name": "PDS Shop", "name:kn": "\u0ca8\u0ccd\u0caf\u0cbe\u0caf\u0cac\u0cc6\u0cb2\u0cc6 \u0c85\u0c82\u0c97\u0ca1\u0cbf", "shop": "supermarket"}}, {"type": "node", "id": 2621900842, "lat": 12.1826606, "lon": 76.412179, "tags": {"name": "Milk Dairy", "name:kn": "\u0cb9\u0cbe\u0cb2\u0cbf\u0ca8 \u0c85\u0c82\u0c97\u0ca1\u0cbf", "shop": "deli"}}, {"type": "node", "id": 2621900843, "lat": 12.2123902, "lon": 76.3877283, "tags": {"name": "Milk Dairy", "name:kn": "\u0cb9\u0cbe\u0cb2\u0cbf\u0ca8 \u0c85\u0c82\u0c97\u0ca1\u0cbf", "shop": "deli"}}, {"type": "node", "id": 2621900846, "lat": 12.2118392, "lon": 76.3862835, "tags": {"name": "Pravision Store", "shop": "supermarket"}}, {"type": "node", "id": 2621900847, "lat": 12.2120085, "lon": 76.3868643, "tags": {"name": "Rice mill", "shop": "convenience"}}, {"type": "node", "id": 2621904968, "lat": 12.3800066, "lon": 76.4626936, "tags": {"name": "Pravision Store", "shop": "supermarket"}}, {"type": "node", "id": 2622197458, "lat": 12.265193, "lon": 76.397537, "tags": {"name": "Milk Dairy", "name:kn": "\u0cb9\u0cbe\u0cb2\u0cbf\u0ca8 \u0c85\u0c82\u0c97\u0ca1\u0cbf", "shop": "deli"}}, {"type": "node", "id": 2622197462, "lat": 12.277368, "lon": 76.414046, "tags": {"name": "Milk Dairy", "shop": "deli"}}, {"type": "node", "id": 2622197465, "lat": 12.283906, "lon": 76.392818, "tags": {"name": "Milk Dairy", "name:kn": "\u0cb9\u0cbe\u0cb2\u0cbf\u0ca8 \u0c85\u0c82\u0c97\u0ca1\u0cbf", "shop": "deli"}}, {"type": "node", "id": 2622197469, "lat": 12.309323, "lon": 76.45049, "tags": {"name": "Milk Dairy", "name:kn": "\u0cb9\u0cbe\u0cb2\u0cbf\u0ca8 \u0c85\u0c82\u0c97\u0ca1\u0cbf", "shop": "deli"}}, {"type": "node", "id": 2624350233, "lat": 12.350776, "lon": 76.415534, "tags": {"name": "Milk dairy", "name:kn": "\u0cb9\u0cbe\u0cb2\u0cbf\u0ca8 \u0c85\u0c82\u0c97\u0ca1\u0cbf", "number": "823", "shop": "deli"}}, {"type": "node", "id": 2624350234, "lat": 12.395441, "lon": 76.445633, "tags": {"name": "Milk dairy", "name:kn": "\u0cb9\u0cbe\u0cb2\u0cbf\u0ca8 \u0c85\u0c82\u0c97\u0ca1\u0cbf", "number": "798", "shop": "deli"}}, {"type": "node", "id": 2624350235, "lat": 12.401879, "lon": 76.444225, "tags": {"name": "Milk dairy", "name:kn": "\u0cb9\u0cbe\u0cb2\u0cbf\u0ca8 \u0c85\u0c82\u0c97\u0ca1\u0cbf", "number": "806", "shop": "deli"}}, {"type": "node", "id": 2624350236, "lat": 12.365128, "lon": 76.418915, "tags": {"name": "PDS Shop", "name:kn": "\u0ca8\u0ccd\u0caf\u0cbe\u0caf\u0cac\u0cc6\u0cb2\u0cc6 \u0c85\u0c82\u0c97\u0ca1\u0cbf", "shop": "convenience"}}, {"type": "node", "id": 2624350237, "lat": 12.379626, "lon": 76.441094, "tags": {"name": "PDS Shop", "name:kn": "\u0ca8\u0ccd\u0caf\u0cbe\u0caf\u0cac\u0cc6\u0cb2\u0cc6 \u0c85\u0c82\u0c97\u0ca1\u0cbf", "number": "778", "shop": "convenience"}}, {"type": "node", "id": 2624350238, "lat": 12.38027, "lon": 76.444813, "tags": {"name": "PDS Shop", "name:kn": "\u0ca8\u0ccd\u0caf\u0cbe\u0caf\u0cac\u0cc6\u0cb2\u0cc6 \u0c85\u0c82\u0c97\u0ca1\u0cbf", "number": "789", "shop": "convenience"}}, {"type": "node", "id": 2624350239, "lat": 12.394691, "lon": 76.445829, "tags": {"name": "PDS Shop", "name:kn": "\u0ca8\u0ccd\u0caf\u0cbe\u0caf\u0cac\u0cc6\u0cb2\u0cc6 \u0c85\u0c82\u0c97\u0ca1\u0cbf", "number": "797", "shop": "convenience"}}, {"type": "node", "id": 2624350267, "lat": 12.377211, "lon": 76.427124, "tags": {"name": "Flour Mill", "name:kn": "\u0c97\u0cbf\u0cb0\u0ca3\u0cbf", "number": "768", "shop": "convenience"}}, {"type": "node", "id": 2624639750, "lat": 12.3602309, "lon": 76.4615669, "tags": {"name": "PDS Shop", "name:kn": "\u0ca8\u0ccd\u0caf\u0cbe\u0caf\u0cac\u0cc6\u0cb2\u0cc6 \u0c85\u0c82\u0c97\u0ca1\u0cbf", "shop": "convenience"}}, {"type": "node", "id": 2699763678, "lat": 12.3037075, "lon": 76.6917465, "tags": {"name": "Daily Needs", "shop": "supermarket"}}, {"type": "node", "id": 2702456653, "lat": 12.3070905, "lon": 76.6161454, "tags": {"name": "Aroma", "shop": "bakery"}}, {"type": "node", "id": 2982373930, "lat": 12.3130915, "lon": 76.6533825, "tags": {"addr:city": "Mysore", "addr:housenumber": "476", "addr:postcode": "570001", "addr:street": "Krishna Rajendra Hospital Road", "name": "Shivanna Provision Store", "operator": "Anand", "phone": "+0821 2520689", "shop": "convenience"}}, {"type": "node", "id": 3056826830, "lat": 12.2961242, "lon": 76.6287227, "tags": {"name": "Dharawad Bakery", "name:kn": "\u0ca7\u0cbe\u0cb0\u0cb5\u0cbe\u0ca1 \u0cac\u0cc7\u0c95\u0cb0\u0cbf", "shop": "bakery"}}, {"type": "node", "id": 3058326513, "lat": 12.2943039, "lon": 76.6283314, "tags": {"addr:city": "Mysuru", "addr:postcode": "570023", "addr:street": "Pancamantra Road", "name": "Kumar Medicals", "name:kn": "\u0c95\u0cc1\u0cae\u0cbe\u0cb0\u0ccd \u0cae\u0cc6\u0ca1\u0cbf\u0c95\u0cb2\u0ccd\u0cb8\u0ccd", "shop": "chemist"}}, {"type": "node", "id": 3058467714, "lat": 12.2959121, "lon": 76.6259243, "tags": {"addr:postcode": "570023", "addr:street": "Vishvamanava Road", "name": "Adukale", "shop": "bakery"}}, {"type": "node", "id": 3058472819, "lat": 12.299458, "lon": 76.6283351, "tags": {"addr:city": "Mysuru", "addr:street": "Kamakshi Hospital Road", "name": "Nandini Milk Booth", "name:kn": "\u0ca8\u0c82\u0ca6\u0cbf\u0ca8\u0cbf \u0cb9\u0cbe\u0cb2\u0cbf\u0ca8 \u0c85\u0c82\u0c97\u0ca1\u0cbf", "shop": "convenience"}}, {"type": "node", "id": 3058472820, "lat": 12.299473, "lon": 76.6282219, "tags": {"addr:city": "Mysuru", "addr:street": "Kamakshi Hospital Road", "name": "District HOPCOMS", "name:kn": "\u0c9c\u0cbf\u0cb2\u0ccd\u0cb2\u0cc6 \u0cb9\u0cbe\u0caa\u0ccd \u0c95\u0cbe\u0cae\u0ccd\u0cb8\u0ccd", "shop": "greengrocer"}}, {"type": "node", "id": 3067846339, "lat": 12.2992955, "lon": 76.6283566, "tags": {"addr:city": "Mysuru", "name": "Manipal Electronics", "shop": "yes"}}, {"type": "node", "id": 3197991549, "lat": 12.3022672, "lon": 76.6195037}, {"type": "node", "id": 3197991550, "lat": 12.3021261, "lon": 76.6195052}, {"type": "node", "id": 3197991551, "lat": 12.3021271, "lon": 76.6195976}, {"type": "node", "id": 3197991552, "lat": 12.3022681, "lon": 76.6195961}, {"type": "node", "id": 3198435475, "lat": 12.2895774, "lon": 76.6272289}, {"type": "node", "id": 3198435476, "lat": 12.2895321, "lon": 76.6274047}, {"type": "node", "id": 3198435477, "lat": 12.2894056, "lon": 76.6273705}, {"type": "node", "id": 3198435478, "lat": 12.2894509, "lon": 76.6271947}, {"type": "node", "id": 3200987125, "lat": 12.2942049, "lon": 76.6255986}, {"type": "node", "id": 3200987126, "lat": 12.2941609, "lon": 76.6258267}, {"type": "node", "id": 3200987127, "lat": 12.2940102, "lon": 76.6257964}, {"type": "node", "id": 3200987128, "lat": 12.294062, "lon": 76.6255682}, {"type": "node", "id": 3200987137, "lat": 12.29542, "lon": 76.6288176}, {"type": "node", "id": 3200987138, "lat": 12.2953591, "lon": 76.6288024}, {"type": "node", "id": 3200987139, "lat": 12.2953493, "lon": 76.6288435}, {"type": "node", "id": 3200987140, "lat": 12.2954102, "lon": 76.6288587}, {"type": "node", "id": 3202660339, "lat": 12.3025118, "lon": 76.6214982}, {"type": "node", "id": 3202660340, "lat": 12.3024523, "lon": 76.6214933}, {"type": "node", "id": 3202660341, "lat": 12.3024447, "lon": 76.6215908}, {"type": "node", "id": 3202660342, "lat": 12.3025042, "lon": 76.6215957}, {"type": "node", "id": 3207142458, "lat": 12.2949647, "lon": 76.6257511}, {"type": "node", "id": 3207142459, "lat": 12.2949556, "lon": 76.6258135}, {"type": "node", "id": 3207142460, "lat": 12.2948978, "lon": 76.6258046}, {"type": "node", "id": 3207143561, "lat": 12.2949069, "lon": 76.6257422}, {"type": "node", "id": 3207143562, "lat": 12.2948957, "lon": 76.6257707}, {"type": "node", "id": 3207143563, "lat": 12.2948904, "lon": 76.6258031}, {"type": "node", "id": 3207143564, "lat": 12.2948587, "lon": 76.6257977}, {"type": "node", "id": 3207143565, "lat": 12.2948641, "lon": 76.6257653}, {"type": "node", "id": 3211957373, "lat": 12.2819026, "lon": 76.6424903}, {"type": "node", "id": 3211957374, "lat": 12.2818369, "lon": 76.6429826}, {"type": "node", "id": 3211957375, "lat": 12.2820997, "lon": 76.6430123}, {"type": "node", "id": 3211957376, "lat": 12.2821344, "lon": 76.6427354}, {"type": "node", "id": 3211957377, "lat": 12.2822465, "lon": 76.6427493}, {"type": "node", "id": 3211957378, "lat": 12.2822735, "lon": 76.6425358}, {"type": "node", "id": 3211957403, "lat": 12.2944365, "lon": 76.6452674}, {"type": "node", "id": 3211957404, "lat": 12.2944189, "lon": 76.6454499}, {"type": "node", "id": 3211957405, "lat": 12.2946605, "lon": 76.6454739}, {"type": "node", "id": 3211957406, "lat": 12.294671, "lon": 76.6453646}, {"type": "node", "id": 3211957407, "lat": 12.2946628, "lon": 76.645331}, {"type": "node", "id": 3211957408, "lat": 12.2946511, "lon": 76.6453058}, {"type": "node", "id": 3211957409, "lat": 12.2946347, "lon": 76.645289}, {"type": "node", "id": 3213769792, "lat": 12.3265189, "lon": 76.6171571}, {"type": "node", "id": 3213769793, "lat": 12.3265235, "lon": 76.6172279}, {"type": "node", "id": 3213769794, "lat": 12.3263789, "lon": 76.6171733}, {"type": "node", "id": 3213769795, "lat": 12.3263507, "lon": 76.617178}, {"type": "node", "id": 3213769796, "lat": 12.3263533, "lon": 76.6172417}, {"type": "node", "id": 3213769797, "lat": 12.326388, "lon": 76.6172383}, {"type": "node", "id": 3217513961, "lat": 12.3110347, "lon": 76.658933, "tags": {"addr:city": "Mysuru", "addr:street": "Bangalore Nilgiri Road", "name": "Giria's", "shop": "electronics"}}, {"type": "node", "id": 3217567054, "lat": 12.2953783, "lon": 76.615597, "tags": {"addr:city": "Mysuru", "addr:postcode": "570023", "addr:street": "New Kantharaje Urs Road", "name": "Ruchi, Butcher Shop", "shop": "butcher"}}, {"type": "node", "id": 3217567461, "lat": 12.3022707, "lon": 76.6210515}, {"type": "node", "id": 3217567462, "lat": 12.3022741, "lon": 76.6211435}, {"type": "node", "id": 3217567463, "lat": 12.3022292, "lon": 76.62114}, {"type": "node", "id": 3217567464, "lat": 12.3022257, "lon": 76.6210568}, {"type": "node", "id": 3221217590, "lat": 12.2954673, "lon": 76.6211198, "tags": {"addr:city": "Mysuru", "addr:postcode": "570023", "addr:street": "Paduvana Road", "name": "Kavitha Departmental Store", "shop": "department_store"}}, {"type": "node", "id": 3224353375, "lat": 12.3111375, "lon": 76.6476812}, {"type": "node", "id": 3224353376, "lat": 12.3110893, "lon": 76.6480604}, {"type": "node", "id": 3224353377, "lat": 12.3108344, "lon": 76.6480265}, {"type": "node", "id": 3224353378, "lat": 12.3108827, "lon": 76.6476473}, {"type": "node", "id": 3232425327, "lat": 12.313876, "lon": 76.6163961, "tags": {"name": "Sree Xerox,shop no.10", "shop": "copyshop"}}, {"type": "node", "id": 3232426271, "lat": 12.3136673, "lon": 76.6163265, "tags": {"name": "Apsara dry cleaners, shop no.6", "shop": "dry_cleaning"}}, {"type": "node", "id": 3232426761, "lat": 12.3138174, "lon": 76.6163505, "tags": {"name": "Sizzling corner,shop no.7", "shop": "yes"}}, {"type": "node", "id": 3232428579, "lat": 12.300656, "lon": 76.6166714, "tags": {"addr:city": "Mysuru", "addr:street": "Chaduranga Road, 13th Main Road", "name": "Cosmos Ladies Beauty Parlour", "shop": "beauty"}}, {"type": "node", "id": 3232429350, "lat": 12.2941621, "lon": 76.6174288, "tags": {"addr:city": "Mysuru", "addr:housenumber": "Opposite to Stone Building", "addr:street": "Chaduranga Road, 13th Main Road", "name": "Sukhasana Interiors", "shop": "interior_decoration"}}, {"type": "node", "id": 3232486015, "lat": 12.2927168, "lon": 76.6166856, "tags": {"addr:city": "Mysusu", "addr:housenumber": "#2, Tibbadevi Circle, Ramakrishnanagar", "addr:postcode": "570023", "addr:street": "SwamiVivekananda Road", "name": "Gaanu Chiru Medicals", "shop": "medical_supply"}}, {"type": "node", "id": 3272560397, "lat": 12.3030908, "lon": 76.627571, "tags": {"addr:city": "Mysuru", "addr:street": "Sarasvatipuram 17th Main", "name": "Prasanna Xerox", "shop": "copyshop"}}, {"type": "node", "id": 3272560398, "lat": 12.302947, "lon": 76.6280536, "tags": {"addr:city": "Mysuru", "addr:street": "Sarasvatipuram 14th Main", "name": "SLV Bakery", "shop": "bakery"}}, {"type": "node", "id": 3272560399, "lat": 12.3011778, "lon": 76.6261901, "tags": {"addr:city": "Mysuru", "addr:street": "Vishvamanava Road", "brand": "Airtel", "brand:wikidata": "Q854867", "name": "Airtel", "name:kn": "\u0c8f\u0cb0\u0ccd\u0c9f\u0cc6\u0cb2\u0ccd", "shop": "mobile_phone"}}, {"type": "node", "id": 3272588653, "lat": 12.391564, "lon": 76.3836112}, {"type": "node", "id": 3272588654, "lat": 12.3916226, "lon": 76.3836386}, {"type": "node", "id": 3272588655, "lat": 12.3915933, "lon": 76.3837019}, {"type": "node", "id": 3272588656, "lat": 12.3915366, "lon": 76.3836751}, {"type": "node", "id": 3301988839, "lat": 12.3030624, "lon": 76.655554, "tags": {"name": "H.P.M.C.", "shop": "farm"}}, {"type": "node", "id": 3303963557, "lat": 12.2986198, "lon": 76.6684621, "tags": {"name": "Zoo Shop", "shop": "gift"}}, {"type": "node", "id": 3339526288, "lat": 12.1023822, "lon": 76.4332282, "tags": {"name": "Dairy", "name:kn": "\u0cb9\u0cbe\u0cb2\u0cbf\u0ca8 \u0c95\u0cc7\u0c82\u0ca6\u0ccd\u0cb0, \u0c95\u0cbe\u0cb3\u0cbf\u0cb9\u0cc1\u0c82\u0ca1\u0cbf", "shop": "dairy"}}, {"type": "node", "id": 3371341202, "lat": 12.2805198, "lon": 76.6044988}, {"type": "node", "id": 3371341203, "lat": 12.2805373, "lon": 76.604672}, {"type": "node", "id": 3371341204, "lat": 12.2803547, "lon": 76.6047002}, {"type": "node", "id": 3371341205, "lat": 12.2803281, "lon": 76.6045455}, {"type": "node", "id": 3371341593, "lat": 12.2843119, "lon": 76.6036439}, {"type": "node", "id": 3371341594, "lat": 12.284321, "lon": 76.6039148}, {"type": "node", "id": 3371341595, "lat": 12.2842024, "lon": 76.6039334}, {"type": "node", "id": 3371341596, "lat": 12.284175, "lon": 76.6036626}, {"type": "node", "id": 3371355956, "lat": 12.2797343, "lon": 76.6018223, "tags": {"name": "Maruti steel suppliers", "shop": "hardware"}}, {"type": "node", "id": 3371413888, "lat": 12.2775405, "lon": 76.6060854}, {"type": "node", "id": 3377634215, "lat": 12.304649, "lon": 76.6956779, "tags": {"name": "Mandovi Motors", "shop": "car"}}, {"type": "node", "id": 3390585966, "lat": 12.3291308, "lon": 76.6639744, "tags": {"name": "New Sagar Home World", "shop": "supermarket"}}, {"type": "node", "id": 3390586520, "lat": 12.3292104, "lon": 76.6641839, "tags": {"name": "New Sagar Home World", "shop": "supermarket"}}, {"type": "node", "id": 3390668637, "lat": 12.2963042, "lon": 76.6344932, "tags": {"name": "Gokul Bakery", "shop": "bakery"}}, {"type": "node", "id": 3390691740, "lat": 12.2956241, "lon": 76.6395737, "tags": {"name": "Brand Factory", "shop": "clothes"}}, {"type": "node", "id": 3390693503, "lat": 12.2956136, "lon": 76.640711, "tags": {"name": "R.N.M Associated", "shop": "furniture"}}, {"type": "node", "id": 3390732740, "lat": 12.3091135, "lon": 76.6528121, "tags": {"name": "Shankar Shetty & Sons", "shop": "jewelry"}}, {"type": "node", "id": 3390735337, "lat": 12.3098171, "lon": 76.6525944, "tags": {"name": "Guru Sweets", "shop": "confectionery"}}, {"type": "node", "id": 3390736626, "lat": 12.3120454, "lon": 76.6519146, "tags": {"brand": "Bata", "brand:wikidata": "Q688082", "name": "Bata", "name:kn": "\u0cac\u0cbe\u0c9f\u0cbe", "shop": "shoes"}}, {"type": "node", "id": 3390737355, "lat": 12.3120315, "lon": 76.651789, "tags": {"name": "Raja Bangles", "shop": "fashion_accessories"}}, {"type": "node", "id": 3390825757, "lat": 12.3101269, "lon": 76.6562927, "tags": {"brand": "Bata", "brand:wikidata": "Q688082", "name": "Bata", "name:kn": "\u0cac\u0cbe\u0c9f\u0cbe", "shop": "shoes"}}, {"type": "node", "id": 3390825967, "lat": 12.3106358, "lon": 76.6561118, "tags": {"name": "Jain Hardware", "shop": "hardware"}}, {"type": "node", "id": 3390886231, "lat": 12.3095006, "lon": 76.6479159}, {"type": "node", "id": 3390886232, "lat": 12.3094182, "lon": 76.6479037}, {"type": "node", "id": 3390886233, "lat": 12.3094123, "lon": 76.6479626}, {"type": "node", "id": 3390886234, "lat": 12.3094957, "lon": 76.6479728}, {"type": "node", "id": 3519953819, "lat": 12.3237968, "lon": 76.627055, "tags": {"name": "Airtel", "name:kn": "\u0c8f\u0cb0\u0ccd\u0c9f\u0cc6\u0cb2\u0ccd", "shop": "mobile_phone"}}, {"type": "node", "id": 3519957147, "lat": 12.3214253, "lon": 76.6217523, "tags": {"name": "Lollipop", "shop": "clothes"}}, {"type": "node", "id": 3564755093, "lat": 12.3009367, "lon": 76.6422262}, {"type": "node", "id": 3564755095, "lat": 12.3008422, "lon": 76.6427943}, {"type": "node", "id": 3564755096, "lat": 12.3004738, "lon": 76.6427314}, {"type": "node", "id": 3564755097, "lat": 12.3005517, "lon": 76.6421754}, {"type": "node", "id": 3564755099, "lat": 12.2996174, "lon": 76.6424642, "tags": {"operator": "Maya", "shop": "clothes"}}, {"type": "node", "id": 3564775720, "lat": 12.3249513, "lon": 76.6271025, "tags": {"name": "Dhaatu", "name:kn": "\u0ca7\u0cbe\u0ca4\u0cc1", "shop": "supermarket"}}, {"type": "node", "id": 3564779637, "lat": 12.3241912, "lon": 76.6249254, "tags": {"name": "Mysore Silk Udyog", "shop": "clothes"}}, {"type": "node", "id": 3567537541, "lat": 12.3259045, "lon": 76.6265498, "tags": {"name": "Beautique", "shop": "beauty"}}, {"type": "node", "id": 3567879893, "lat": 12.32466, "lon": 76.6244234, "tags": {"brand": "Reliance Fresh", "brand:wikidata": "Q7311014", "name": "Reliance Fresh", "name:kn": "\u0cb0\u0cbf\u0cb2\u0cbe\u0caf\u0ca8\u0ccd\u0cb8\u0ccd \u0cab\u0ccd\u0cb0\u0cc6\u0cb6\u0ccd", "shop": "supermarket"}}, {"type": "node", "id": 3572682497, "lat": 12.3238957, "lon": 76.6267713, "tags": {"brand": "Vodafone Idea", "brand:wikidata": "Q1656673", "name": "Vodafone Idea", "shop": "mobile_phone"}}, {"type": "node", "id": 3582604093, "lat": 12.3255246, "lon": 76.6323926, "tags": {"brand": "Bata", "brand:wikidata": "Q688082", "name": "Bata", "name:kn": "\u0cac\u0cbe\u0c9f\u0cbe", "shop": "shoes"}}, {"type": "node", "id": 3584612119, "lat": 12.3270628, "lon": 76.624507}, {"type": "node", "id": 3584612120, "lat": 12.3271598, "lon": 76.624617}, {"type": "node", "id": 3584612121, "lat": 12.3270497, "lon": 76.6247349}, {"type": "node", "id": 3584612122, "lat": 12.3269423, "lon": 76.6246223}, {"type": "node", "id": 3584613802, "lat": 12.3240835, "lon": 76.626237, "tags": {"name": "Mysore Tarpaulins", "shop": "leather"}}, {"type": "node", "id": 3584615966, "lat": 12.323824, "lon": 76.629917, "tags": {"name": "Dhaathri", "shop": "boutique"}}, {"type": "node", "id": 3608451330, "lat": 12.3228263, "lon": 76.6299223}, {"type": "node", "id": 3608451331, "lat": 12.3227844, "lon": 76.6300269}, {"type": "node", "id": 3608451332, "lat": 12.3228394, "lon": 76.6300644}, {"type": "node", "id": 3608451333, "lat": 12.3228866, "lon": 76.6299732}, {"type": "node", "id": 3617499224, "lat": 12.3255055, "lon": 76.6323212, "tags": {"name": "Woodlands", "shop": "shoes"}}, {"type": "node", "id": 3630695547, "lat": 12.3444446, "lon": 76.6184909, "tags": {"name": "Surya Bakery", "shop": "bakery"}}, {"type": "node", "id": 3630715125, "lat": 12.2977162, "lon": 76.6642695, "tags": {"name": "Shoppers stop", "shop": "clothes"}}, {"type": "node", "id": 3630716883, "lat": 12.2931388, "lon": 76.6328177}, {"type": "node", "id": 3630716884, "lat": 12.293142, "lon": 76.6329404}, {"type": "node", "id": 3630716885, "lat": 12.2929686, "lon": 76.6329433}, {"type": "node", "id": 3630716886, "lat": 12.2929643, "lon": 76.6328238}, {"type": "node", "id": 3630728095, "lat": 12.2867034, "lon": 76.6248552, "tags": {"name": "Mahalakshmi sweets", "shop": "confectionery"}}, {"type": "node", "id": 3630735157, "lat": 12.2863276, "lon": 76.6274055, "tags": {"name": "Easy Day", "shop": "supermarket"}}, {"type": "node", "id": 3636268902, "lat": 12.3292644, "lon": 76.6300155, "tags": {"name": "HOPCOMS", "name:kn": "\u0cb9\u0cbe\u0caa\u0ccd \u0c95\u0cbe\u0cae\u0ccd\u0cb8\u0ccd", "shop": "greengrocer"}}, {"type": "node", "id": 3636269565, "lat": 12.3277645, "lon": 76.6312462}, {"type": "node", "id": 3636269566, "lat": 12.3276553, "lon": 76.6311459}, {"type": "node", "id": 3636269567, "lat": 12.3275761, "lon": 76.6312192}, {"type": "node", "id": 3636269568, "lat": 12.3276929, "lon": 76.6313271}, {"type": "node", "id": 3636275600, "lat": 12.3293395, "lon": 76.6301971, "tags": {"name": "Toot-C", "shop": "bakery"}}, {"type": "node", "id": 3638120226, "lat": 12.2956715, "lon": 76.6289626, "tags": {"name": "Nandini Milk Booth", "name:kn": "\u0ca8\u0c82\u0ca6\u0cbf\u0ca8\u0cbf \u0cb9\u0cbe\u0cb2\u0cbf\u0ca8 \u0c85\u0c82\u0c97\u0ca1\u0cbf", "shop": "convenience"}}, {"type": "node", "id": 3648823223, "lat": 12.2773704, "lon": 76.6061135}, {"type": "node", "id": 3648823224, "lat": 12.2774185, "lon": 76.6063282}, {"type": "node", "id": 3648824025, "lat": 12.277585, "lon": 76.6062884}, {"type": "node", "id": 3669879714, "lat": 12.3092213, "lon": 76.6626789, "tags": {"name": "Kauvery Silk Emporium", "shop": "craft"}}, {"type": "node", "id": 3941090121, "lat": 12.3034716, "lon": 76.6921248, "tags": {"name": "Sangeetha Corner", "shop": "stationery"}}, {"type": "node", "id": 4005598298, "lat": 12.2999317, "lon": 76.634695, "tags": {"name": "Geethanjali", "name:kn": "\u0c97\u0cc0\u0ca4\u0cbe\u0c82\u0c9c\u0cb2\u0cbf", "shop": "jewelry"}}, {"type": "node", "id": 4009040222, "lat": 12.2982145, "lon": 76.6519029, "tags": {"addr:city": "Mysuru", "addr:postcode": "570004", "addr:street": "Tyagaraja Road", "name": "Nandini Milk Parlour", "name:kn": "\u0ca8\u0c82\u0ca6\u0cbf\u0ca8\u0cbf \u0cb9\u0cbe\u0cb2\u0cbf\u0ca8 \u0c85\u0c82\u0c97\u0ca1\u0cbf", "shop": "dairy"}}, {"type": "node", "id": 4019475720, "lat": 12.3234133, "lon": 76.6281034, "tags": {"name": "Sangeeta Mobile Store", "shop": "yes"}}, {"type": "node", "id": 4055172120, "lat": 12.3006559, "lon": 76.6348261}, {"type": "node", "id": 4055172121, "lat": 12.300673, "lon": 76.6345954}, {"type": "node", "id": 4055172122, "lat": 12.3007804, "lon": 76.6348315}, {"type": "node", "id": 4055172123, "lat": 12.3007961, "lon": 76.6346008}, {"type": "node", "id": 4100125792, "lat": 12.313789, "lon": 76.614877, "tags": {"addr:street": "Campus Road", "name": "Yashaswini Milk Parlour", "opening_hours": "Mo-Su 10:00-22:00", "shop": "beverages"}}, {"type": "node", "id": 4101227394, "lat": 12.3488034, "lon": 76.6669747, "tags": {"addr:street": "Ring Road", "name": "Tea Stall", "shop": "beverages"}}, {"type": "node", "id": 4114513705, "lat": 12.3151382, "lon": 76.6449229, "tags": {"addr:street": "Jhansi Lakshmibai Road", "amenity": "restaurant", "brand": "Adyar Ananda Bhavan", "brand:wikidata": "Q15178238", "cuisine": "indian", "diet:vegetarian": "only", "indoor_seating": "yes", "name": "Adyar Ananda Bhavan", "name:kn": "\u0c85\u0ca8\u0c82\u0ca6 \u0cad\u0cb5\u0ca8", "opening_hours": "Mo-Su 07:00-23:00", "outdoor_seating": "no", "payment:credit_cards": "yes", "payment:debit_cards": "yes", "shop": "confectionery", "smoking": "no", "website": "http://sabsweets.in", "wheelchair": "no"}}, {"type": "node", "id": 4177700388, "lat": 12.3211418, "lon": 76.6304733, "tags": {"name": "Yashtel", "shop": "yes"}}, {"type": "node", "id": 4198257392, "lat": 12.305177, "lon": 76.6473483, "tags": {"addr:city": "Mysuru", "name": "Photo Album Centre", "shop": "photo"}}, {"type": "node", "id": 4201469783, "lat": 12.3004276, "lon": 76.6529328}, {"type": "node", "id": 4201469784, "lat": 12.3002076, "lon": 76.6528893}, {"type": "node", "id": 4201469785, "lat": 12.3001881, "lon": 76.6530494}, {"type": "node", "id": 4201469786, "lat": 12.3003926, "lon": 76.6530812}, {"type": "node", "id": 4228356789, "lat": 12.3345813, "lon": 76.6310958, "tags": {"name": "Natures Nectar", "shop": "supermarket"}}, {"type": "node", "id": 4248339080, "lat": 12.3279539, "lon": 76.6626986, "tags": {"name": "Loyal World", "shop": "supermarket"}}, {"type": "node", "id": 4486565403, "lat": 12.3215272, "lon": 76.6207869, "tags": {"addr:city": "mysuru", "addr:housenumber": "#24", "addr:postcode": "570012", "addr:street": "7th Main Road", "cuisine": "chicken", "name": "Puma", "name:kn": "\u0caa\u0cc2\u0cae", "opening_hours": "09:13, 15:21", "phone": "+919012345678", "shop": "sports", "takeaway": "yes"}}, {"type": "node", "id": 4487919058, "lat": 12.3397376, "lon": 76.6152794, "tags": {"addr:city": "Mysore", "addr:housenumber": "80feet SBM main road", "addr:postcode": "570016", "addr:street": "Vijayanagara 2nd stage, Lokanayaka Nagar, Vijay Nagar 2nd Stage, Mahadeshwara Badavane Layout,", "name": "Hanuman sports", "opening_hours": "9:00-22:00", "phone": "095384 52672", "shop": "sports"}}, {"type": "node", "id": 4487931594, "lat": 12.3119757, "lon": 76.6487711, "tags": {"addr:city": "Mysuru", "addr:housenumber": "Opp Care hospital stone building, Devaraja Mohalla, Shivarampet", "addr:postcode": "570001", "addr:street": "Dhanavantri Road", "name": "Raghuveer Sports Annexe", "opening_hours": "9:00-22:00", "phone": "098455 27889", "shop": "sports", "website": "https://cityon.net/"}}, {"type": "node", "id": 4487938795, "lat": 12.2958222, "lon": 76.7009485, "tags": {"addr:city": "Mysuru,", "addr:housenumber": "#611, Allanahalli Village", "addr:postcode": "570011", "addr:street": "Near Vasavi Shanti Dhama, Netaji Nagar", "name": "Vijaya Sports Wear", "phone": "0821 419 2523", "shop": "sports", "website": "http://perform.co.in"}}, {"type": "node", "id": 4487943345, "lat": 12.2947735, "lon": 76.6268187, "tags": {"addr:city": "Mysuru", "addr:housenumber": "Shop No LIG 113 PANCHAMANTRA ROAD", "addr:postcode": "570023", "addr:street": "NEAR TEJUS RAILWAY BOOKING CONTER, Panchamantra Road KUVEMPU NAGAR", "name": "Pioneer Sports", "opening_hours": "9:00-22:00", "phone": "0821 234 1643", "shop": "sports"}}, {"type": "node", "id": 4487956910, "lat": 12.2978147, "lon": 76.6648143, "tags": {"addr:city": "Mysore,", "addr:housenumber": "Unit No 17, Gr Flr, Mall of Mysore", "addr:postcode": "570022", "addr:street": "Indiranagar Ext, Nazarabad Mohalla, Indiranagar Extension, JC Nagar,", "name": "Nike", "name:kn": "\u0ca8\u0cc8\u0c95\u0ccd", "opening_hours": "9:00-22:00", "phone": "0821 452 1262", "shop": "sports", "website": "https://nike.ssiplgroup.com/"}}, {"type": "node", "id": 4487964514, "lat": 12.311975, "lon": 76.6514526, "tags": {"addr:city": "Mysuru", "addr:housenumber": "406, Devaraja Market Building, Dhanvanthri Road,", "addr:postcode": "570001", "addr:street": "Near K R Hospital, Dhanvanthri Road, Devaraja Mohalla, Shivarampet,", "name": "Sharma Sports", "opening_hours": "9:00-22:00", "phone": "0821 242 0385", "shop": "sports"}}, {"type": "node", "id": 4487969465, "lat": 12.3094149, "lon": 76.6448729, "tags": {"addr:city": "Mysore", "addr:housenumber": "Shop No. 131, 4th Block", "addr:postcode": "570001", "addr:street": "A Ramana St, Subbarayanakere, Devraj Mohalla, Chamrajpura,", "brand": "Adidas", "brand:wikidata": "Q3895", "name": "Adidas", "name:kn": "\u0c85\u0ca1\u0cbf\u0ca1\u0cbe\u0cb8\u0ccd", "opening_hours": "9:00-22:00", "phone": "0821 424 6540", "shop": "sports", "website": "https://www.adidas.co.in/"}}, {"type": "node", "id": 4487976827, "lat": 12.3095876, "lon": 76.6515144, "tags": {"addr:city": "Mysuru", "addr:housenumber": "1915/ 11, Mannars Market", "addr:postcode": "570001", "addr:street": "Shivarampet, Devaraja Mohalla, Shivarampet,", "name": "Rajendra Sports", "phone": "0821 243 0706", "shop": "sports"}}, {"type": "node", "id": 4487982259, "lat": 12.3103174, "lon": 76.6557482, "tags": {"addr:city": "Mysuru", "addr:housenumber": "No 667, Ashoka Road", "addr:postcode": "570001", "addr:street": "Opp Clock Tower Square, Clock Tower Rd, Lashkar Mohalla, Mandi Mohalla", "name": "Sharada Cycle & Watch Stores", "opening_hours": "9:00-22:00", "phone": "0821 425 2132", "shop": "sports", "website": "https://cityon.net/"}}, {"type": "node", "id": 4487992144, "lat": 12.3094138, "lon": 76.6481972, "tags": {"addr:city": "Mysuru", "addr:housenumber": "Devaraja Urs Rd", "addr:postcode": "570004", "addr:street": "Subbarayanakere, Shivarampet,", "name": "Global Fitness", "opening_hours": "9:00-22:00", "phone": "098867 28704", "shop": "sports"}}, {"type": "node", "id": 4488009020, "lat": 12.2894879, "lon": 76.6252114, "tags": {"addr:city": "Mysuru,", "addr:housenumber": ". 37/B", "addr:postcode": "570023", "addr:street": "Nrupathunga Road, Kuvempu Nagar 1st Stage, Kuvempu Nagara,", "name": "Jockey", "opening_hours": "9:00-22:00", "phone": "0821 400 0697", "shop": "sports"}}, {"type": "node", "id": 4488016669, "lat": 12.3213622, "lon": 76.6208238, "tags": {"addr:city": "Mysuru,", "addr:housenumber": "S No 22/B,B.M Habitat Mall", "addr:postcode": "570012", "addr:street": "Gokulam Main Rd, Jayalakshmipuram", "name": "Puma", "name:kn": "\u0caa\u0cc2\u0cae", "opening_hours": "9:00-22:00", "phone": "8214521289", "shop": "sports", "website": "https://in.puma.com/"}}, {"type": "node", "id": 4488024634, "lat": 12.3087483, "lon": 76.6576553, "tags": {"addr:city": "Mysuru", "addr:housenumber": "Shri harsha road,", "addr:postcode": "570001", "addr:street": "Hotel Govardhan building", "name": "Track and Trail Sports - Shah Cycles", "opening_hours": "9:00-22:00", "phone": "097422 97444", "shop": "sports"}}, {"type": "node", "id": 4489768607, "lat": 12.2870034, "lon": 76.6288122, "tags": {"addr:city": "Mysuru", "addr:housenumber": "Door no 1827", "addr:postcode": "570023", "addr:street": "K Block, Adichunchungiri Road", "name": "Seniors Riders Stop", "opening_hours": "9:00-22:00", "phone": "0821 428 9444", "shop": "sports"}}, {"type": "node", "id": 4489770264, "lat": 12.3026263, "lon": 76.6434932, "tags": {"addr:city": "Mysuru", "addr:housenumber": "35/C3,", "addr:postcode": "570024", "addr:street": "Parimala Complex,Near Ramaswamy Circle, Chamaraja Double Road,", "name": "Ran Sports", "opening_hours": "9:00-22:00", "phone": "0821 242 3444", "shop": "sports"}}, {"type": "node", "id": 4489779657, "lat": 12.3110941, "lon": 76.640428, "tags": {"addr:city": "Mysuru", "addr:housenumber": "Adjacent to Reliance Trends, No. 2254", "addr:postcode": "570001", "addr:street": "Next to Regalix Hotel, Vinoba Road,", "name": "Reliance Footprint", "opening_hours": "9:00-22:00", "phone": "0821 424 2724", "shop": "sports", "website": "https://www.ril.com/"}}, {"type": "node", "id": 4489788189, "lat": 12.3093464, "lon": 76.6457144, "tags": {"addr:city": "Mysore", "addr:housenumber": "No. 123/D1,", "addr:postcode": "570005", "addr:street": "A Ramana St,", "brand": "Puma", "brand:wikidata": "Q157064", "name": "Puma", "name:kn": "\u0caa\u0cc2\u0cae", "opening_hours": "9:00-22:00", "phone": "0821 424 4462", "shop": "clothes", "website": "https://in.puma.com/?mktID=PL:Brand%20Marketing:Puma.com-CatchAllPage:India-en&plinkID=Brand"}}, {"type": "node", "id": 4586847890, "lat": 12.324036, "lon": 76.653382, "tags": {"name": "Lotus herbal body shop", "name:en": "Lotus herbal body shop", "shop": "department_store"}}, {"type": "node", "id": 4744146322, "lat": 12.4361702, "lon": 76.3789106, "tags": {"addr:street": "Krishnarajanagara to honour road", "opening_hours": "Mo-Su 09:00-18:00", "shop": "car_repair"}}, {"type": "node", "id": 4771160126, "lat": 12.3094207, "lon": 76.647211, "tags": {"name": "Airtel shop", "name:en": "Airtel shop", "name:kn": "\u0c8f\u0cb0\u0ccd\u0c9f\u0cc6\u0cb2\u0ccd", "shop": "mobile_phone"}}, {"type": "node", "id": 4778063008, "lat": 12.3133444, "lon": 76.6448367, "tags": {"name": "Ice cream stall", "name:en": "Ice cream stall", "shop": "confectionery"}}, {"type": "node", "id": 4908655309, "lat": 12.2962565, "lon": 76.6235516}, {"type": "node", "id": 4908655310, "lat": 12.2962617, "lon": 76.6237179}, {"type": "node", "id": 4908655311, "lat": 12.2960101, "lon": 76.6237179}, {"type": "node", "id": 4908655312, "lat": 12.2960049, "lon": 76.6235463}, {"type": "node", "id": 5080844227, "lat": 12.3277414, "lon": 76.6764808, "tags": {"shop": "bakery"}}, {"type": "node", "id": 5080844229, "lat": 12.3261718, "lon": 76.673584, "tags": {"name": "Hopcoms", "name:kn": "\u0cb9\u0cbe\u0caa\u0ccd \u0c95\u0cbe\u0cae\u0ccd\u0cb8\u0ccd", "shop": "greengrocer"}}, {"type": "node", "id": 5080844267, "lat": 12.3270313, "lon": 76.6753784, "tags": {"shop": "pet"}}, {"type": "node", "id": 5080844269, "lat": 12.3260656, "lon": 76.6773659}, {"type": "node", "id": 5080844270, "lat": 12.3261154, "lon": 76.6774785}, {"type": "node", "id": 5080844271, "lat": 12.3262138, "lon": 76.677433}, {"type": "node", "id": 5080844272, "lat": 12.326164, "lon": 76.6773203}, {"type": "node", "id": 5080844308, "lat": 12.3329638, "lon": 76.672444, "tags": {"shop": "greengrocer"}}, {"type": "node", "id": 5080844322, "lat": 12.3325, "lon": 76.6585395, "tags": {"shop": "bakery"}}, {"type": "node", "id": 5080844328, "lat": 12.3379869, "lon": 76.6519064, "tags": {"shop": "florist"}}, {"type": "node", "id": 5080844329, "lat": 12.3378401, "lon": 76.6520056, "tags": {"shop": "books"}}, {"type": "node", "id": 5144360609, "lat": 12.2955027, "lon": 76.6385226}, {"type": "node", "id": 5144360610, "lat": 12.29526, "lon": 76.6385063}, {"type": "node", "id": 5144360611, "lat": 12.2952411, "lon": 76.6388021}, {"type": "node", "id": 5144360612, "lat": 12.2954838, "lon": 76.6388184}, {"type": "node", "id": 5147792976, "lat": 12.3074069, "lon": 76.5938076}, {"type": "node", "id": 5147792977, "lat": 12.3072872, "lon": 76.59384}, {"type": "node", "id": 5147792978, "lat": 12.307311, "lon": 76.5939322}, {"type": "node", "id": 5147792979, "lat": 12.3074307, "lon": 76.5938999}, {"type": "node", "id": 5245466160, "lat": 12.3380078, "lon": 76.6520123, "tags": {"shop": "florist"}}, {"type": "node", "id": 5245466161, "lat": 12.337924, "lon": 76.6520405, "tags": {"shop": "stationery"}}, {"type": "node", "id": 5245466162, "lat": 12.3378991, "lon": 76.6521022, "tags": {"shop": "stationery"}}, {"type": "node", "id": 5245466163, "lat": 12.3378074, "lon": 76.6521008, "tags": {"name": "PK Yousuf", "shop": "supermarket"}}, {"type": "node", "id": 5245466165, "lat": 12.3377117, "lon": 76.6522457, "tags": {"shop": "greengrocer"}}, {"type": "node", "id": 5245466166, "lat": 12.3251813, "lon": 76.6737731, "tags": {"shop": "supermarket"}}, {"type": "node", "id": 5250657822, "lat": 12.3114938, "lon": 76.6493479, "tags": {"name": "Music Shop", "name:hi": "Music Shop", "shop": "gift"}}, {"type": "node", "id": 5267938039, "lat": 12.1114694, "lon": 76.7529642}, {"type": "node", "id": 5267938040, "lat": 12.1114784, "lon": 76.7532292}, {"type": "node", "id": 5267938041, "lat": 12.1112525, "lon": 76.7532508}, {"type": "node", "id": 5267938042, "lat": 12.1112495, "lon": 76.7529796}, {"type": "node", "id": 5273014030, "lat": 12.2930375, "lon": 76.6314308, "tags": {"name": "Dosa Point", "shop": "yes"}}, {"type": "node", "id": 5273016288, "lat": 12.293115, "lon": 76.6325326}, {"type": "node", "id": 5273016289, "lat": 12.2931207, "lon": 76.6327141}, {"type": "node", "id": 5273016290, "lat": 12.2929159, "lon": 76.6327208}, {"type": "node", "id": 5273016291, "lat": 12.2929103, "lon": 76.6325393}, {"type": "node", "id": 5387298427, "lat": 12.3148329, "lon": 76.6590107, "tags": {"name": "Kauvery", "name:kn": "\u0c95\u0cbe\u0cb5\u0cc7\u0cb0\u0cbf", "shop": "clothes", "wheelchair": "limited"}}, {"type": "node", "id": 5387298428, "lat": 12.3150889, "lon": 76.659046, "tags": {"name": "Juyalukkas", "shop": "jewelry", "wheelchair": "limited"}}, {"type": "node", "id": 5511552860, "lat": 12.307414, "lon": 76.673692}, {"type": "node", "id": 5511552861, "lat": 12.307414, "lon": 76.6740326}, {"type": "node", "id": 5511552862, "lat": 12.3069318, "lon": 76.6740058}, {"type": "node", "id": 5511552863, "lat": 12.3069344, "lon": 76.6736785}, {"type": "node", "id": 5977226909, "lat": 12.3342883, "lon": 76.6763963, "tags": {"shop": "bakery"}}, {"type": "node", "id": 5977226910, "lat": 12.3342228, "lon": 76.676175, "tags": {"name": "Eastern Market", "shop": "supermarket"}}, {"type": "node", "id": 6100453182, "lat": 12.334152, "lon": 76.6291148, "tags": {"name": "Vastra - The Yoga Store", "shop": "clothes"}}, {"type": "node", "id": 6117489152, "lat": 12.3360708, "lon": 76.6281565, "tags": {"name": "Krishna", "name:kn": "\u0c95\u0cc3\u0cb7\u0ccd\u0ca3", "shop": "bakery"}}, {"type": "node", "id": 6117494717, "lat": 12.3359859, "lon": 76.628155, "tags": {"shop": "greengrocer"}}, {"type": "node", "id": 6117494740, "lat": 12.3344856, "lon": 76.6280661, "tags": {"name": "Sri Mathaji", "shop": "convenience"}}, {"type": "node", "id": 6117494741, "lat": 12.3359652, "lon": 76.6280733, "tags": {"name": "Nilgiri's", "name:kn": "\u0ca8\u0cc0\u0cb2\u0ccd\u0c97\u0cbf\u0cb0\u0cc0\u0cb8\u0ccd", "opening_hours": "06:30-21:30", "shop": "supermarket"}}, {"type": "node", "id": 6117494743, "lat": 12.3362348, "lon": 76.6281733, "tags": {"repair": "yes", "shop": "computer"}}, {"type": "node", "id": 6117494744, "lat": 12.3370229, "lon": 76.6270781, "tags": {"name": "Krishna", "name:kn": "\u0c95\u0cc3\u0cb7\u0ccd\u0ca3\u0cbe", "shop": "bakery"}}, {"type": "node", "id": 6117495924, "lat": 12.3180818, "lon": 76.6525794, "tags": {"name": "Venus Egg Center", "shop": "farm"}}, {"type": "node", "id": 6117496114, "lat": 12.3119137, "lon": 76.6449914, "tags": {"name": "Silk Sarees", "shop": "gift"}}, {"type": "node", "id": 6117496252, "lat": 12.3361178, "lon": 76.6281777, "tags": {"shop": "hairdresser"}}, {"type": "node", "id": 6117496254, "lat": 12.3343793, "lon": 76.6280814, "tags": {"shop": "laundry"}}, {"type": "node", "id": 6117496286, "lat": 12.3358923, "lon": 76.6281535, "tags": {"shop": "convenience"}}, {"type": "node", "id": 6117496287, "lat": 12.3360347, "lon": 76.6281552, "tags": {"shop": "convenience"}}, {"type": "node", "id": 6117496947, "lat": 12.33434, "lon": 76.6280868, "tags": {"shop": "convenience"}}, {"type": "node", "id": 6139830141, "lat": 12.318098, "lon": 76.6654785, "tags": {"name": "Forum Centre City Mall", "name:ru": "\u0422\u043e\u0440\u0433\u043e\u0432\u044b\u0439 \u0446\u0435\u043d\u0442\u0440 \u00abForum\u201d", "shop": "department_store"}}, {"type": "node", "id": 6174294387, "lat": 12.2630992, "lon": 76.642469, "tags": {"name": "Perfect Men's Parlour", "shop": "hairdresser"}}, {"type": "node", "id": 6174306386, "lat": 12.2625221, "lon": 76.6478582, "tags": {"name": "Men parlour", "shop": "hairdresser"}}, {"type": "node", "id": 6282329487, "lat": 12.3131979, "lon": 76.6538207, "tags": {"name:he": "\u05d3\u05d5\u05e1\u05e0 \u05d5\u05d0\u05d9\u05d3\u05dc\u05d9 \u05d16 \u05d8\u05e2\u05d9\u05dd \u05e8\u05e6\u05e6\u05e6\u05d7", "shop": "bakery"}}, {"type": "node", "id": 6282342485, "lat": 12.2999184, "lon": 76.648421, "tags": {"name:he": "\u05e8\u05d7\u05d5\u05d1???", "shop": "bakery"}}, {"type": "node", "id": 6372190185, "lat": 12.3178994, "lon": 76.6527885, "tags": {"name": "Fruit & Veg Market", "shop": "greengrocer"}}, {"type": "node", "id": 6720794822, "lat": 12.4231663, "lon": 76.5748174, "tags": {"shop": "ticket"}}, {"type": "node", "id": 6720794823, "lat": 12.4233785, "lon": 76.5748335, "tags": {"shop": "ticket"}}, {"type": "node", "id": 6755876382, "lat": 12.2856341, "lon": 76.6309542}, {"type": "node", "id": 6755876383, "lat": 12.2856835, "lon": 76.6309562}, {"type": "node", "id": 6755876384, "lat": 12.2856835, "lon": 76.6310432}, {"type": "node", "id": 6755898485, "lat": 12.2856222, "lon": 76.6310453}, {"type": "node", "id": 6768416940, "lat": 12.3360301, "lon": 76.5947671}, {"type": "node", "id": 6768416949, "lat": 12.3352712, "lon": 76.594781}, {"type": "node", "id": 6768416965, "lat": 12.3352616, "lon": 76.5942337}, {"type": "node", "id": 6768417071, "lat": 12.3360205, "lon": 76.5942199}, {"type": "node", "id": 6780262183, "lat": 12.2831027, "lon": 76.6145967, "tags": {"name": "Vijaya Lakshmi Bhandar", "opening_hours": "Mo-Su 06:00-22:00", "shop": "yes"}}, {"type": "node", "id": 7108561577, "lat": 12.2787928, "lon": 76.6198088, "tags": {"name": "Ruby Bakery", "shop": "bakery"}}, {"type": "node", "id": 7187405686, "lat": 12.2987011, "lon": 76.6359685, "tags": {"addr:street": "Railway gate road", "email": "yyashu73@gmail.com", "name": "Yrs Studio", "phone": "9731784609", "shop": "photo"}}, {"type": "node", "id": 8077048615, "lat": 12.3090419, "lon": 76.6536364}, {"type": "node", "id": 8248807456, "lat": 12.3228049, "lon": 76.6325255, "tags": {"addr:city": "Mysore", "addr:postcode": "570002", "addr:street": "Nectar Food Store, Nature's, #5, 3rd Main Rd, Gokulam 3rd Stage", "name": "The Bakers Store(Natures Nectar)", "organic": "only", "shop": "supermarket"}}, {"type": "node", "id": 8500195019, "lat": 12.3252871, "lon": 76.6228036, "tags": {"amenity": "cafe", "name": "Ritual Coffee House", "opening_hours": "Tu-Su 09:00-20:00", "shop": "bakery"}}, {"type": "node", "id": 8557604107, "lat": 12.3258054, "lon": 76.357407, "tags": {"amenity": "fuel", "fuel:diesel": "yes", "name": "HP Petrol Bunk", "name:kn": "\u0cb9\u0cbf\u0c82\u0ca6\u0cc1\u0cb8\u0ccd\u0ca4\u0cbe\u0ca8\u0ccd \u0caa\u0cc6\u0c9f\u0ccd\u0cb0\u0ccb\u0cb2\u0cbf\u0caf\u0c82", "shop": "no"}}, {"type": "node", "id": 8614415118, "lat": 12.3304641, "lon": 76.6289384, "tags": {"name": "Maruthi Iyengar Bakery", "shop": "bakery"}}, {"type": "node", "id": 8614419417, "lat": 12.3304751, "lon": 76.6289208, "tags": {"name": "Ayuh Organics and Coffee shop", "shop": "convenience"}}, {"type": "node", "id": 8714701635, "lat": 12.3317009, "lon": 76.6247118, "tags": {"name": "Glens Bakehouse", "shop": "bakery"}}, {"type": "node", "id": 8976560463, "lat": 12.3010928, "lon": 76.6266131, "tags": {"addr:city": "Mysuru", "addr:postcode": "570009", "addr:street": "Vishvamanava Road", "name": "Reliance Trends", "name:kn": "\u0cb0\u0cbf\u0cb2\u0caf\u0ca8\u0ccd\u0cb8\u0ccd \u0c9f\u0ccd\u0cb0\u0cc6\u0c82\u0ca1\u0ccd\u0cb8\u0ccd", "opening_hours": "Mo-Su 10:00-20:00", "payment:cash": "yes", "payment:credit_cards": "yes", "payment:debit_cards": "yes", "shop": "supermarket", "website": "https://www.reliancetrends.com/"}}, {"type": "node", "id": 8985046548, "lat": 12.2941023, "lon": 76.6256875, "tags": {"addr:city": "Mysuru", "addr:street": "Vishvamanava Road", "name": "Croma Electronic Store", "opening_hours": "Mo-Su 08:00-22:00", "shop": "supermarket"}}, {"type": "node", "id": 8985046551, "lat": 12.2929878, "lon": 76.6281499, "tags": {"name": "Pan America Outlet", "shop": "clothes", "source": "Clothing"}}, {"type": "node", "id": 8985046552, "lat": 12.2926687, "lon": 76.6281117, "tags": {"name": "Chandan Garments", "shop": "clothes", "source": "Clothing"}}, {"type": "node", "id": 8985046553, "lat": 12.296443, "lon": 76.629227, "tags": {"name": "Sangeetha Mobiles", "shop": "electronics", "source": "Electronics Store"}}, {"type": "node", "id": 8985046555, "lat": 12.2964787, "lon": 76.6285596, "tags": {"brand": "Bata", "brand:wikidata": "Q688082", "name": "Bata", "shop": "shoes"}}, {"type": "node", "id": 8991839278, "lat": 12.2866641, "lon": 76.6238185, "tags": {"name": "Girias Kuvempu Nagara", "shop": "electronics"}}, {"type": "node", "id": 8991839279, "lat": 12.2773044, "lon": 76.6243382, "tags": {"name": "A1 Mutton Stall", "shop": "butcher"}}, {"type": "node", "id": 8991839284, "lat": 12.2760786, "lon": 76.6228378, "tags": {"name": "VB Bakery", "shop": "bakery"}}, {"type": "node", "id": 8991839286, "lat": 12.2763978, "lon": 76.6226847, "tags": {"name": "Sushma Printers", "shop": "printer_ink"}}, {"type": "node", "id": 8991839288, "lat": 12.2761459, "lon": 76.6225545, "tags": {"name": "HP gas agencies", "shop": "gas"}}, {"type": "node", "id": 8991839291, "lat": 12.2759041, "lon": 76.6230853, "tags": {"name": "Nandini Milk Parlour", "name:kn": "\u0ca8\u0c82\u0ca6\u0cbf\u0ca8\u0cbf \u0cb9\u0cbe\u0cb2\u0cbf\u0ca8 \u0c85\u0c82\u0c97\u0ca1\u0cbf", "shop": "dairy"}}, {"type": "node", "id": 8991839292, "lat": 12.2759938, "lon": 76.6230827, "tags": {"name": "Governement APCOMS store", "shop": "greengrocer"}}, {"type": "node", "id": 8997592559, "lat": 12.2866421, "lon": 76.6235366, "tags": {"brand": "Roayl Enfeild", "name": "Royal Enfield Showroom", "shop": "motorcycle"}}, {"type": "node", "id": 8997592563, "lat": 12.2742775, "lon": 76.6228478, "tags": {"name": "Sri Krishna Bakkery And Sweets", "shop": "bakery"}}, {"type": "node", "id": 8997592565, "lat": 12.2746363, "lon": 76.6227537, "tags": {"name": "G K Foot wear", "shop": "shoes"}}, {"type": "node", "id": 8997592566, "lat": 12.2752679, "lon": 76.6228629, "tags": {"name": "G K Foot Wear", "shop": "shoes"}}, {"type": "node", "id": 8997592568, "lat": 12.2718549, "lon": 76.622957, "tags": {"name": "Amruth Bakery", "shop": "bakery"}}, {"type": "node", "id": 8997592569, "lat": 12.2720447, "lon": 76.6229782, "tags": {"name": "Maruthi Service Station", "shop": "car_repair"}}, {"type": "node", "id": 8997592571, "lat": 12.2686732, "lon": 76.6224502, "tags": {"name": "Akshaya Super Market", "shop": "supermarket"}}, {"type": "node", "id": 9592004518, "lat": 12.3453209, "lon": 76.4343283, "tags": {"check_date": "2023-10-08", "name": "Cafe Coffe Day", "payment:mastercard": "yes", "payment:visa": "yes", "shop": "coffee", "source": "survey", "toilets": "yes"}}, {"type": "node", "id": 9662440717, "lat": 12.3329261, "lon": 76.6282709, "tags": {"name": "Ikya Ayurveda & Organics", "opening_hours": "Mo-Su 10:00-14:00, 16:00-22:00", "shop": "beverages", "website": "http://www.ikya.store"}}, {"type": "node", "id": 9666050717, "lat": 12.3345673, "lon": 76.6281284, "tags": {"contact:facebook": "thewanderlust", "contact:instagram": "the_Wanderlust_cafe", "name": "The Wanderlust", "opening_hours": "Mo-Su 08:00-09:30", "shop": "greengrocer"}}, {"type": "node", "id": 9667767917, "lat": 12.3348441, "lon": 76.6280217, "tags": {"addr:housenumber": "135", "addr:postcode": "570002", "addr:street": "9th Cross Road", "email": "mysoreayurveda@gmail.com", "name": "Mysore Ayurveda Academy and Wellness Center", "opening_hours": "Mo-Su 10:00-18:00", "phone": "8105912167", "shop": "massage", "website": "https://mysoreayurveda.com/"}}, {"type": "node", "id": 9689825117, "lat": 12.3262033, "lon": 76.6162372, "tags": {"addr:street": "6th Main, Vijaynagar", "name": "Cococane", "shop": "beverages"}}, {"type": "node", "id": 9824543117, "lat": 12.2987638, "lon": 76.6684084, "tags": {"name": "Zoo Souvenir Shop", "shop": "gift"}}, {"type": "node", "id": 9824543317, "lat": 12.2988143, "lon": 76.6684132, "tags": {"name": "Mysore Sandal Retail Outlet", "shop": "gift"}}, {"type": "node", "id": 9863307246, "lat": 12.3029041, "lon": 76.6355347, "tags": {"name": "Honda Bigwing", "shop": "motorcycle"}}, {"type": "node", "id": 9863307247, "lat": 12.3020999, "lon": 76.635497, "tags": {"name": "Aanco", "shop": "furniture"}}, {"type": "node", "id": 10008345140, "lat": 12.3010021, "lon": 76.6507972}, {"type": "node", "id": 10008345141, "lat": 12.300998, "lon": 76.6508784}, {"type": "node", "id": 10008345142, "lat": 12.3008392, "lon": 76.6508727}, {"type": "node", "id": 10008345143, "lat": 12.3008448, "lon": 76.6507886}, {"type": "node", "id": 10161968618, "lat": 12.3288917, "lon": 76.6188349, "tags": {"name": "Kalpavriksha oil makers", "shop": "grocery"}}, {"type": "node", "id": 10184850102, "lat": 12.2940838, "lon": 76.6275298, "tags": {"name": "R.K. Bhandar", "shop": "yes"}}, {"type": "node", "id": 10209179497, "lat": 12.3272259, "lon": 76.6444599, "tags": {"addr:city": "MYSORE", "addr:housenumber": "2203/49", "addr:postcode": "57001", "addr:street": "Sayyaji Rao Road", "description": "Authorised Dealer in all leading brands of CCTV, Solar water heater, Solar electric City, ups  & Battery's, AC & Inverter Ac ,Electric water Heater, water purifier, Dish tv, Fans Sales , Installation and service.", "name": "M J Company's", "opening_hours": "Mo-Fr 09:00-17:00", "payment:cash": "yes", "payment:contactless": "yes", "payment:credit_cards": "yes", "payment:debit_cards": "yes", "payment:google_pay": "yes", "payment:mastercard": "yes", "payment:mastercard_contactless": "yes", "payment:visa": "yes", "phone": "+919845406264", "shop": "electronics"}}, {"type": "node", "id": 10296444516, "lat": 12.3046894, "lon": 76.6471837, "tags": {"shop": "plants"}}, {"type": "node", "id": 10728990602, "lat": 12.335036, "lon": 76.5950325}, {"type": "node", "id": 10728990603, "lat": 12.3350264, "lon": 76.5951773}, {"type": "node", "id": 10728990604, "lat": 12.3344236, "lon": 76.5951919}, {"type": "node", "id": 10729014705, "lat": 12.3344878, "lon": 76.5950288}, {"type": "node", "id": 10742851894, "lat": 12.3190476, "lon": 76.6532306, "tags": {"addr:city": "Mysore", "addr:housenumber": "2910/1, Moomthabooth Street, Kailasapuram, Mandi Mohalla, Mysuru, Karnataka 570001", "addr:postcode": "570001", "addr:street": "MOOMTHABOOTH STREET, MANDI MOHALLA, MYSORE", "description": "welcome to Sultan Fine Arts, you can find beautiful and authentic rosewood handicraft items such as, sofa set, dining table, beds etc.", "name": "Sultan Fine Arts", "opening_hours": "Mo-Su 09:00-21:00", "operator": "Admin", "payment:cash": "yes", "payment:contactless": "yes", "payment:google_pay": "yes", "payment:paypal": "yes", "phone": "78921 63787", "shop": "furniture", "website": "https://www.sultanfinearts.com/"}}, {"type": "node", "id": 11050317930, "lat": 12.330787, "lon": 76.6240913}, {"type": "node", "id": 11050317931, "lat": 12.3306115, "lon": 76.6240511}, {"type": "node", "id": 11050317932, "lat": 12.3304909, "lon": 76.6244856}, {"type": "node", "id": 11050317933, "lat": 12.3306743, "lon": 76.6245527}, {"type": "node", "id": 11313993327, "lat": 12.313361, "lon": 76.6582179, "tags": {"name": "KSRTC - advance ticket reservation center", "shop": "ticket"}}, {"type": "node", "id": 11422224969, "lat": 12.3421308, "lon": 76.6338708, "tags": {"addr:city": "Mysore", "addr:housenumber": "#82", "addr:postcode": "570020", "addr:street": "8th Cross Road, Brindavan Extension 1st Stage", "name": "Brindavan General Store", "opening_hours": "Mo-Su 06:00-22:00", "phone": "+91 821 241 5683", "shop": "general"}}, {"type": "node", "id": 11454500730, "lat": 12.3094156, "lon": 76.647796, "tags": {"brand": "Van Heusen", "brand:wikidata": "Q67551865", "check_date": "2023-12-26", "clothes": "men", "name": "Van Heusen", "shop": "clothes"}}, {"type": "node", "id": 11499557971, "lat": 12.3420022, "lon": 76.6549236, "tags": {"name": "Loyal World", "shop": "supermarket"}}, {"type": "node", "id": 11622170010, "lat": 12.3039084, "lon": 76.6837638, "tags": {"name": "Nandini Milk Parlour", "name:kn": "\u0ca8\u0c82\u0ca6\u0cbf\u0ca8\u0cbf \u0cb9\u0cbe\u0cb2\u0cbf\u0ca8 \u0c85\u0c82\u0c97\u0ca1\u0cbf", "shop": "dairy"}}, {"type": "node", "id": 11622173061, "lat": 12.303954, "lon": 76.6834875, "tags": {"name": "Sangeetha Bakery", "shop": "bakery"}}, {"type": "node", "id": 11622181221, "lat": 12.303973, "lon": 76.6826593, "tags": {"name": "Sri Vasavi Books and Stationers", "shop": "stationery"}}, {"type": "node", "id": 11622304311, "lat": 12.2022522, "lon": 76.6717905, "tags": {"addr:city": "Mysuru", "addr:housenumber": "113/2", "addr:postcode": "571311", "addr:street": "B G Hundi Road, Kadakola", "brand": "Indane", "name": "Shree Vijayshreenivas Indane", "opening_hours": "Mo-Sa 09:00-18:00", "operator": "Indian Oil Corporation", "payment:cards": "yes", "payment:cash": "yes", "payment:contactless": "yes", "payment:credit_cards": "yes", "payment:debit_cards": "yes", "payment:visa": "yes", "shop": "yes"}}, {"type": "node", "id": 11727176904, "lat": 12.2894523, "lon": 76.6503214, "tags": {"addr:city": "Mysuru", "addr:housenumber": "2846-A", "addr:postcode": "570004", "addr:street": "1st Main Road, 3rd Cross, Chamundipuram,", "name": "Graphic Culture", "opening_hours": "Mo-Sa 10:00-20:00", "operator": "Harish", "payment:cash": "yes", "payment:contactless": "yes", "payment:mastercard": "yes", "payment:visa": "yes", "phone": "9342182135", "shop": "convenience"}}, {"type": "node", "id": 12215696601, "lat": 12.3209112, "lon": 76.5884408, "tags": {"addr:street": "New 80 feet Road", "name": "Mahalakshmi Sweets", "shop": "confectionery"}}, {"type": "node", "id": 12215696701, "lat": 12.3210691, "lon": 76.588242, "tags": {"addr:street": "New 80 feet Road", "name": "Jockey", "shop": "clothes"}}, {"type": "node", "id": 12347844063, "lat": 12.3281106, "lon": 76.6316238, "tags": {"addr:city": "Mysuru", "addr:floor": "G", "addr:housenumber": "1A", "addr:postcode": "570012", "addr:street": "13th Cross Road", "amenity": "cafe", "check_date": "2024-11-17", "contact:instagram": "sapabakery", "delivery": "yes", "name": "SAPA Bakery", "outdoor_seating": "yes", "phone": "+91 63605 71579", "shop": "bakery", "takeaway": "yes", "toilets": "yes", "website": "https://www.sapabakery.com/"}}, {"type": "node", "id": 12694820194, "lat": 12.3518035, "lon": 76.6106993, "tags": {"name": "Shree Guru Provision Store", "opening_hours": "Mo-Su 06:00-22:00", "payment:cash": "yes", "payment:upi": "yes", "shop": "convenience"}}, {"type": "node", "id": 12754786257, "lat": 12.3115522, "lon": 76.6586378, "tags": {"name": "General Stores", "shop": "convenience"}}, {"type": "node", "id": 12754786269, "lat": 12.3115549, "lon": 76.6585722, "tags": {"name": "Nandini Milk Parlour", "name:kn": "\u0ca8\u0c82\u0ca6\u0cbf\u0ca8\u0cbf \u0cb9\u0cbe\u0cb2\u0cbf\u0ca8 \u0c85\u0c82\u0c97\u0ca1\u0cbf", "shop": "dairy"}}, {"type": "node", "id": 12861864015, "lat": 12.2948147, "lon": 76.649561, "tags": {"name": "Y. N. M. Surgicals", "shop": "medical_supply"}}, {"type": "node", "id": 13015228502, "lat": 12.3241961, "lon": 76.6259137, "tags": {"name": "VB Bakery", "shop": "bakery"}}, {"type": "way", "id": 157808539, "nodes": [1700603188, 1700603185, 1700603187, 1700603189, 1700603188], "tags": {"addr:housename": "Silicon Casa", "addr:housenumber": "#34 F2", "addr:postcode": "570008", "addr:street": "J.P nagar Road", "designation": "Plywood and Laminate Distributor", "name": "Silicon Marketing", "shop": "doityourself"}}, {"type": "way", "id": 168608870, "nodes": [1798430527, 1798430526, 1798430525, 1798430528, 1798430527], "tags": {"name": "Cauvery Ford", "name:kn": "\u0c95\u0cbe\u0cb5\u0cc7\u0cb0\u0cbf \u0cab\u0cca\u0cb0\u0ccd\u0ca1\u0ccd", "shop": "car"}}, {"type": "way", "id": 168666120, "nodes": [1798917008, 3213769792, 3213769793, 1798917009, 1798917010, 3213769797, 3213769796, 3213769795, 3213769794, 1798917011, 1798917008], "tags": {"addr:city": "Mysuru", "addr:street": "Kalidasa Road", "building": "yes", "name": "Government Shopping Complex", "shop": "mall"}}, {"type": "way", "id": 193440388, "nodes": [2039596009, 8077048615, 2039596007, 2039596008, 2039596012, 2039596010, 2039596011, 2039596009], "tags": {"name": "Garuda Mall", "shop": "mall"}}, {"type": "way", "id": 193442322, "nodes": [2039612013, 2039611973, 2039611981, 2039612015, 2039612013], "tags": {"name": "B M Habitat Mall", "shop": "supermarket"}}, {"type": "way", "id": 313769343, "nodes": [3197991549, 3197991550, 3197991551, 3197991552, 3197991549], "tags": {"addr:city": "Mysuru", "addr:street": "Sahukar Chennaiah Road", "building": "yes", "name": "QDP Technologies", "shop": "computer"}}, {"type": "way", "id": 313810614, "nodes": [3198435475, 3198435476, 3198435477, 3198435478, 3198435475], "tags": {"area": "yes", "building": "yes", "name": "Ultra Cars", "shop": "car_repair"}}, {"type": "way", "id": 314061236, "nodes": [3200987125, 3200987126, 3200987127, 3200987128, 3200987125], "tags": {"addr:city": "Mysuru", "addr:postcode": "570023", "addr:street": "Vishvamanava Road", "brand": "Crom\u0101", "brand:wikidata": "Q5187683", "building": "yes", "name": "Crom\u0101", "shop": "electronics"}}, {"type": "way", "id": 314061238, "nodes": [3200987137, 3200987138, 3200987139, 3200987140, 3200987137], "tags": {"addr:city": "Mysuru", "addr:postcode": "570023", "addr:street": "Pancamantra Road", "building": "yes", "name": "District HOPCOMS", "name:kn": "\u0c9c\u0cbf\u0cb2\u0ccd\u0cb2\u0cc6 \u0cb9\u0cbe\u0caa\u0ccd \u0c95\u0cbe\u0cae\u0ccd\u0cb8\u0ccd", "shop": "greengrocer"}}, {"type": "way", "id": 314218052, "nodes": [3202660339, 3202660340, 3202660341, 3202660342, 3202660339], "tags": {"addr:city": "Mysuru", "addr:street": "Sahukar Chennaiah Road", "building": "yes", "name": "District HOPCOMS", "name:kn": "\u0c9c\u0cbf\u0cb2\u0ccd\u0cb2\u0cc6 \u0cb9\u0cbe\u0caa\u0ccd \u0c95\u0cbe\u0cae\u0ccd\u0cb8\u0ccd", "shop": "greengrocer"}}, {"type": "way", "id": 314667410, "nodes": [3207142458, 3207142459, 3207142460, 3207143561, 3207142458], "tags": {"addr:city": "Mysuru", "addr:postcode": "570023", "addr:street": "Vishvamanava Road", "building": "yes", "name": "District HOPCOMS", "name:kn": "\u0c9c\u0cbf\u0cb2\u0ccd\u0cb2\u0cc6 \u0cb9\u0cbe\u0caa\u0ccd \u0c95\u0cbe\u0cae\u0ccd\u0cb8\u0ccd", "shop": "greengrocer"}}, {"type": "way", "id": 314667411, "nodes": [3207143562, 3207143563, 3207143564, 3207143565, 3207143562], "tags": {"addr:city": "Mysuru", "addr:postcode": "570023", "addr:street": "Vishvamanava Road", "area": "yes", "building": "yes", "name": "Nandini Milk Booth", "name:kn": "\u0ca8\u0c82\u0ca6\u0cbf\u0ca8\u0cbf \u0cb9\u0cbe\u0cb2\u0cbf\u0ca8 \u0c85\u0c82\u0c97\u0ca1\u0cbf", "shop": "convenience"}}, {"type": "way", "id": 315103274, "nodes": [3211957373, 3211957374, 3211957375, 3211957376, 3211957377, 3211957378, 3211957373], "tags": {"addr:city": "Mysuru", "building": "yes", "name": "Friendly Motors", "shop": "car"}}, {"type": "way", "id": 315103278, "nodes": [3211957403, 3211957404, 3211957405, 3211957406, 3211957407, 3211957408, 3211957409, 3211957403], "tags": {"addr:city": "Mysuru", "addr:street": "New Kantharaje Urs Road", "building": "yes", "name": "Friendly Motors", "shop": "car"}}, {"type": "way", "id": 315625776, "nodes": [3217567461, 3217567462, 3217567463, 3217567464, 3217567461], "tags": {"addr:city": "Mysuru", "addr:street": "Sahukar Chennaiah Road", "building": "yes", "name": "Cake World", "shop": "bakery"}}, {"type": "way", "id": 316323962, "nodes": [3224353375, 3224353376, 3224353377, 3224353378, 3224353375], "tags": {"addr:city": "Mysuru", "addr:street": "Narayana Shastri Road", "branch": "Mega Store", "brand": "More", "brand:wikidata": "Q6910891", "building": "yes", "name": "More", "name:kn": "\u0cae\u0ccb\u0cb0\u0ccd", "shop": "supermarket"}}, {"type": "way", "id": 320644754, "nodes": [3272588653, 3272588654, 3272588655, 3272588656, 3272588653], "tags": {"building": "yes", "name": "Dairy, Attiguppe", "shop": "dairy"}}, {"type": "way", "id": 330182922, "nodes": [3371341202, 3371341203, 3371341204, 3371341205, 3371341202], "tags": {"building": "yes", "name": "More", "name:kn": "\u0cae\u0ccb\u0cb0\u0ccd", "operator": "Aditya Birla Group", "shop": "supermarket"}}, {"type": "way", "id": 330182963, "nodes": [3371341593, 3371341594, 3371341595, 3371341596, 3371341593], "tags": {"building": "yes", "name": "Triveni supermarket", "shop": "supermarket"}}, {"type": "way", "id": 330188882, "nodes": [3371413888, 3648824025, 3648823224, 3648823223, 3371413888], "tags": {"building": "yes", "name": "R K Bhandar", "shop": "department_store"}}, {"type": "way", "id": 331984539, "nodes": [3390886231, 3390886232, 3390886233, 3390886234, 3390886231], "tags": {"brand": "Blackberrys", "brand:wikidata": "Q4922570", "building": "yes", "name": "Blackberrys", "shop": "clothes"}}, {"type": "way", "id": 350708457, "nodes": [3564755093, 3564755095, 3564755096, 3564755097, 3564755093], "tags": {"addr:city": "Mysuru", "addr:street": "Jhansi Lakshmibai Road", "building": "yes", "name": "Big Bazaar", "name:kn": "\u0cac\u0cbf\u0c97\u0ccd \u0cac\u0c9c\u0cbe\u0cb0\u0ccd", "shop": "supermarket"}}, {"type": "way", "id": 352697985, "nodes": [3584612119, 3584612120, 3584612121, 3584612122, 3584612119], "tags": {"building": "yes", "name": "Silk Route", "shop": "boutique"}}, {"type": "way", "id": 355235568, "nodes": [3608451330, 3608451331, 3608451332, 3608451333, 3608451330], "tags": {"brand": "Samsung", "brand:wikidata": "Q20718", "building": "yes", "name": "Samsung", "name:kn": "\u0cb8\u0ccd\u0caf\u0cbe\u0cae\u0ccd\u200c\u0cb8\u0c82\u0c97\u0ccd", "shop": "electronics"}}, {"type": "way", "id": 358035878, "nodes": [3630716883, 3630716884, 3630716885, 3630716886, 3630716883], "tags": {"building": "yes", "name": "Krishna Condiments", "shop": "yes"}}, {"type": "way", "id": 358753575, "nodes": [3636269565, 3636269566, 3636269567, 3636269568, 3636269565], "tags": {"brand": "More", "brand:wikidata": "Q6910891", "building": "yes", "name": "More", "name:kn": "\u0cae\u0ccb\u0cb0\u0ccd", "shop": "supermarket"}}, {"type": "way", "id": 403132317, "nodes": [4055172123, 4055172122, 4055172120, 4055172121, 4055172123], "tags": {"name": "G K Vale", "opening_hours": "08:30-12:30,15:30-20:00", "shop": "photo"}}, {"type": "way", "id": 420174125, "nodes": [4201469783, 4201469784, 4201469785, 4201469786, 4201469783], "tags": {"building": "yes", "name": "Senthil's", "shop": "yes"}}, {"type": "way", "id": 499607645, "nodes": [4908655309, 4908655310, 4908655311, 4908655312, 4908655309], "tags": {"addr:city": "Mysuru", "addr:street": "New Kantharaje Urs Road", "brand": "Westside", "brand:wikidata": "Q123376384", "building": "yes", "name": "Westside", "shop": "clothes"}}, {"type": "way", "id": 521447614, "nodes": [5080844272, 5080844271, 5080844270, 5080844269, 5080844272], "tags": {"shop": "clothes"}}, {"type": "way", "id": 529597896, "nodes": [5144360609, 5144360610, 5144360611, 5144360612, 5144360609], "tags": {"building": "yes", "name": "Brand Factory", "shop": "clothes"}}, {"type": "way", "id": 530016455, "nodes": [5147792976, 5147792977, 5147792978, 5147792979, 5147792976], "tags": {"building": "yes", "name": "Shree Manjunatha as Agencies", "operator": "Indane", "shop": "gas"}}, {"type": "way", "id": 545011624, "nodes": [5267938039, 5267938040, 5267938041, 5267938042, 5267938039], "tags": {"building": "yes", "name": "Store", "shop": "houseware"}}, {"type": "way", "id": 545595629, "nodes": [5273016288, 5273016289, 5273016290, 5273016291, 5273016288], "tags": {"building": "yes", "shop": "car_repair"}}, {"type": "way", "id": 574084101, "nodes": [5511552860, 5511552861, 5511552862, 5511552863, 5511552860], "tags": {"addr:city": "Mysuru", "building": "yes", "name": "Decathlon", "shop": "sports"}}, {"type": "way", "id": 719690690, "nodes": [6755876382, 6755876383, 6755876384, 6755898485, 6755876382], "tags": {"building": "yes", "shop": "chemist"}}, {"type": "way", "id": 721493011, "nodes": [6768417071, 6768416965, 6768416949, 6768416940, 6768417071], "tags": {"building": "yes", "name": "Reliance Market", "shop": "supermarket"}}, {"type": "way", "id": 1092820301, "nodes": [10008345140, 10008345141, 10008345142, 10008345143, 10008345140], "tags": {"building": "yes", "name": "Chethana Book House", "shop": "books"}}, {"type": "way", "id": 1153656734, "nodes": [10728990602, 10728990603, 10728990604, 10729014705, 10728990602], "tags": {"building": "yes", "name": "SNS Motors", "operator": "Bosch", "shop": "car_repair"}}, {"type": "way", "id": 1190084122, "nodes": [11050317930, 11050317931, 11050317932, 11050317933, 11050317930], "tags": {"building": "yes", "shop": "funeral_directors"}}]}