{"version": 0.6, "generator": "Overpass API 0.7.62.8 e802775f", "osm3s": {"timestamp_osm_base": "2025-11-29T17:09:51Z", "copyright": "The data included in this document is from www.openstreetmap.org. The data is made available under ODbL."}, "elements": [{"type": "node", "id": 3615380676, "lat": 11.927561, "lon": 76.9399999, "tags": {"name": "Baba Cycle Stores", "shop": "supermarket"}}, {"type": "node", "id": 3618876025, "lat": 11.9273724, "lon": 76.9420496, "tags": {"name": "KHADI Bhandaa", "shop": "supermarket"}}, {"type": "node", "id": 3624359551, "lat": 11.9276217, "lon": 76.9368199, "tags": {"name": "City Vegetable market", "shop": "supermarket"}}, {"type": "node", "id": 3624361556, "lat": 11.9256452, "lon": 76.9367933, "tags": {"name": "Sahina Store", "shop": "supermarket"}}, {"type": "node", "id": 5197806319, "lat": 11.9236435, "lon": 76.9400279, "tags": {"shop": "bakery"}}, {"type": "node", "id": 5197806320, "lat": 11.9240582, "lon": 76.9397999, "tags": {"shop": "bakery"}}, {"type": "node", "id": 5197810921, "lat": 11.925537, "lon": 76.9378835, "tags": {"shop": "shoes"}}, {"type": "node", "id": 5197810922, "lat": 11.9257994, "lon": 76.9381182, "tags": {"shop": "cosmetics"}}, {"type": "node", "id": 5197810924, "lat": 11.9264529, "lon": 76.9376756, "tags": {"shop": "shoes"}}, {"type": "node", "id": 5197810925, "lat": 11.9264489, "lon": 76.9377239, "tags": {"shop": "stationery"}}, {"type": "node", "id": 5197810926, "lat": 11.9225846, "lon": 76.937575, "tags": {"shop": "bakery"}}, {"type": "node", "id": 5197810927, "lat": 11.9224599, "lon": 76.9374745, "tags": {"shop": "bakery"}}, {"type": "node", "id": 5197810928, "lat": 11.9219718, "lon": 76.9364525, "tags": {"shop": "convenience"}}, {"type": "node", "id": 5197810929, "lat": 11.922622, "lon": 76.9373538, "tags": {"shop": "bakery"}}, {"type": "node", "id": 5197810930, "lat": 11.9261025, "lon": 76.93717, "tags": {"shop": "bakery"}}, {"type": "node", "id": 5197850028, "lat": 11.9255855, "lon": 76.9389336, "tags": {"shop": "hardware"}}, {"type": "node", "id": 5197850029, "lat": 11.9255842, "lon": 76.9387217, "tags": {"shop": "furniture"}}, {"type": "node", "id": 5197850030, "lat": 11.9258191, "lon": 76.938318, "tags": {"shop": "variety_store"}}, {"type": "node", "id": 5197850059, "lat": 11.9255855, "lon": 76.9386734, "tags": {"shop": "convenience"}}, {"type": "node", "id": 5197850060, "lat": 11.9255553, "lon": 76.9377896, "tags": {"shop": "convenience"}}, {"type": "node", "id": 5197850065, "lat": 11.9304116, "lon": 76.9341069, "tags": {"shop": "clothes"}}, {"type": "node", "id": 5617743624, "lat": 11.9143176, "lon": 76.9706397, "tags": {"addr:city": "Patna", "addr:postcode": "800011", "addr:street": "Yadav Colony, Digha Ghat", "name": "Ramanuj Palace", "opening_hours": "Mo-Su 09:00-21:00", "shop": "supermarket"}}, {"type": "node", "id": 10219470898, "lat": 11.9252225, "lon": 76.9372605, "tags": {"name": "Padmamba Traders", "opening_hours": "Mo-Sa 10:30-22:00", "payment:cash": "yes", "payment:contactless": "yes", "payment:credit_cards": "yes", "payment:mastercard": "yes", "payment:upi": "yes", "payment:visa": "yes", "phone": "+91 8226 222643", "shop": "supermarket"}}, {"type": "node", "id": 10242112946, "lat": 11.7766941, "lon": 77.0029222, "tags": {"addr:city": "thalavadi", "addr:country": "IN", "addr:district": "Erode", "addr:place": "Thalavadi", "addr:postcode": "638461", "addr:state": "Tamil Nadu", "addr:subdistrict": "Thalavadi", "alt_name": "M.S.V vegetable commission mundy", "level": "0", "name": "MSV Vegetable commission mundy", "opening_hours": "Su-Fr 16:00-21:00", "organic": "no", "shop": "greengrocer", "wheelchair": "no"}}, {"type": "node", "id": 10242216356, "lat": 11.7732718, "lon": 77.007203, "tags": {"addr:city": "thalavadi", "addr:country": "IN", "addr:district": "Erode", "addr:place": "Thalavadi", "addr:postcode": "638461", "addr:state": "Tamil Nadu", "addr:subdistrict": "Thalavadi", "alt_name": "G.M vegetable commission mundy", "level": "0", "name": "GM Vegetable commission mundy", "opening_hours": "Su-Fr 16:00-21:00", "organic": "no", "shop": "greengrocer", "wheelchair": "no"}}, {"type": "node", "id": 10242412851, "lat": 11.7689654, "lon": 77.00359, "tags": {"addr:city": "thalavadi", "addr:country": "IN", "addr:district": "Erode", "addr:place": "Thalavadi", "addr:postcode": "638461", "addr:state": "Tamil Nadu", "addr:subdistrict": "Thalavadi", "alt_name": "S.N.C vegetable commission mundy", "name": "SNC Vegetable commission mundy", "opening_hours": "Su-Fr 16:00-21:00", "organic": "no", "shop": "greengrocer", "wheelchair": "no"}}, {"type": "node", "id": 10250848158, "lat": 11.7704849, "lon": 77.0040804, "tags": {"addr:city": "thalavadi", "addr:country": "IN", "addr:district": "Erode", "addr:place": "Thalavadi", "addr:postcode": "638461", "addr:state": "Tamil Nadu", "addr:subdistrict": "Thalavadi", "alt_name": "R.S.S vegetable commission mundy", "name": "RSS Vegetable commission mundy", "opening_hours": "Su-Fr 16:00-21:00", "organic": "no", "shop": "greengrocer", "wheelchair": "no"}}, {"type": "node", "id": 10250876798, "lat": 11.7677264, "lon": 77.0031993, "tags": {"addr:city": "thalavadi", "addr:country": "IN", "addr:district": "Erode", "addr:place": "Thalavadi", "addr:postcode": "638461", "addr:state": "Tamil Nadu", "addr:subdistrict": "Thalavadi", "alt_name": "S.R vegetable commission mundy", "name": "SR Vegetable commission mundy", "opening_hours": "Su-Fr 16:00-21:00", "organic": "no", "shop": "greengrocer", "wheelchair": "no"}}]}