{"version": 0.6, "generator": "Overpass API 0.7.62.8 e802775f", "osm3s": {"timestamp_osm_base": "2025-11-29T16:18:43Z", "copyright": "The data included in this document is from www.openstreetmap.org. The data is made available under ODbL."}, "elements": [{"type": "node", "id": 4511567592, "lat": 28.7003419, "lon": 77.0933913, "tags": {"name": "Furniture market", "name:en": "Furniture market", "shop": "furniture"}}, {"type": "node", "id": 4976497309, "lat": 28.7341215, "lon": 76.894581, "tags": {"addr:city": "Bahadurgarh", "addr:housenumber": "Barahi", "addr:postcode": "124525", "addr:street": "Barahi", "name": "Kala Nai Ki Dukaan", "operator": "kala", "shop": "massage"}}, {"type": "node", "id": 4976500017, "lat": 28.7347514, "lon": 76.8945451, "tags": {"addr:city": "Bahadurgarh", "addr:postcode": "124525", "addr:street": "Barahi", "name": "Ganga Kirana Store", "opening_hours": "Mo-Su 08:00-22:00", "operator": "Sunda", "shop": "convenience"}}, {"type": "node", "id": 4976510077, "lat": 28.7314727, "lon": 76.893616, "tags": {"name": "Dalal Hardware Shop", "shop": "hardware"}}, {"type": "node", "id": 4976531551, "lat": 28.691218, "lon": 76.9314221, "tags": {"name": "Billu K Mashur poakode", "operator": "Sachin", "shop": "bakery"}}, {"type": "node", "id": 4982406949, "lat": 28.7325579, "lon": 76.8938929, "tags": {"name": "Cycle Repari", "opening_hours": "24/7", "shop": "bicycle"}}, {"type": "node", "id": 5068284340, "lat": 28.7358254, "lon": 76.8935145, "tags": {"name": "Pandit Kirana Staore", "shop": "department_store"}}, {"type": "node", "id": 5068287710, "lat": 28.7320847, "lon": 76.8937006, "tags": {"name": "Bunty Kirana Store", "shop": "department_store"}}, {"type": "node", "id": 5864120215, "lat": 28.7063665, "lon": 76.9000281, "tags": {"name": "Eleven 7", "shop": "convenience"}}, {"type": "node", "id": 6417564853, "lat": 28.6500147, "lon": 77.0437548, "tags": {"name": "Woodwings Furniture", "shop": "furniture"}}, {"type": "node", "id": 6417564856, "lat": 28.6498246, "lon": 77.0418219, "tags": {"name": "TVS Showroom", "shop": "motorcycle"}}, {"type": "node", "id": 6417564858, "lat": 28.6498364, "lon": 77.0418849, "tags": {"name": "Hero Showroom", "shop": "motorcycle"}}, {"type": "node", "id": 8255133132, "lat": 28.6612537, "lon": 77.0883982, "tags": {"addr:city": "New Delhi", "addr:postcode": "110087", "addr:street": "Outer Ring Road", "brand": "Fabindia", "brand:wikidata": "Q5427779", "clothes": "women;men", "name": "Fabindia", "organic": "yes", "payment:cash": "yes", "payment:debit_cards": "yes", "shop": "clothes", "website": "https://www.fabindia.com/"}}, {"type": "node", "id": 9417913144, "lat": 28.691962, "lon": 76.929713, "tags": {"addr:city": "Bahadurgarh", "addr:postcode": "124507", "name": "Xiaomi Store", "opening_hours": "Mo-Su 10:00-20:00", "payment:cash": "yes", "payment:credit_cards": "yes", "payment:debit_cards": "yes", "shop": "mobile_phone"}}, {"type": "node", "id": 10044255477, "lat": 28.7214393, "lon": 77.0793791, "tags": {"shop": "general"}}, {"type": "node", "id": 10277098805, "lat": 28.7188401, "lon": 77.0656469, "tags": {"payment:cash": "yes", "payment:coins": "yes", "payment:upi": "yes", "shop": "stationery"}}, {"type": "node", "id": 10893480838, "lat": 28.7180935, "lon": 77.0641166, "tags": {"brand": "Mother Dairy", "brand:wikidata": "Q6917320", "name": "Mother Dairy", "shop": "dairy"}}, {"type": "node", "id": 11009506674, "lat": 28.7246093, "lon": 77.0818483, "tags": {"addr:city": "New Delhi", "addr:postcode": "110085", "addr:street": "Sector 23 Road", "level": "0", "name": "Safal", "shop": "greengrocer"}}, {"type": "node", "id": 11009508923, "lat": 28.7328276, "lon": 77.0885737, "tags": {"addr:city": "New Delhi", "addr:postcode": "110085", "addr:street": "Sector 23 Road", "level": "1", "name": "The Super Market", "shop": "supermarket"}}, {"type": "node", "id": 11009518188, "lat": 28.7309536, "lon": 77.0873852, "tags": {"addr:city": "New Delhi", "addr:postcode": "110085", "addr:street": "Sector 23 Road", "clothes": "underwear", "name": "Jockey", "shop": "clothes"}}, {"type": "node", "id": 11009542454, "lat": 28.7245787, "lon": 77.0818193, "tags": {"brand": "Mother Dairy", "brand:wikidata": "Q6917320", "level": "0", "name": "Mother Dairy", "shop": "dairy"}}, {"type": "node", "id": 11917111343, "lat": 28.7329437, "lon": 77.0887326, "tags": {"name": "Ramesh Motor", "shop": "car_repair"}}, {"type": "node", "id": 11917125125, "lat": 28.731396, "lon": 77.0878355, "tags": {"level": "0", "name": "Gard Plywood & Timber", "phone": "+917988595029", "shop": "hardware"}}, {"type": "node", "id": 11917171594, "lat": 28.7309683, "lon": 77.0879986, "tags": {"addr:postcode": "110085", "clothes": "underwear", "name": "Shree Ji", "phone": "+917011462478", "shop": "clothes"}}, {"type": "node", "id": 12009906606, "lat": 28.6946718, "lon": 77.0690147, "tags": {"addr:city": "Sultanpuri", "addr:district": "North Delhi", "addr:housenumber": "H-1/78", "addr:postcode": "110086", "addr:street": "Block-H", "name": "FS Fancy Store", "opening_hours": "8", "operator": "Ahlullah", "payment:cash": "yes", "shop": "beauty"}}, {"type": "node", "id": 12876527720, "lat": 28.6988317, "lon": 77.0745944, "tags": {"shop": "dairy"}}, {"type": "node", "id": 13266921257, "lat": 28.7042152, "lon": 77.0873385, "tags": {"name": "Bikaner Sweets", "shop": "confectionery"}}]}