{"version": 0.6, "generator": "Overpass API 0.7.62.8 e802775f", "osm3s": {"timestamp_osm_base": "2025-11-29T17:31:16Z", "copyright": "The data included in this document is from www.openstreetmap.org. The data is made available under ODbL."}, "elements": [{"type": "node", "id": 1474856664, "lat": 15.8331517, "lon": 74.5094988, "tags": {"amenity": "school", "name": "Law College", "name:kn": "\u0c95\u0cbe\u0ca8\u0cc2\u0ca8\u0cc1 \u0c95\u0cbe\u0cb2\u0cc7\u0c9c\u0cc1"}}, {"type": "node", "id": 1474889395, "lat": 15.864949, "lon": 74.5078907, "tags": {"amenity": "school", "name": "GA Kannada High school", "name:kn": "\u0c9c\u0cbf\u0c8e \u0c95\u0ca8\u0ccd\u0ca8\u0ca1 \u0caa\u0ccd\u0cb0\u0ccc\u0ca1 \u0cb6\u0cbe\u0cb2\u0cc6"}}, {"type": "node", "id": 1474889733, "lat": 15.8668375, "lon": 74.5101813}, {"type": "node", "id": 1474889736, "lat": 15.8655706, "lon": 74.5107981}, {"type": "node", "id": 1474890235, "lat": 15.865839, "lon": 74.5123782, "tags": {"amenity": "school", "name": "Sardar School", "name:kn": "\u0cb8\u0cb0\u0ccd\u0ca6\u0cbe\u0cb0\u0ccd \u0cb6\u0cbe\u0cb2\u0cc6"}}, {"type": "node", "id": 1474890921, "lat": 15.8655966, "lon": 74.5121098}, {"type": "node", "id": 2312340286, "lat": 15.867, "lon": 74.5114875}, {"type": "node", "id": 2312340287, "lat": 15.86563, "lon": 74.5114822}, {"type": "node", "id": 2312340288, "lat": 15.8669252, "lon": 74.5115808}, {"type": "node", "id": 2312343440, "lat": 15.8655036, "lon": 74.5089555}, {"type": "node", "id": 2312343442, "lat": 15.8657719, "lon": 74.508212}, {"type": "node", "id": 2312343444, "lat": 15.8659731, "lon": 74.5084996}, {"type": "node", "id": 2312343446, "lat": 15.8657874, "lon": 74.5091057}, {"type": "node", "id": 2312347589, "lat": 15.8664479, "lon": 74.5082925, "tags": {"amenity": "school", "name": "MVM's High School", "name:kn": "\u0c8e\u0cae\u0ccd \u0cb5\u0cbf \u0c8e\u0cae\u0ccd \u0caa\u0ccd\u0cb0\u0ccc\u0ca1 \u0cb6\u0cbe\u0cb2\u0cc6"}}, {"type": "node", "id": 2778962238, "lat": 15.5241959, "lon": 74.9386962}, {"type": "node", "id": 2778962240, "lat": 15.5207411, "lon": 74.9393958}, {"type": "node", "id": 2778962242, "lat": 15.5208858, "lon": 74.9419278}, {"type": "node", "id": 2778962243, "lat": 15.5207018, "lon": 74.941078}, {"type": "node", "id": 2778962245, "lat": 15.5206377, "lon": 74.9396318}, {"type": "node", "id": 2778962248, "lat": 15.5218575, "lon": 74.9391812}, {"type": "node", "id": 2778962249, "lat": 15.5220229, "lon": 74.941563}, {"type": "node", "id": 2778962251, "lat": 15.5206584, "lon": 74.9402326}, {"type": "node", "id": 2778962253, "lat": 15.521136, "lon": 74.9418934}, {"type": "node", "id": 2778962255, "lat": 15.5232862, "lon": 74.941121}, {"type": "node", "id": 2778962256, "lat": 15.5252689, "lon": 74.9401682}, {"type": "node", "id": 2778962258, "lat": 15.5245659, "lon": 74.9406403}, {"type": "node", "id": 2778962260, "lat": 15.5231187, "lon": 74.9388593}, {"type": "node", "id": 4443677204, "lat": 15.8755691, "lon": 74.5103267, "tags": {"addr:city": "belgaum", "addr:housenumber": "CTS No. 4841/45 B", "addr:postcode": "590001,", "addr:street": "2nd Cross,Opp. Dr. Balika Hospital, Main Road, Sadashiv Nagar", "amenity": "school", "name": "Aaryans World School", "phone": "+91 8496034488"}}, {"type": "node", "id": 4443747583, "lat": 15.8564916, "lon": 74.5183516, "tags": {"addr:city": "belgaum", "addr:housenumber": "Side Building,", "addr:postcode": "590003", "addr:street": "P.B. Road Side Building, P.B. Road Belgaum", "amenity": "school", "name": "Bharatesh English Medium School", "phone": "(0831) 2427560"}}, {"type": "node", "id": 4445112515, "lat": 15.8381058, "lon": 74.7988951, "tags": {"addr:city": "belgaum", "addr:housenumber": "Alankar Nagar", "addr:postcode": "591102", "addr:street": "Murgod Road", "amenity": "school", "name": "Kalpavruksha Model School", "phone": "(08288) 234700"}}, {"type": "node", "id": 4445117991, "lat": 15.8320121, "lon": 74.5101759}, {"type": "node", "id": 4445121108, "lat": 15.877518, "lon": 74.5280938, "tags": {"addr:city": "belgaum", "addr:housenumber": "CTS No. 7774, Behind Shree Nagar Garden", "addr:postcode": "590016,", "addr:street": "Behind Shree Nagar Garden, MM Extension,", "amenity": "school", "name": "Love Dale Central School", "phone": "(0831) 2458965"}}, {"type": "node", "id": 4445141761, "lat": 15.8725916, "lon": 74.5120131, "tags": {"addr:city": "belgaum", "addr:housenumber": "352/2, Tilakwadi,", "addr:postcode": "590008,", "addr:street": "Near Tilakwadi Police Station", "amenity": "school", "name": "Oriental English Medium School", "phone": "(0831) 2428900"}}, {"type": "node", "id": 4445153961, "lat": 15.8595329, "lon": 74.5080302, "tags": {"addr:city": "Belgaum", "addr:housenumber": "Pune Bangalore Road,", "addr:postcode": "560001,", "addr:street": "Bogarvase Circle", "amenity": "school", "name": "Phoenix Residential Public School", "phone": "(0831) 6533270"}}, {"type": "node", "id": 4445158327, "lat": 15.8595579, "lon": 74.5430771, "tags": {"addr:city": "belgaum", "addr:housenumber": "R.S. No. 1139/1 to 1139/3", "addr:postcode": "590016,", "addr:street": "Airport Road Belgaum", "amenity": "school", "name": "Podar International School", "phone": "9742967694"}}, {"type": "node", "id": 4445406183, "lat": 15.6453103, "lon": 74.512492, "tags": {"addr:city": "belgaum", "addr:postcode": "591302,", "addr:street": "Parishwad Road, Khanapur", "amenity": "school", "name": "Shantiniketan Public School", "phone": "+91 8336223551"}}, {"type": "node", "id": 4447345727, "lat": 15.5218479, "lon": 74.9396019, "tags": {"addr:city": "Dharwad", "addr:postcode": "580011", "addr:street": "Main road dharwad", "amenity": "school", "name": "Rashtrotthana Vidya Kendra", "name:kn": "\u0cb0\u0cbe\u0cb7\u0ccd\u0c9f\u0ccd\u0cb0\u0ccb\u0ca4\u0ccd\u0ca5\u0cbe\u0ca8 \u0cb5\u0cbf\u0ca6\u0ccd\u0caf\u0cbe \u0c95\u0cc7\u0c82\u0ca6\u0ccd\u0cb0", "phone": "0836 2446152"}}, {"type": "node", "id": 4447419024, "lat": 15.854417, "lon": 74.5104012}, {"type": "node", "id": 4447427054, "lat": 15.8484781, "lon": 74.5179912, "tags": {"addr:city": "Belgaum", "addr:housenumber": "cross no:1", "addr:postcode": "590001", "addr:street": "SPM Road", "amenity": "school", "name": "Gajananrao Bhatkande English Medium High School", "phone": "+91 831 2486656"}}, {"type": "node", "id": 6039044189, "lat": 15.8530314, "lon": 74.5113507}, {"type": "node", "id": 6039044190, "lat": 15.8529901, "lon": 74.51112}, {"type": "node", "id": 6039044191, "lat": 15.8532172, "lon": 74.5106453}, {"type": "node", "id": 6039044192, "lat": 15.8537616, "lon": 74.5096609}, {"type": "node", "id": 6039044193, "lat": 15.8542106, "lon": 74.5090252}, {"type": "node", "id": 6039044194, "lat": 15.8544608, "lon": 74.508816}, {"type": "node", "id": 6039044195, "lat": 15.854693, "lon": 74.5091513}, {"type": "node", "id": 6039044196, "lat": 15.8548246, "lon": 74.5091057}, {"type": "node", "id": 6039044197, "lat": 15.8550646, "lon": 74.5095456}, {"type": "node", "id": 6039044198, "lat": 15.8547911, "lon": 74.5097467}, {"type": "node", "id": 6039044199, "lat": 15.8547498, "lon": 74.510082}, {"type": "node", "id": 6039044200, "lat": 15.8546827, "lon": 74.5101839}, {"type": "node", "id": 6039044201, "lat": 15.854466, "lon": 74.5102859}, {"type": "node", "id": 6039044202, "lat": 15.8541564, "lon": 74.510597}, {"type": "node", "id": 6039044203, "lat": 15.8541461, "lon": 74.5108813}, {"type": "node", "id": 6039044204, "lat": 15.8539706, "lon": 74.5111817}, {"type": "node", "id": 6039044205, "lat": 15.8530985, "lon": 74.5114338}, {"type": "node", "id": 6039044214, "lat": 15.8657385, "lon": 74.5116806}, {"type": "node", "id": 6039044215, "lat": 15.8657023, "lon": 74.5121151}, {"type": "node", "id": 6039044216, "lat": 15.865514, "lon": 74.5128527}, {"type": "node", "id": 6039044217, "lat": 15.8645645, "lon": 74.5128071}, {"type": "node", "id": 6039044218, "lat": 15.8646781, "lon": 74.5114768}, {"type": "node", "id": 6039044219, "lat": 15.8670027, "lon": 74.5108464}, {"type": "node", "id": 6039044220, "lat": 15.8668272, "lon": 74.5116001}, {"type": "node", "id": 6039044221, "lat": 15.8657127, "lon": 74.511525}, {"type": "node", "id": 6039044398, "lat": 15.8345125, "lon": 74.5152184, "tags": {"addr:street": "shahapur road", "amenity": "school", "name": "Adarsh School", "name:kn": "\u0c86\u0ca6\u0cb0\u0ccd\u0cb6 \u0cb6\u0cbe\u0cb2\u0cc6"}}, {"type": "node", "id": 6039275680, "lat": 15.8329178, "lon": 74.5090225}, {"type": "node", "id": 6039275681, "lat": 15.8321798, "lon": 74.5090198}, {"type": "node", "id": 6039275682, "lat": 15.8318547, "lon": 74.5088804}, {"type": "node", "id": 6039275683, "lat": 15.8315476, "lon": 74.5102215}, {"type": "node", "id": 6039275684, "lat": 15.8329178, "lon": 74.5100927}, {"type": "node", "id": 6853738231, "lat": 15.8505643, "lon": 74.5082534, "tags": {"amenity": "school", "name": "BK Model High School"}}, {"type": "node", "id": 10686459864, "lat": 15.5757501, "lon": 74.7668499}, {"type": "node", "id": 10686459865, "lat": 15.5762048, "lon": 74.7667265}, {"type": "node", "id": 10686459866, "lat": 15.5766285, "lon": 74.7666943}, {"type": "node", "id": 10686459867, "lat": 15.5768869, "lon": 74.7663832}, {"type": "node", "id": 10686459868, "lat": 15.5793879, "lon": 74.7656}, {"type": "node", "id": 10686459869, "lat": 15.5794758, "lon": 74.7666889}, {"type": "node", "id": 10686459870, "lat": 15.5804627, "lon": 74.7666192}, {"type": "node", "id": 10686459871, "lat": 15.5807779, "lon": 74.7665173}, {"type": "node", "id": 10686459872, "lat": 15.5810001, "lon": 74.7666192}, {"type": "node", "id": 10686459873, "lat": 15.5814445, "lon": 74.7664636}, {"type": "node", "id": 10686459874, "lat": 15.5818114, "lon": 74.7664583}, {"type": "node", "id": 10686459875, "lat": 15.583222, "lon": 74.7661793}, {"type": "node", "id": 10686459876, "lat": 15.5855214, "lon": 74.7657502}, {"type": "node", "id": 10686459877, "lat": 15.5882497, "lon": 74.7651762}, {"type": "node", "id": 10686459878, "lat": 15.5893761, "lon": 74.7647631}, {"type": "node", "id": 10686459879, "lat": 15.5896861, "lon": 74.7656268}, {"type": "node", "id": 10686459880, "lat": 15.5898308, "lon": 74.7663778}, {"type": "node", "id": 10686459881, "lat": 15.5900375, "lon": 74.7671717}, {"type": "node", "id": 10686459882, "lat": 15.5904819, "lon": 74.7681481}, {"type": "node", "id": 10686459883, "lat": 15.5901202, "lon": 74.7681266}, {"type": "node", "id": 10686459884, "lat": 15.590053, "lon": 74.7684163}, {"type": "node", "id": 10686459885, "lat": 15.5899703, "lon": 74.7684538}, {"type": "node", "id": 10686459886, "lat": 15.589898, "lon": 74.7685558}, {"type": "node", "id": 10686459887, "lat": 15.589929, "lon": 74.7686523}, {"type": "node", "id": 10686459888, "lat": 15.589898, "lon": 74.769178}, {"type": "node", "id": 10686459889, "lat": 15.5880172, "lon": 74.7691673}, {"type": "node", "id": 10686459890, "lat": 15.5860847, "lon": 74.76928}, {"type": "node", "id": 10686459891, "lat": 15.5856093, "lon": 74.7693658}, {"type": "node", "id": 10686459892, "lat": 15.5838059, "lon": 74.7699344}, {"type": "node", "id": 10686459893, "lat": 15.583036, "lon": 74.7699934}, {"type": "node", "id": 10686459894, "lat": 15.5819819, "lon": 74.7701973}, {"type": "node", "id": 10686459895, "lat": 15.5815995, "lon": 74.770031}, {"type": "node", "id": 10686459896, "lat": 15.5808244, "lon": 74.7697949}, {"type": "node", "id": 10686459897, "lat": 15.5800442, "lon": 74.7698325}, {"type": "node", "id": 10686459898, "lat": 15.5791089, "lon": 74.7702724}, {"type": "node", "id": 10686459899, "lat": 15.5788092, "lon": 74.7704923}, {"type": "node", "id": 10686459900, "lat": 15.5783751, "lon": 74.7710288}, {"type": "node", "id": 10686459901, "lat": 15.5781684, "lon": 74.7712058}, {"type": "node", "id": 10686459902, "lat": 15.5767526, "lon": 74.7718066}, {"type": "node", "id": 10686459903, "lat": 15.5755434, "lon": 74.7721285}, {"type": "node", "id": 10686459904, "lat": 15.5739518, "lon": 74.7719729}, {"type": "node", "id": 10686459905, "lat": 15.5737606, "lon": 74.7718227}, {"type": "node", "id": 10686459906, "lat": 15.5748975, "lon": 74.7700471}, {"type": "node", "id": 10686459907, "lat": 15.5756416, "lon": 74.7692746}, {"type": "node", "id": 10686459908, "lat": 15.5757139, "lon": 74.7687864}, {"type": "node", "id": 10686459909, "lat": 15.5757036, "lon": 74.7684592}, {"type": "node", "id": 10686459910, "lat": 15.5752333, "lon": 74.7671288}, {"type": "node", "id": 12014883251, "lat": 15.8963291, "lon": 74.5551355}, {"type": "node", "id": 12014883252, "lat": 15.8963316, "lon": 74.5552696}, {"type": "node", "id": 12014883253, "lat": 15.8963197, "lon": 74.5556988}, {"type": "node", "id": 12014883254, "lat": 15.896311, "lon": 74.5557859}, {"type": "node", "id": 12014883255, "lat": 15.8960762, "lon": 74.5557081}, {"type": "node", "id": 12014883256, "lat": 15.8960956, "lon": 74.5556545}, {"type": "node", "id": 12014883257, "lat": 15.8959653, "lon": 74.5556089}, {"type": "node", "id": 12014883258, "lat": 15.8959369, "lon": 74.5556679}, {"type": "node", "id": 12014883259, "lat": 15.8957138, "lon": 74.5555928}, {"type": "node", "id": 12014883260, "lat": 15.8956106, "lon": 74.5555686}, {"type": "node", "id": 12014883261, "lat": 15.895899, "lon": 74.5553004}, {"type": "node", "id": 12014883262, "lat": 15.8958374, "lon": 74.5552227}, {"type": "node", "id": 12014883263, "lat": 15.8960659, "lon": 74.5549759}, {"type": "node", "id": 12014883264, "lat": 15.8961225, "lon": 74.5550201}, {"type": "node", "id": 12014883265, "lat": 15.8961518, "lon": 74.5550053}, {"type": "node", "id": 12014883266, "lat": 15.8961975, "lon": 74.5549504}, {"type": "node", "id": 12014883267, "lat": 15.8962972, "lon": 74.5549544}, {"type": "node", "id": 12014883268, "lat": 15.8963239, "lon": 74.5549879}, {"type": "way", "id": 222251446, "nodes": [1474889733, 1474889736, 2312340287, 6039044221, 6039044220, 2312340288, 2312340286, 6039044219, 1474889733], "tags": {"amenity": "school", "name": "Government Polytechnic College", "name:kn": "\u0cb8\u0cb0\u0ccd\u0c95\u0cbe\u0cb0\u0cbf \u0caa\u0cbe\u0cb2\u0cbf\u0c9f\u0cc6\u0c95\u0ccd\u0ca8\u0c95\u0ccd"}}, {"type": "way", "id": 222251806, "nodes": [2312343440, 2312343442, 2312343444, 2312343446, 2312343440], "tags": {"amenity": "school", "name": "Mahila Vidyalaya", "name:kn": "\u0cae\u0cb9\u0cbf\u0cb3 \u0cb5\u0cbf\u0ca6\u0ccd\u0caf\u0cbe\u0cb2\u0caf"}}, {"type": "way", "id": 273001834, "nodes": [2778962240, 2778962248, 2778962260, 2778962238, 2778962256, 2778962258, 2778962255, 2778962249, 2778962253, 2778962242, 2778962243, 2778962251, 2778962245, 2778962240], "tags": {"amenity": "school", "name": "Rashtrothana Vidya Kendra, Dharwad", "name:kn": "\u0cb0\u0cbe\u0cb7\u0ccd\u0c9f\u0ccd\u0cb0\u0ccb\u0ca4\u0ccd\u0ca4\u0cbe\u0ca8 \u0cb5\u0cbf\u0ca6\u0ccd\u0caf \u0c95\u0cc7\u0c82\u0ca6\u0ccd\u0cb0"}}, {"type": "way", "id": 641195041, "nodes": [6039044205, 6039044204, 6039044203, 6039044202, 4447419024, 6039044201, 6039044200, 6039044199, 6039044198, 6039044197, 6039044196, 6039044195, 6039044194, 6039044193, 6039044192, 6039044191, 6039044190, 6039044189, 6039044205], "tags": {"addr:city": "Belgaum", "addr:postcode": "590006", "addr:street": "Station Road, Bhagya Nagar, Belgaum", "amenity": "school", "name": "St. Marys High School", "phone": "+91 8312422757,"}}, {"type": "way", "id": 641195044, "nodes": [6039044218, 6039044217, 6039044216, 1474890921, 6039044215, 6039044214, 6039044218], "tags": {"amenity": "school", "name": "Sardar B Ed college", "name:kn": "\u0cb8\u0cb0\u0ccd\u0ca6\u0cbe\u0cb0\u0ccd \u0cac\u0cbf\u0c8e\u0ca1\u0ccd \u0c95\u0cbe\u0cb2\u0cc7\u0c9c\u0cc1"}}, {"type": "way", "id": 641227478, "nodes": [6039275684, 4445117991, 6039275683, 6039275682, 6039275681, 6039275680, 6039275684], "tags": {"addr:city": "belgaum", "addr:housenumber": "GCC Campus", "addr:postcode": "590006", "addr:street": "GCC Campus, Tilakwadi", "amenity": "school", "name": "KLs Pre Primary and Primay School", "phone": "(0831) 6511297"}}, {"type": "way", "id": 1148595759, "nodes": [10686459910, 10686459909, 10686459908, 10686459907, 10686459906, 10686459905, 10686459904, 10686459903, 10686459902, 10686459901, 10686459900, 10686459899, 10686459898, 10686459897, 10686459896, 10686459895, 10686459894, 10686459893, 10686459892, 10686459891, 10686459890, 10686459889, 10686459888, 10686459887, 10686459886, 10686459885, 10686459884, 10686459883, 10686459882, 10686459881, 10686459880, 10686459879, 10686459878, 10686459877, 10686459876, 10686459875, 10686459874, 10686459873, 10686459872, 10686459871, 10686459870, 10686459869, 10686459868, 10686459867, 10686459866, 10686459865, 10686459864, 10686459910], "tags": {"amenity": "school", "name": "Kittur Sainik School", "website": "https://kittursainikschool.org/"}}, {"type": "way", "id": 1296620974, "nodes": [12014883268, 12014883267, 12014883266, 12014883265, 12014883264, 12014883263, 12014883262, 12014883261, 12014883260, 12014883259, 12014883258, 12014883257, 12014883256, 12014883255, 12014883254, 12014883253, 12014883252, 12014883251, 12014883268], "tags": {"addr:street": "Kanbargi", "amenity": "school", "name": "School Ground"}}]}