{"version": 0.6, "generator": "Overpass API 0.7.62.8 e802775f", "osm3s": {"timestamp_osm_base": "2025-11-29T17:10:54Z", "copyright": "The data included in this document is from www.openstreetmap.org. The data is made available under ODbL."}, "elements": [{"type": "node", "id": 1536309036, "lat": 23.2524309, "lon": 69.6697817, "tags": {"name": "Food Plaza", "name:ks": "\u0641\u0648\u0688 \u067e\u0644\u0627\u0632\u06c1", "name:ur": "\u0641\u0648\u0688 \u067e\u0644\u0627\u0632\u06c1", "shop": "supermarket"}}, {"type": "node", "id": 1536309051, "lat": 23.2526243, "lon": 69.6692128, "tags": {"name": "Mobile Point", "shop": "electronics"}}, {"type": "node", "id": 1536309552, "lat": 23.2570284, "lon": 69.673724, "tags": {"name": "Sidr Craft", "shop": "handicraft"}}, {"type": "node", "id": 1545193258, "lat": 23.2237086, "lon": 69.7378115, "tags": {"name": "Craft", "shop": "handicraft", "type": "handloom"}}, {"type": "node", "id": 1545193334, "lat": 23.3607301, "lon": 69.6973701, "tags": {"contact:phone": "9824577847", "name": "Karan Handicrafts", "shop": "handicraft"}}, {"type": "node", "id": 1545193872, "lat": 23.2333362, "lon": 69.7364062, "tags": {"shop": "snacks"}}, {"type": "node", "id": 3299342032, "lat": 23.2533618, "lon": 69.6702373, "tags": {"name": "Delight", "shop": "convenience"}}, {"type": "node", "id": 3299342033, "lat": 23.2496139, "lon": 69.6687991, "tags": {"name": "Jay Somnath Travel", "shop": "travel_agency"}}, {"type": "node", "id": 3299342038, "lat": 23.2507237, "lon": 69.6680609, "tags": {"name": "Paris Bakery", "shop": "bakery"}}, {"type": "node", "id": 3299344435, "lat": 23.2517897, "lon": 69.6602309, "tags": {"name": "Sarad Bagh Palace Museum", "shop": "ticket"}}, {"type": "node", "id": 4272717801, "lat": 23.2430319, "lon": 69.6684245, "tags": {"addr:postcode": "370001", "addr:street": "VD High School Road", "email": "anandvinodsoni@gmail.com", "internet_access": "wlan", "name": "M/s Velji Anandji", "opening_hours": "Mo-Sa 10:00-12:30, 17:30-20:00", "phone": "02832220126", "shop": "jewelry"}}, {"type": "node", "id": 4545992030, "lat": 23.2543866, "lon": 69.6572127, "tags": {"addr:street": "Kodki Road", "name": "Vishwas Paan and Cold Drinks", "opening_hours": "Mo-Th, Sa, Su 06:00-23:00; Fr 06:00-12:30, 14:00-23:00", "shop": "confectionery"}}, {"type": "node", "id": 7234808378, "lat": 22.9785803, "lon": 69.719225, "tags": {"name": "Naranji Ramji & Sons", "operator": "Tarun Chothani", "payment:cash": "yes", "shop": "general"}}, {"type": "node", "id": 11237878477, "lat": 23.2092265, "lon": 69.6533708, "tags": {"name": "Pathak Electronics & Reparing Centre", "repair": "electronics", "shop": "electronics"}}, {"type": "node", "id": 11690449426, "lat": 23.2153905, "lon": 69.6278353, "tags": {"name": "Bapukrupa", "shop": "supermarket"}}, {"type": "node", "id": 11690453149, "lat": 23.2147393, "lon": 69.6272253, "tags": {"name": "Devikrupa", "shop": "supermarket"}}, {"type": "node", "id": 11690525007, "lat": 23.2256278, "lon": 69.6353444, "tags": {"brand": "Hyundai", "brand:wikidata": "Q55931", "name": "Hyundai", "shop": "car"}}, {"type": "node", "id": 11690539126, "lat": 23.2265819, "lon": 69.6358278, "tags": {"brand": "Maruti Suzuki", "brand:wikidata": "Q963718", "name": "Maruti Suzuki", "shop": "car"}}, {"type": "node", "id": 11690573182, "lat": 23.2303627, "lon": 69.6411091, "tags": {"name": "Uma store", "shop": "doityourself"}}, {"type": "node", "id": 11690576383, "lat": 23.2192508, "lon": 69.6333452, "tags": {"name": "Matruchhaya network Pvt Ltd", "shop": "radiotechnics"}}, {"type": "node", "id": 11690591122, "lat": 23.219273, "lon": 69.6324447, "tags": {"name": "Khush supermarket", "shop": "supermarket"}}, {"type": "node", "id": 11690597439, "lat": 23.2193148, "lon": 69.6325537, "tags": {"name": "Shree Narayan Flore Mill", "shop": "general"}}, {"type": "node", "id": 11690598047, "lat": 23.2162118, "lon": 69.6224465, "tags": {"name": "Sakar furniture", "shop": "furniture"}}, {"type": "node", "id": 11690602508, "lat": 23.2161578, "lon": 69.6228236, "tags": {"brand": "Tata", "brand:wikidata": "Q188514", "name": "Tata", "shop": "car"}}, {"type": "node", "id": 11690637566, "lat": 23.2177158, "lon": 69.62622, "tags": {"name": "Bapa sitaram tea and pan house", "shop": "tea"}}, {"type": "node", "id": 11690637567, "lat": 23.2179875, "lon": 69.6263548, "tags": {"name": "Mogal tea house", "shop": "tea"}}, {"type": "node", "id": 11690649978, "lat": 23.2161432, "lon": 69.6216256, "tags": {"name": "Umiya marble", "shop": "general"}}, {"type": "node", "id": 11690651090, "lat": 23.2178157, "lon": 69.6264939, "tags": {"name": "Momay Enterprise", "shop": "general"}}, {"type": "node", "id": 11690661344, "lat": 23.2185388, "lon": 69.6343449, "tags": {"name": "Shivam medical store", "shop": "medical_supply"}}, {"type": "node", "id": 11690676599, "lat": 23.2190701, "lon": 69.6285848, "tags": {"name": "Krishna pvc furniture", "shop": "furniture"}}, {"type": "node", "id": 11690680614, "lat": 23.219941, "lon": 69.6290108, "tags": {"name": "Badiya farm", "shop": "agrarian"}}, {"type": "node", "id": 11690681240, "lat": 23.2166372, "lon": 69.6294759, "tags": {"name": "Gatrad provision store", "shop": "general"}}, {"type": "node", "id": 11690689410, "lat": 23.2169191, "lon": 69.6325172, "tags": {"name": "KriShiv jewellers", "shop": "jewelry"}}, {"type": "node", "id": 11690714878, "lat": 23.2182496, "lon": 69.6343799, "tags": {"name": "Swaminarayan medical store", "shop": "medical_supply"}}, {"type": "node", "id": 11690728590, "lat": 23.2181197, "lon": 69.6345997, "tags": {"name": "H H tailor", "shop": "tailor"}}, {"type": "node", "id": 11691194358, "lat": 23.2168336, "lon": 69.6248405, "tags": {"name": "Shree malanma workshop & furniture", "shop": "furniture"}}, {"type": "node", "id": 11691214430, "lat": 23.2178916, "lon": 69.6351135, "tags": {"name": "Raskasna store", "shop": "general"}}, {"type": "node", "id": 11691230366, "lat": 23.216506, "lon": 69.6233963, "tags": {"name": "Indo farm tractors", "shop": "general"}}, {"type": "node", "id": 11691232777, "lat": 23.2193327, "lon": 69.6336893, "tags": {"name": "Star mobile shop", "shop": "general"}}, {"type": "node", "id": 11691244597, "lat": 23.221869, "lon": 69.6336402, "tags": {"name": "Shri Krishna Traders", "shop": "general"}}, {"type": "node", "id": 11691251341, "lat": 23.2164914, "lon": 69.624966, "tags": {"name": "Arjun flex", "shop": "general"}}, {"type": "node", "id": 11691255222, "lat": 23.2217789, "lon": 69.6342158, "tags": {"name": "Maraj leling works", "shop": "furniture"}}, {"type": "node", "id": 11691264817, "lat": 23.2212167, "lon": 69.6338364, "tags": {"name": "Jalaram Trending", "shop": "general"}}, {"type": "node", "id": 11691265487, "lat": 23.2166848, "lon": 69.6249498, "tags": {"name": "Shree hari", "shop": "general"}}, {"type": "node", "id": 11691276126, "lat": 23.2222011, "lon": 69.6339499, "tags": {"name": "Ramdev furniture", "shop": "furniture"}}, {"type": "node", "id": 11691276284, "lat": 23.2233634, "lon": 69.6337202, "tags": {"name": "Selection Interior", "shop": "general"}}, {"type": "node", "id": 11691276461, "lat": 23.2230029, "lon": 69.6338131, "tags": {"name": "Balaji enterprise", "shop": "general"}}, {"type": "node", "id": 11691287937, "lat": 23.2165696, "lon": 69.624632, "tags": {"name": "Vekariya Enterprises", "shop": "general"}}, {"type": "node", "id": 11691295819, "lat": 23.2235603, "lon": 69.6340635, "tags": {"name": "Mahir enterprise", "shop": "general"}}, {"type": "node", "id": 11691300745, "lat": 23.2157703, "lon": 69.6227897, "tags": {"name": "Saniya Motors", "shop": "general"}}, {"type": "node", "id": 11691300756, "lat": 23.2286926, "lon": 69.6399207, "tags": {"name": "Shree geeta Refrigeration", "shop": "general"}}, {"type": "node", "id": 11691301029, "lat": 23.2242031, "lon": 69.6341203, "tags": {"name": "Balmukund Motors", "shop": "general"}}, {"type": "node", "id": 11691307002, "lat": 23.2165769, "lon": 69.6247393, "tags": {"name": "Dhruvi Auto Gas", "shop": "general"}}, {"type": "node", "id": 11691323140, "lat": 23.2201547, "lon": 69.6321719, "tags": {"name": "Devam Furniture", "shop": "furniture"}}, {"type": "node", "id": 11691326627, "lat": 23.2272039, "lon": 69.6363941, "tags": {"name": "NEXA KD motors", "shop": "general"}}, {"type": "node", "id": 11691342203, "lat": 23.217749, "lon": 69.6250438, "tags": {"name": "Jangam Sound Business", "shop": "general"}}, {"type": "node", "id": 11691345325, "lat": 23.2162022, "lon": 69.6220466, "tags": {"name": "Shree hari tyres", "shop": "general"}}, {"type": "node", "id": 11691359348, "lat": 23.2157728, "lon": 69.6226422, "tags": {"name": "SNNE godown", "shop": "general"}}, {"type": "node", "id": 11691360795, "lat": 23.2164686, "lon": 69.624654, "tags": {"name": "Krishna Automotive", "shop": "general"}}, {"type": "node", "id": 11691390260, "lat": 23.222146, "lon": 69.6317604, "tags": {"name": "Nakoda Wedding collection", "shop": "general"}}, {"type": "node", "id": 11691396573, "lat": 23.2224111, "lon": 69.6320383, "tags": {"name": "Jaysan hardware and ply", "shop": "general"}}, {"type": "node", "id": 11691400853, "lat": 23.2230426, "lon": 69.6321344, "tags": {"name": "K.d. motors", "shop": "general"}}, {"type": "node", "id": 12009229824, "lat": 23.2918847, "lon": 69.338219, "tags": {"addr:district": "KUTCH", "addr:street": "RATNAMANI COMPLEX,DEVPAR HIGHWAY RAD", "name": "KUTCH KRUSHIVAN FARMER PRODUCER COMPANY LIMITED", "shop": "yes"}}, {"type": "node", "id": 12629642777, "lat": 23.234641, "lon": 69.6465792}, {"type": "node", "id": 12629642778, "lat": 23.2351083, "lon": 69.6475277}, {"type": "node", "id": 12629642779, "lat": 23.2343748, "lon": 69.6480126}, {"type": "node", "id": 12629642780, "lat": 23.2339292, "lon": 69.6471178}, {"type": "node", "id": 12629642781, "lat": 23.2363698, "lon": 69.6448915}, {"type": "node", "id": 12629642782, "lat": 23.2359561, "lon": 69.6451381}, {"type": "node", "id": 12629642783, "lat": 23.2360213, "lon": 69.6453604}, {"type": "node", "id": 12629642784, "lat": 23.2365071, "lon": 69.6451586}, {"type": "node", "id": 12629642788, "lat": 23.2514049, "lon": 69.6409602}, {"type": "node", "id": 12629642789, "lat": 23.2508569, "lon": 69.6407186}, {"type": "node", "id": 12629642790, "lat": 23.2513958, "lon": 69.6417834}, {"type": "node", "id": 12629642791, "lat": 23.2515476, "lon": 69.6424933}, {"type": "node", "id": 12629642792, "lat": 23.2518963, "lon": 69.6422838}, {"type": "node", "id": 12629642793, "lat": 23.2550862, "lon": 69.6411119, "tags": {"addr:city": "Bhuj", "addr:district": "Kachchh", "addr:postcode": "370001", "addr:street": "Airport Ring Road", "name": "Dmart", "opening_hours": "Mo-Su 09:00-21:00", "shop": "mall"}}, {"type": "node", "id": 12645134289, "lat": 23.2556849, "lon": 69.6405581}, {"type": "node", "id": 12645134290, "lat": 23.2546477, "lon": 69.6401243}, {"type": "node", "id": 12645134291, "lat": 23.2545436, "lon": 69.6404348}, {"type": "node", "id": 12645134292, "lat": 23.2547519, "lon": 69.6405581}, {"type": "node", "id": 12645134293, "lat": 23.2551686, "lon": 69.6407947}, {"type": "node", "id": 12645134294, "lat": 23.2552863, "lon": 69.6408243}, {"type": "node", "id": 12645134295, "lat": 23.2555581, "lon": 69.640913}, {"type": "node", "id": 12645134296, "lat": 23.255694, "lon": 69.6409722}, {"type": "node", "id": 12645134297, "lat": 23.2557008, "lon": 69.6410486}, {"type": "node", "id": 12645134298, "lat": 23.2557868, "lon": 69.6410806}, {"type": "node", "id": 12645134299, "lat": 23.2558344, "lon": 69.6409648}, {"type": "node", "id": 12645134300, "lat": 23.2557619, "lon": 69.6409451}, {"type": "node", "id": 12645134401, "lat": 23.2557664, "lon": 69.6409032}, {"type": "node", "id": 12645134402, "lat": 23.2557234, "lon": 69.6408736}, {"type": "node", "id": 12645134403, "lat": 23.2558253, "lon": 69.6406197}, {"type": "node", "id": 12680881333, "lat": 23.1039874, "lon": 69.2897396}, {"type": "node", "id": 12680881334, "lat": 23.1037718, "lon": 69.2897611}, {"type": "node", "id": 12680881335, "lat": 23.1037598, "lon": 69.289621}, {"type": "node", "id": 12680881336, "lat": 23.1039969, "lon": 69.2895901}, {"type": "node", "id": 12680881337, "lat": 23.1037684, "lon": 69.2899049}, {"type": "node", "id": 12680881338, "lat": 23.1040012, "lon": 69.289889}, {"type": "way", "id": 1363963990, "nodes": [12629642777, 12629642778, 12629642779, 12629642780, 12629642777], "tags": {"addr:city": "BHUJ", "addr:postcode": "370001", "addr:street": "Bhuj-Mirjapar(MandviRoad)", "building": "yes", "name": "Pantheon", "shop": "mall"}}, {"type": "way", "id": 1363963991, "nodes": [12629642781, 12629642782, 12629642783, 12629642784, 12629642781], "tags": {"addr:city": "BHUJ", "addr:postcode": "370001", "addr:street": "Airport Ring Road", "building": "yes", "name": "Pramukh Square", "shop": "mall"}}, {"type": "way", "id": 1363963992, "nodes": [12629642788, 12629642789, 12629642790, 12629642791, 12629642792, 12629642788], "tags": {"addr:city": "Bhuj", "addr:postcode": "370001", "addr:street": "Kodaki Road", "building": "yes", "name": "Heritage", "shop": "mall"}}, {"type": "way", "id": 1365500962, "nodes": [12645134289, 12645134290, 12645134291, 12645134292, 12645134293, 12645134294, 12645134295, 12645134296, 12645134297, 12645134298, 12645134299, 12645134300, 12645134401, 12645134402, 12645134403, 12645134289], "tags": {"addr:city": "Bhuj", "addr:district": "Kachchh", "addr:postcode": "370001", "addr:street": "Airport Ring Road", "building": "commercial", "name": "seven sky", "shop": "mall"}}, {"type": "way", "id": 1369163569, "nodes": [12680881333, 12680881334, 12680881335, 12680881336, 12680881333], "tags": {"building": "yes", "shop": "yes"}}, {"type": "way", "id": 1369163570, "nodes": [12680881333, 12680881334, 12680881337, 12680881338, 12680881333], "tags": {"building": "yes", "shop": "yes"}}]}