{"version": 0.6, "generator": "Overpass API 0.7.62.8 e802775f", "osm3s": {"timestamp_osm_base": "2025-11-29T14:16:30Z", "copyright": "The data included in this document is from www.openstreetmap.org. The data is made available under ODbL."}, "elements": [{"type": "node", "id": 922983250, "lat": 28.7154207, "lon": 77.1788053}, {"type": "node", "id": 1777007851, "lat": 28.6087736, "lon": 76.9851896, "tags": {"amenity": "clinic", "name": "Rajpal Clinic"}}, {"type": "node", "id": 3067837877, "lat": 28.6268496, "lon": 77.2773355, "tags": {"amenity": "clinic", "healthcare": "clinic"}}, {"type": "node", "id": 3093873338, "lat": 28.6454365, "lon": 77.2251207, "tags": {"addr:city": "New Delhi", "addr:housenumber": "1/8B", "addr:postcode": "110002", "addr:street": "Asaf Ali Road", "amenity": "clinic", "name": "R D Jindal Charitable Clinic", "note": "Physiotherapy, Blood Collection, GP. Dentist available", "opening_hours": "10:00-14:00", "phone": "+91 11 3218206"}}, {"type": "node", "id": 3543758790, "lat": 28.5968951, "lon": 77.2317094}, {"type": "node", "id": 3543758791, "lat": 28.5968979, "lon": 77.2320084}, {"type": "node", "id": 3543759314, "lat": 28.5970146, "lon": 77.2320069}, {"type": "node", "id": 3563202708, "lat": 28.5670301, "lon": 77.228319}, {"type": "node", "id": 3563202711, "lat": 28.5670958, "lon": 77.2281627}, {"type": "node", "id": 3563202718, "lat": 28.5672088, "lon": 77.2284165}, {"type": "node", "id": 3563202721, "lat": 28.5672746, "lon": 77.2282602}, {"type": "node", "id": 3565901078, "lat": 28.7338324, "lon": 77.1697286}, {"type": "node", "id": 3565901084, "lat": 28.7339085, "lon": 77.1696664}, {"type": "node", "id": 3565901086, "lat": 28.7339273, "lon": 77.169878}, {"type": "node", "id": 3565901093, "lat": 28.7340034, "lon": 77.1698158}, {"type": "node", "id": 3565911791, "lat": 28.6618633, "lon": 77.1444412}, {"type": "node", "id": 3565911896, "lat": 28.6619705, "lon": 77.144361}, {"type": "node", "id": 3565911902, "lat": 28.6620665, "lon": 77.1447936}, {"type": "node", "id": 3567789657, "lat": 28.7069436, "lon": 77.1265177, "tags": {"addr:housenumber": "145", "addr:street": "Rohini East", "amenity": "clinic", "baby_feeding": "yes", "healthcare": "clinic", "healthcare:speciality": "fertility", "level": "0", "name": "INDIRA IVF"}}, {"type": "node", "id": 3573863884, "lat": 28.6442274, "lon": 77.2912483}, {"type": "node", "id": 3573866598, "lat": 28.6442695, "lon": 77.2912059}, {"type": "node", "id": 3573866618, "lat": 28.6443232, "lon": 77.2913717}, {"type": "node", "id": 3573866639, "lat": 28.6443653, "lon": 77.2913292}, {"type": "node", "id": 3573881940, "lat": 28.6374125, "lon": 77.3040122}, {"type": "node", "id": 3573881946, "lat": 28.6375192, "lon": 77.3041555}, {"type": "node", "id": 3573881947, "lat": 28.637538, "lon": 77.3038897}, {"type": "node", "id": 3573881959, "lat": 28.6376456, "lon": 77.3040328}, {"type": "node", "id": 3573923045, "lat": 28.662648, "lon": 77.2368916}, {"type": "node", "id": 3573923063, "lat": 28.6627064, "lon": 77.2369473}, {"type": "node", "id": 3573923067, "lat": 28.6627429, "lon": 77.2367784}, {"type": "node", "id": 3573923084, "lat": 28.6628044, "lon": 77.2368244}, {"type": "node", "id": 3576438290, "lat": 28.5578824, "lon": 77.183243}, {"type": "node", "id": 3576438291, "lat": 28.5579593, "lon": 77.1833209}, {"type": "node", "id": 3576438292, "lat": 28.5579617, "lon": 77.1831415}, {"type": "node", "id": 3576678075, "lat": 28.6250078, "lon": 77.0775282}, {"type": "node", "id": 3576678077, "lat": 28.6250574, "lon": 77.0774391}, {"type": "node", "id": 3576678091, "lat": 28.6252364, "lon": 77.0775685}, {"type": "node", "id": 3582576938, "lat": 28.6807311, "lon": 77.3138806}, {"type": "node", "id": 3582576939, "lat": 28.6808286, "lon": 77.3140408}, {"type": "node", "id": 3582576940, "lat": 28.6809099, "lon": 77.3137391}, {"type": "node", "id": 3582576941, "lat": 28.6810074, "lon": 77.3138993}, {"type": "node", "id": 3582865447, "lat": 28.5432811, "lon": 77.2145808}, {"type": "node", "id": 3582865448, "lat": 28.5432927, "lon": 77.2143804}, {"type": "node", "id": 3582865698, "lat": 28.5435691, "lon": 77.2146025}, {"type": "node", "id": 3582865701, "lat": 28.5435808, "lon": 77.2144021}, {"type": "node", "id": 3583052184, "lat": 28.6037502, "lon": 77.2985151}, {"type": "node", "id": 3583052185, "lat": 28.6037915, "lon": 77.2986397}, {"type": "node", "id": 3583052186, "lat": 28.6038314, "lon": 77.2984802}, {"type": "node", "id": 3583052187, "lat": 28.6038728, "lon": 77.2986047}, {"type": "node", "id": 3583123315, "lat": 28.680786, "lon": 77.3138372}, {"type": "node", "id": 3583123321, "lat": 28.6808128, "lon": 77.313816}, {"type": "node", "id": 3583123322, "lat": 28.6808143, "lon": 77.3138837}, {"type": "node", "id": 3583123329, "lat": 28.6808411, "lon": 77.3138625}, {"type": "node", "id": 3583123335, "lat": 28.6808668, "lon": 77.3139577}, {"type": "node", "id": 3583123341, "lat": 28.6808885, "lon": 77.3139934}, {"type": "node", "id": 3583123344, "lat": 28.6809081, "lon": 77.3139251}, {"type": "node", "id": 3583123349, "lat": 28.6809298, "lon": 77.3139607}, {"type": "node", "id": 3587089806, "lat": 28.5551441, "lon": 77.2416549}, {"type": "node", "id": 3587089808, "lat": 28.5552516, "lon": 77.2417678}, {"type": "node", "id": 3587089809, "lat": 28.5553295, "lon": 77.2414262}, {"type": "node", "id": 3587089811, "lat": 28.5554499, "lon": 77.2415231}, {"type": "node", "id": 3742310524, "lat": 28.5969617, "lon": 77.2317086}, {"type": "node", "id": 3742310541, "lat": 28.5970123, "lon": 77.2317649}, {"type": "node", "id": 4076670789, "lat": 28.6467122, "lon": 77.212921, "tags": {"amenity": "clinic", "name": "Dr. Krishan Gola", "wheelchair": "no"}}, {"type": "node", "id": 4290958410, "lat": 28.6216001, "lon": 77.0406957, "tags": {"addr:housenumber": "A-63/B", "addr:postcode": "110059", "addr:street": "D K Road", "amenity": "clinic", "name": "MODERN HOMEO HALL", "opening_hours": "Mo-Sa 09:00-21:00", "phone": "8802377798"}}, {"type": "node", "id": 4347364007, "lat": 28.6854649, "lon": 77.1317529}, {"type": "node", "id": 4347364008, "lat": 28.6855026, "lon": 77.1316235}, {"type": "node", "id": 4347364009, "lat": 28.6855949, "lon": 77.1318079}, {"type": "node", "id": 4347364010, "lat": 28.6856296, "lon": 77.1316812}, {"type": "node", "id": 4347487655, "lat": 28.6849512, "lon": 77.1295344, "tags": {"amenity": "clinic", "name": "Mittal Clinic & Eye Specialist"}}, {"type": "node", "id": 4472287192, "lat": 28.6716634, "lon": 77.1562194, "tags": {"amenity": "clinic", "name": "CRL diagnostics", "name:en": "CRL diagnostics"}}, {"type": "node", "id": 4475127990, "lat": 28.6883696, "lon": 77.1217654, "tags": {"amenity": "clinic", "name": "Dr. Akash Juneja (ENT)", "name:en": "Dr. Akash Juneja (ENT)"}}, {"type": "node", "id": 4475206689, "lat": 28.6884528, "lon": 77.1221833, "tags": {"amenity": "clinic", "name": "Health touch medicine", "name:en": "Health touch medicine"}}, {"type": "node", "id": 4483884793, "lat": 28.692076, "lon": 77.1157636, "tags": {"amenity": "clinic", "name": "Radha Krishna Medilink", "name:en": "Radha Krishna Medilink"}}, {"type": "node", "id": 4483893392, "lat": 28.6920814, "lon": 77.1160257, "tags": {"amenity": "clinic", "name": "Patanjali store", "name:en": "Patanjali store"}}, {"type": "node", "id": 4618648392, "lat": 28.4308358, "lon": 77.2266802, "tags": {"amenity": "clinic", "name": "Aam aadmi clinic"}}, {"type": "node", "id": 4742624722, "lat": 28.5129853, "lon": 77.2355114, "tags": {"addr:housenumber": "C-1160 Tigri", "addr:postcode": "110080", "addr:street": "Mehrauli Badarpur Road", "amenity": "clinic", "name": "Rajora Niwas", "name:en": "Rajora Niwas"}}, {"type": "node", "id": 4783007725, "lat": 28.6306468, "lon": 77.0764733, "tags": {"addr:postcode": "110018", "addr:street": "C-20/A New Krishnapark", "amenity": "clinic", "email": "dr.skjain@yahoo.com", "name": "Dr Jain's Clinic", "name:en": "Dr Jain's Clinic", "opening_hours": "Mo-Su 18:00-21:00", "operator": "Dr S K Jain", "phone": "9811147070"}}, {"type": "node", "id": 4783048321, "lat": 28.6309047, "lon": 77.0764877, "tags": {"addr:housenumber": "C-20/A", "addr:postcode": "110018", "addr:street": "New Krishna Park", "amenity": "clinic", "internet_access": "wlan", "name": "Dr S K Jain's Clinic", "name:en": "Dr S K Jain's Clinic", "opening_hours": "Mo-Sa 18:00-20:00", "operator": "Dr S K Jain", "phone": "9811147070"}}, {"type": "node", "id": 4866617321, "lat": 28.6433247, "lon": 77.1838674, "tags": {"addr:housenumber": "125", "addr:street": "Pusa Road", "amenity": "clinic", "operator": "\u062f. \u0645\u0627\u0644\u0648\u062a\u0631\u0627 \u0646\u064a\u0648\u062f\u0644\u0647\u064a \u0637\u0628\u064a\u0628 \u0627\u0633\u0646\u0627\u0646"}}, {"type": "node", "id": 5120631339, "lat": 28.5441982, "lon": 77.2302898, "tags": {"amenity": "clinic", "name": "Skin & Hair Care"}}, {"type": "node", "id": 5122054872, "lat": 28.6510976, "lon": 77.2987351, "tags": {"amenity": "clinic", "name": "Lifespan Diabetes Clinics"}}, {"type": "node", "id": 5128503987, "lat": 28.5426418, "lon": 77.2255189, "tags": {"amenity": "clinic", "name": "Anju's Skin and Hair Beauty Clinic"}}, {"type": "node", "id": 5340920122, "lat": 28.7055417, "lon": 77.1112272, "tags": {"amenity": "clinic", "name": "Joshi Diabetes Centre"}}, {"type": "node", "id": 5390654844, "lat": 28.7403173, "lon": 77.1215558, "tags": {"amenity": "clinic", "name": "Channi Devi Goyal Memorial Medical Centre"}}, {"type": "node", "id": 5598384622, "lat": 28.5315336, "lon": 77.2075678, "tags": {"amenity": "clinic", "name": "Aggarwal Eye Institute"}}, {"type": "node", "id": 5804015430, "lat": 28.5268841, "lon": 77.2057017, "tags": {"amenity": "clinic", "name": "Ahuja Clinic", "opening_hours": "Mo-Sa 09:00-11:00, Mo,We,Fr 17:00-18:30, Tu,Th,Sa 17:00-20:00"}}, {"type": "node", "id": 5960793686, "lat": 28.5332342, "lon": 77.2210796, "tags": {"amenity": "clinic", "name": "Kohli Clinic", "opening_hours": "Mo-Su 10:00-20:00"}}, {"type": "node", "id": 5960793701, "lat": 28.5357824, "lon": 77.2168719, "tags": {"amenity": "clinic", "name": "hi tech dental clinic"}}, {"type": "node", "id": 5960794087, "lat": 28.5341711, "lon": 77.2220018, "tags": {"amenity": "clinic", "name": "Sanjay clinic ", "opening_hours": "Mo-Su 08:30-19:30"}}, {"type": "node", "id": 5960810585, "lat": 28.5342543, "lon": 77.2220757, "tags": {"amenity": "clinic", "name": "Tirupati eye center"}}, {"type": "node", "id": 5960811188, "lat": 28.5346261, "lon": 77.2206104, "tags": {"amenity": "clinic", "name": "care medical center"}}, {"type": "node", "id": 5960811190, "lat": 28.5341349, "lon": 77.2194522, "tags": {"amenity": "clinic", "name": "indraprastha poly clinic ", "opening_hours": "Mo-Sa 11:00-13:30, Mo-Sa 18:00-21:00, Su 11:00-13:30"}}, {"type": "node", "id": 5960832485, "lat": 28.5328426, "lon": 77.217287, "tags": {"amenity": "clinic", "name": "prakash dental care and physiotherapy", "opening_hours": "Su 09:30-01:00, Su 05:30-08:00"}}, {"type": "node", "id": 6007876248, "lat": 28.5110272, "lon": 77.2025214, "tags": {"amenity": "clinic", "healthcare": "clinic", "name": "Sparsh Homeopathic Clinic", "opening_hours": "Tu, Th, Sa 10:00-20:30; Su 18:00-20:00", "operator": "Dr Aditya Sharma", "phone": "+919711772920"}}, {"type": "node", "id": 6076117385, "lat": 28.7105191, "lon": 77.1069394, "tags": {"addr:city": "Rohini", "addr:housenumber": "d7/224", "addr:postcode": "110085", "addr:state": "Delhi", "addr:street": "Sector 6", "amenity": "clinic", "contact:phone": "+9101127054943", "healthcare:speciality": "dentist", "name": "Dental Health Point", "opening_hours": "Mo-Sa 09:00-12:00, Mo-Sa 17:00-20:00", "operator": "Dr. Renu Garg"}}, {"type": "node", "id": 6175366762, "lat": 28.509637, "lon": 77.1990545, "tags": {"amenity": "clinic", "name": "JSMK Clinic", "opening_hours": "Mo-Su 07:00-08:00, 17:00-19:00", "phone": "+91-98914-85910"}}, {"type": "node", "id": 6390207096, "lat": 28.712011, "lon": 77.1177846, "tags": {"amenity": "clinic"}}, {"type": "node", "id": 6415669197, "lat": 28.6823999, "lon": 77.2914557}, {"type": "node", "id": 6415669198, "lat": 28.6823781, "lon": 77.2914866}, {"type": "node", "id": 6415669199, "lat": 28.6825223, "lon": 77.2915952}, {"type": "node", "id": 6415669200, "lat": 28.6825369, "lon": 77.2915636}, {"type": "node", "id": 6726327605, "lat": 28.5075512, "lon": 77.1995128, "tags": {"amenity": "clinic", "healthcare": "clinic", "healthcare:speciality": "chiropractic", "name": "Physio Quantum", "phone": "+91-92123-93593;+91-92104-90009"}}, {"type": "node", "id": 6817191951, "lat": 28.6327268, "lon": 77.2804122, "tags": {"amenity": "clinic", "healthcare": "clinic"}}, {"type": "node", "id": 7003137342, "lat": 28.6778506, "lon": 77.2241288, "tags": {"amenity": "clinic", "healthcare": "clinic", "healthcare:speciality": "orthopaedics;trauma", "name": "Delhi Institute Of Trauma and Orthopaedics"}}, {"type": "node", "id": 7090332225, "lat": 28.52605, "lon": 77.2592939, "tags": {"amenity": "clinic", "healthcare": "clinic", "name": "Ganga Medical Center"}}, {"type": "node", "id": 7116250478, "lat": 28.5515214, "lon": 77.246076, "tags": {"amenity": "clinic", "name": "Sareen Hair Clinic"}}, {"type": "node", "id": 7138492340, "lat": 28.6633703, "lon": 77.1313327}, {"type": "node", "id": 7138492341, "lat": 28.663302, "lon": 77.1314143}, {"type": "node", "id": 7138492342, "lat": 28.6633564, "lon": 77.1314734}, {"type": "node", "id": 7138493094, "lat": 28.6721188, "lon": 77.1159301}, {"type": "node", "id": 7138493095, "lat": 28.6719872, "lon": 77.1159114}, {"type": "node", "id": 7138493096, "lat": 28.672003, "lon": 77.1157665}, {"type": "node", "id": 7138493097, "lat": 28.6721047, "lon": 77.1160597}, {"type": "node", "id": 7138493098, "lat": 28.6722318, "lon": 77.1160777}, {"type": "node", "id": 7138493124, "lat": 28.6513775, "lon": 77.0968036, "tags": {"addr:district": "West", "addr:full": "DGD Khyala, A Block, Near Sbi Bank", "addr:postcode": "110018", "addr:state": "Delhi", "amenity": "clinic", "contact:phone": "25983861", "description": "Dispensaries", "health_facility:type": "dispensary", "healthcare": "centre", "name": "DGD Khyala", "source": "OpenGovernmentData"}}, {"type": "node", "id": 7138493126, "lat": 28.6105214, "lon": 77.1082645, "tags": {"addr:district": "New Delhi", "addr:full": "MCD, Nangal Raya, Janakpuri", "addr:postcode": "110046", "addr:state": "Delhi", "amenity": "clinic", "contact:phone": "011-28525536", "description": "MCD Center", "health_facility:type": "dispensary", "healthcare": "centre", "name": "Maternal And Child Welfare Centre (MCD), Nangal Raya", "source": "OpenGovernmentData"}}, {"type": "node", "id": 7138493127, "lat": 28.6621736, "lon": 77.1447134}, {"type": "node", "id": 7138493128, "lat": 28.6722618, "lon": 77.1158032}, {"type": "node", "id": 7138493129, "lat": 28.6208562, "lon": 77.2004083, "tags": {"addr:district": "New Delhi", "addr:full": "No. 27, North Avenue Area, Near R M L Hospital", "addr:postcode": "110001", "addr:state": "Delhi", "amenity": "clinic", "contact:phone": "011-23092781", "description": "Dispensaries", "health_facility:type": "dispensary", "healthcare": "centre", "name": "President Estate Clinic", "source": "OpenGovernmentData"}}, {"type": "node", "id": 7138493130, "lat": 28.623212, "lon": 77.138335, "tags": {"addr:district": "New Delhi", "addr:full": "WZ 752N, Behind Naraina Club", "addr:postcode": "110028", "addr:state": "Delhi", "amenity": "clinic", "contact:phone": "011-25770557", "description": "Maternity Home", "health_facility:type": "dispensary", "healthcare": "centre", "name": "Maternity Home And Child Care Dispensary, Naraiana", "source": "OpenGovernmentData"}}, {"type": "node", "id": 7138493133, "lat": 28.5512217, "lon": 77.1757347, "tags": {"addr:district": "New Delhi", "addr:full": "Baba, Gang, Munirka, Nath Marg", "addr:postcode": "110067", "addr:state": "Delhi", "amenity": "clinic", "contact:phone": "011-2616 5959", "description": "Dispensaries", "health_facility:type": "dispensary", "healthcare": "centre", "name": "NIHFW Munirka", "source": "OpenGovernmentData"}}, {"type": "node", "id": 7138493134, "lat": 28.6341112, "lon": 77.1433462, "tags": {"addr:district": "New Delhi", "addr:full": "J J Colony, C Block, Budh Nagar, Near Mother Dairy", "addr:postcode": "110028", "addr:state": "Delhi", "amenity": "clinic", "contact:phone": "011-25836783", "description": "Dispensaries", "health_facility:type": "dispensary", "healthcare": "centre", "name": "DGD Budh Nagar", "source": "OpenGovernmentData"}}, {"type": "node", "id": 7138493135, "lat": 28.5452483, "lon": 77.0319165, "tags": {"addr:district": "South West", "addr:full": "Bamnoli, Chaupal", "addr:postcode": "110061", "addr:state": "Delhi", "amenity": "clinic", "contact:phone": "25314311", "description": "Dispensaries", "health_facility:type": "dispensary", "healthcare": "centre", "name": "DGD Bamnoli", "source": "OpenGovernmentData"}}, {"type": "node", "id": 7138493136, "lat": 28.6359178, "lon": 77.1457088, "tags": {"addr:district": "New Delhi", "addr:full": "Flat No. 647, 648, Krishi Kunj, Inder Puri, Near Loha Mandi", "addr:postcode": "110028", "addr:state": "Delhi", "amenity": "clinic", "contact:phone": "011-25836573", "description": "Dispensaries", "health_facility:type": "dispensary", "healthcare": "centre", "name": "CGHS Dispensary Inderpuri", "source": "OpenGovernmentData"}}, {"type": "node", "id": 7138493137, "lat": 28.5715124, "lon": 77.1671368, "tags": {"addr:district": "New Delhi", "addr:full": "CGHS Disp. Building, Sector VIII, R.K. Puram", "addr:postcode": "110022", "addr:state": "Delhi", "amenity": "clinic", "contact:phone": "011-26173988", "description": "Dispensaries", "health_facility:type": "dispensary", "healthcare": "centre", "name": "CGHS Dispensary R.K.Puram Sec-8", "source": "OpenGovernmentData"}}, {"type": "node", "id": 7138493138, "lat": 28.5777752, "lon": 77.0483255, "tags": {"addr:district": "South West", "addr:full": "Sec-19, Dwarka, Near Amrahi Village", "addr:postcode": "110075", "addr:state": "Delhi", "amenity": "clinic", "contact:phone": "28041571", "description": "Dispensaries", "health_facility:type": "dispensary", "healthcare": "centre", "name": "DGD Sec 19 Dwarka", "source": "OpenGovernmentData"}}, {"type": "node", "id": 7138493139, "lat": 28.5751776, "lon": 77.1906756, "tags": {"addr:district": "New Delhi", "addr:full": "Factory Road, Sarojini Nagar, Opposite Dtc Bus Depot", "addr:postcode": "110023", "addr:state": "Delhi", "amenity": "clinic", "contact:phone": "011-24671333", "description": "Dispensaries", "health_facility:type": "dispensary", "healthcare": "centre", "name": "ESI Dispensary Factory Road", "source": "OpenGovernmentData"}}, {"type": "node", "id": 7138493145, "lat": 28.6222683, "lon": 77.0643282, "tags": {"addr:district": "West", "addr:full": "A/11-12, Ram Dutt Enclave, Uttam Nagar", "addr:postcode": "110059", "addr:state": "Delhi", "amenity": "clinic", "contact:phone": "28565311", "description": "Dispensaries", "health_facility:type": "dispensary", "healthcare": "centre", "name": "DGD Ram Dutt Enclave", "source": "OpenGovernmentData"}}, {"type": "node", "id": 7138493146, "lat": 28.6019334, "lon": 77.1050054, "tags": {"addr:district": "New Delhi", "addr:full": "Near Choti Sabji Mandi", "addr:postcode": "110046", "addr:state": "Delhi", "amenity": "clinic", "contact:phone": "28525591", "description": "Dispensaries", "health_facility:type": "dispensary", "healthcare": "centre", "name": "Dispensary Government, Sagarpur", "source": "OpenGovernmentData"}}, {"type": "node", "id": 7138493148, "lat": 28.6344692, "lon": 77.1158533, "tags": {"addr:district": "West", "addr:full": "IV Block,Subhash Nagar, Behind Guru Dwara", "addr:postcode": "110027", "addr:state": "Delhi", "amenity": "clinic", "contact:phone": "25137037", "description": "Maternity Home", "health_facility:type": "dispensary", "healthcare": "centre", "name": "Dispensary, Subhash Nagar", "source": "OpenGovernmentData"}}, {"type": "node", "id": 7138493150, "lat": 28.6001742, "lon": 77.230795, "tags": {"addr:district": "New Delhi", "addr:full": "Plot no 213, 1st Floor, Golf Link, Dispensary Complex", "addr:postcode": "110003", "addr:state": "Delhi", "amenity": "clinic", "contact:phone": "011-24646844", "description": "Dispensaries", "health_facility:type": "dispensary", "healthcare": "centre", "name": "NDMC Dispensary", "source": "OpenGovernmentData"}}, {"type": "node", "id": 7138493152, "lat": 28.6039009, "lon": 77.1952236, "tags": {"addr:district": "New Delhi", "addr:full": "Circular Road, Pt. Uma Shanakr Dixit Marg, Chankyapuri, Opp Chanakyapuri Police Station", "addr:postcode": "110021", "addr:state": "Delhi", "amenity": "clinic", "contact:phone": "011 - 23013631", "description": "Dispensaries", "health_facility:type": "dispensary", "healthcare": "centre", "name": "Vishwa Yuvak Kendra", "source": "OpenGovernmentData"}}, {"type": "node", "id": 7138493154, "lat": 28.6174492, "lon": 77.004094, "tags": {"addr:district": "South West", "addr:full": "Khasra no 254, Nangli Sakrawati, Near Mcd Primary School", "addr:postcode": "110043", "addr:state": "Delhi", "amenity": "clinic", "contact:phone": "25322468", "description": "Dispensaries", "health_facility:type": "dispensary", "healthcare": "centre", "name": "DGD Nangli Sakrawati", "source": "OpenGovernmentData"}}, {"type": "node", "id": 7138493156, "lat": 28.6718062, "lon": 77.0011614, "tags": {"addr:district": "West", "addr:full": "MPCC Building, Hiran Kudna", "addr:postcode": "110041", "addr:state": "Delhi", "amenity": "clinic", "contact:phone": "1128353431", "description": "Dispensaries", "health_facility:type": "dispensary", "healthcare": "centre", "name": "DGD Hiran Kudna", "source": "OpenGovernmentData"}}, {"type": "node", "id": 7138493157, "lat": 28.6231449, "lon": 77.1245428, "tags": {"addr:district": "New Delhi", "addr:full": "PWD Building, Jhuggi Mayapuri Phase-2, Mayapuri, Behind Park", "addr:postcode": "110064", "addr:state": "Delhi", "amenity": "clinic", "contact:phone": "011-28116626", "description": "Dispensaries", "health_facility:type": "dispensary", "healthcare": "centre", "name": "DGD Mayapuri", "source": "OpenGovernmentData"}}, {"type": "node", "id": 7138493158, "lat": 28.67748, "lon": 77.078186, "tags": {"addr:district": "West", "addr:full": "B-Block, Camp No. 04, Jawalapuri", "addr:postcode": "110087", "addr:state": "Delhi", "amenity": "clinic", "contact:phone": "1125271997", "description": "Dispensaries", "health_facility:type": "dispensary", "healthcare": "centre", "name": "DGD Jwala Puri", "source": "OpenGovernmentData"}}, {"type": "node", "id": 7138493159, "lat": 28.5320512, "lon": 77.0931081, "tags": {"addr:district": "New Delhi", "addr:full": "H.No 30, Near Telephone Exchange, Samalka", "addr:postcode": "110037", "addr:state": "Delhi", "amenity": "clinic", "contact:phone": "25065397", "description": "Dispensaries", "health_facility:type": "dispensary", "healthcare": "centre", "name": "SPUHC Samalka", "source": "OpenGovernmentData"}}, {"type": "node", "id": 7138493161, "lat": 28.6843839, "lon": 76.9736556, "tags": {"addr:district": "West", "addr:full": "DGD Tikri Kalan Khadi Gram Building, V&PO Tikri Kalan", "addr:postcode": "110072", "addr:state": "Delhi", "amenity": "clinic", "contact:phone": "28344658", "description": "Dispensaries", "health_facility:type": "dispensary", "healthcare": "centre", "name": "DGD Tikri Kalan", "source": "OpenGovernmentData"}}, {"type": "node", "id": 7138493162, "lat": 28.5501361, "lon": 77.1701779, "tags": {"addr:district": "New Delhi", "addr:full": "DDA, Flat, Munirka, Jnu Campus", "addr:postcode": "110067", "addr:state": "Delhi", "amenity": "clinic", "contact:phone": "011-26107983", "description": "Dispensaries", "health_facility:type": "dispensary", "healthcare": "centre", "name": "JNU CGHS Dispensary", "source": "OpenGovernmentData"}}, {"type": "node", "id": 7138493163, "lat": 28.633024, "lon": 77.2111811, "tags": {"addr:district": "New Delhi", "addr:full": "Shaheed Bhagat Singh Marg, DIZ Area, Connaught Place", "addr:postcode": "110001", "addr:state": "Delhi", "amenity": "clinic", "contact:phone": "011-23365482", "description": "Polyclinic", "name": "New Delhi Municipal Council Polyclinic", "source": "OpenGovernmentData"}}, {"type": "node", "id": 7138493164, "lat": 28.5251796, "lon": 77.083542, "tags": {"addr:district": "South West", "addr:full": "Kapashera, Opposite Fun Food Club Village", "addr:postcode": "110037", "addr:state": "Delhi", "amenity": "clinic", "contact:phone": "25063139", "description": "Dispensaries", "health_facility:type": "dispensary", "healthcare": "centre", "name": "DGD Kapashera", "source": "OpenGovernmentData"}}, {"type": "node", "id": 7138493165, "lat": 28.5629319, "lon": 77.1791219, "tags": {"addr:city": "New Delhi", "addr:district": "New Delhi", "addr:full": "Q no 825, Opposite Police Station Sec 4 R K Puram", "addr:housenumber": "Sector-4", "addr:postcode": "110022", "addr:state": "Delhi", "addr:street": "Swami Vivekananda Marg", "amenity": "clinic", "contact:phone": "011-26183201", "description": "CGHS Center", "health_facility:type": "dispensary", "healthcare": "centre", "healthcare:speciality": "general", "name": "CGHS Dispensery, R K Puram", "opening_hours": "Mo-Sa 08:00-14:00", "source": "OpenGovernmentData"}}, {"type": "node", "id": 7138493168, "lat": 28.5756031, "lon": 76.8673075, "tags": {"addr:district": "South West", "addr:full": "Issapur", "addr:postcode": "110073", "addr:state": "Delhi", "amenity": "clinic", "contact:phone": "25031345", "description": "Dispensaries", "health_facility:type": "dispensary", "healthcare": "centre", "name": "DGD Issapur", "source": "OpenGovernmentData"}}, {"type": "node", "id": 7138493170, "lat": 28.5758536, "lon": 77.1913276, "tags": {"addr:district": "New Delhi", "addr:full": "Q.NO. L-168-172, Block L, Sarojini Nagar, Near Rbi Quarters Sarojini Nagar", "addr:postcode": "110023", "addr:state": "Delhi", "amenity": "clinic", "contact:phone": "011-24670666", "description": "Dispensaries", "health_facility:type": "dispensary", "healthcare": "centre", "name": "CGHS Dispensary L Block Sarojini Nagar New Delhi India", "source": "OpenGovernmentData"}}, {"type": "node", "id": 7138493171, "lat": 28.5920814, "lon": 76.9930276, "tags": {"addr:district": "South West", "addr:full": "Radha Swami Satsang, Dindarpur", "addr:postcode": "110043", "addr:state": "Delhi", "amenity": "clinic", "contact:phone": "25018177", "description": "Dispensaries", "health_facility:type": "dispensary", "healthcare": "centre", "name": "DGD Dindarpur", "source": "OpenGovernmentData"}}, {"type": "node", "id": 7138493172, "lat": 28.5809522, "lon": 77.2249977, "tags": {"addr:district": "South East", "addr:full": "Qtr.no. 1, 3, 5, 9, Block 4, Lodhi Colony, Near Ndmc School", "addr:postcode": "110003", "addr:state": "Delhi", "amenity": "clinic", "contact:phone": "011-24611442", "description": "Dispensaries", "health_facility:type": "dispensary", "healthcare": "centre", "name": "CGHS Wellness Centre Lodhi Road II", "source": "OpenGovernmentData"}}, {"type": "node", "id": 7138493173, "lat": 28.6179621, "lon": 77.0737965, "tags": {"addr:district": "South West", "addr:full": "D-2/132, PANKHA ROAD, Jeevan Park", "addr:postcode": "110059", "addr:state": "Delhi", "amenity": "clinic", "contact:phone": "011-25631169", "description": "Dispensaries", "health_facility:type": "dispensary", "healthcare": "centre", "name": "DGD Jeevan Park", "source": "OpenGovernmentData"}}, {"type": "node", "id": 7138493175, "lat": 28.5859822, "lon": 77.1962103, "tags": {"addr:district": "New Delhi", "addr:full": "D-II/257,259, Vinay Marg, Chankyapuri, Yashwant Place", "addr:postcode": "110029", "addr:state": "Delhi", "amenity": "clinic", "contact:phone": "011-24673777", "description": "Dispensaries", "health_facility:type": "dispensary", "healthcare": "centre", "name": "CGHS Wellness Centre Chankyapuri", "source": "OpenGovernmentData"}}, {"type": "node", "id": 7138493176, "lat": 28.632556, "lon": 77.01819, "tags": {"addr:district": "West", "addr:full": "Baprolla Vihar, Near Nangli vihar Extension", "addr:postcode": "110043", "addr:state": "Delhi", "amenity": "clinic", "description": "MCD Center", "health_facility:type": "dispensary", "healthcare": "centre", "name": "MCD Baprolla", "source": "OpenGovernmentData"}}, {"type": "node", "id": 7138493178, "lat": 28.6466595, "lon": 77.0953194, "tags": {"addr:district": "West", "addr:full": "Resettlement Colony, Choukhandi, Near Gurudwara", "addr:postcode": "110018", "addr:state": "Delhi", "amenity": "clinic", "contact:phone": "28334276", "description": "Dispensaries", "health_facility:type": "dispensary", "healthcare": "centre", "name": "DGD Choukhandi", "source": "OpenGovernmentData"}}, {"type": "node", "id": 7138493180, "lat": 28.6033779, "lon": 77.189242, "tags": {"addr:district": "New Delhi", "addr:full": "2nd Floor, Palika Health Complex, Dharam Marg, Chankyapuri", "addr:postcode": "110021", "addr:state": "Delhi", "amenity": "clinic", "contact:phone": "011-24121015", "description": "Dispensaries", "health_facility:type": "dispensary", "healthcare": "centre", "name": "Dharam Marg Dispensary Complex", "source": "OpenGovernmentData"}}, {"type": "node", "id": 7138493181, "lat": 28.6174089, "lon": 77.0161095, "tags": {"addr:district": "South West", "addr:full": "H.No 13/14 Gali No.1 Ranaji Enclave, Near Nangli Dairy Bus Stand", "addr:postcode": "110043", "addr:state": "Delhi", "amenity": "clinic", "contact:phone": "25322585", "description": "Dispensaries", "health_facility:type": "dispensary", "healthcare": "centre", "name": "SPUHC Ranaji Enclave", "source": "OpenGovernmentData"}}, {"type": "node", "id": 7138493182, "lat": 28.6092512, "lon": 77.1998329, "tags": {"addr:district": "New Delhi", "addr:full": "153, Infront Mother Dairy, South Avenue", "addr:postcode": "110011", "addr:state": "Delhi", "amenity": "clinic", "contact:phone": "011-23013490", "description": "Dispensaries", "health_facility:type": "dispensary", "healthcare": "centre", "name": "CGHS Dispensary South Avenue", "source": "OpenGovernmentData"}}, {"type": "node", "id": 7138493184, "lat": 28.6634247, "lon": 77.1313918}, {"type": "node", "id": 7138493185, "lat": 28.6173985, "lon": 77.1122303, "tags": {"addr:district": "New Delhi", "addr:full": "D-22, Facility centre, Junk Market Mayapuri Phase-ii, Near Post Office", "addr:postcode": "110064", "addr:state": "Delhi", "amenity": "clinic", "contact:phone": "011-28112417", "description": "Dispensaries", "health_facility:type": "dispensary", "healthcare": "centre", "name": "ESI Mayapuri-II", "source": "OpenGovernmentData"}}, {"type": "node", "id": 7138493186, "lat": 28.5131037, "lon": 77.106859, "tags": {"addr:district": "New Delhi", "addr:full": "Near Tower & Community Centre, Rajokari", "addr:postcode": "110038", "addr:state": "Delhi", "amenity": "clinic", "contact:phone": "011-25063937", "description": "Dispensaries", "health_facility:type": "dispensary", "healthcare": "centre", "name": "DGD Rajokari", "source": "OpenGovernmentData"}}, {"type": "node", "id": 7138493187, "lat": 28.6272127, "lon": 77.1220308, "tags": {"addr:district": "New Delhi", "addr:full": "B-309, Dda, Esi Dispy. Mp.1, Shopping Centre", "addr:postcode": "110064", "addr:state": "Delhi", "amenity": "clinic", "contact:phone": "011-28114516", "description": "Dispensaries", "health_facility:type": "dispensary", "healthcare": "centre", "name": "ESI Dispensary Mayapuri Phase-I", "source": "OpenGovernmentData"}}, {"type": "node", "id": 7138493188, "lat": 28.6840197, "lon": 77.0605155, "tags": {"addr:district": "West", "addr:full": "C-Block, Community Centre, Nangloi, J.J.Colony-ii", "addr:postcode": "110041", "addr:state": "Delhi", "amenity": "clinic", "contact:phone": "011-25474141", "description": "Dispensaries", "health_facility:type": "dispensary", "healthcare": "centre", "name": "DGD Nangloi", "source": "OpenGovernmentData"}}, {"type": "node", "id": 7138493189, "lat": 28.5463341, "lon": 77.1259322, "tags": {"addr:district": "New Delhi", "addr:full": "RZ-A-116, Road No. 4, Near Hotel Goodluck, Mahipalpur", "addr:postcode": "110076", "addr:state": "Delhi", "amenity": "clinic", "contact:phone": "011-26782850", "description": "Dispensaries", "health_facility:type": "dispensary", "healthcare": "centre", "name": "Rural Community Health Care Centre", "source": "OpenGovernmentData"}}, {"type": "node", "id": 7138493190, "lat": 28.6295482, "lon": 77.234083, "tags": {"addr:district": "New Delhi", "addr:full": "42, Ground Floor, Babar Road, Dispensary Complex", "addr:postcode": "110001", "addr:state": "Delhi", "amenity": "clinic", "contact:phone": "011-23739285", "description": "Dispensaries", "health_facility:type": "dispensary", "healthcare": "centre", "name": "Babar Road Allopathic Dispensary", "source": "OpenGovernmentData"}}, {"type": "node", "id": 7138493191, "lat": 28.5248887, "lon": 76.9034278, "tags": {"addr:district": "South West", "addr:full": "Rawta, New Delhi", "addr:postcode": "110073", "addr:state": "Delhi", "amenity": "clinic", "description": "Dispensaries", "health_facility:type": "dispensary", "healthcare": "centre", "name": "DGD Rawta", "source": "OpenGovernmentData"}}, {"type": "node", "id": 7138493192, "lat": 28.5580386, "lon": 77.1832195}, {"type": "node", "id": 7138493194, "lat": 28.5594812, "lon": 77.0027667, "tags": {"addr:district": "South West", "addr:full": "Near Radha Krishan Mandir, Village Chhawla", "addr:postcode": "110071", "addr:state": "Delhi", "amenity": "clinic", "contact:phone": "25316450", "description": "Dispensaries", "health_facility:type": "dispensary", "healthcare": "centre", "name": "DGD Chhawla", "source": "OpenGovernmentData"}}, {"type": "node", "id": 7138493197, "lat": 28.5745814, "lon": 77.0323753, "tags": {"addr:district": "South West", "addr:full": "Samta Enclave, Qutub Vihar, Near Tarun Properties", "addr:postcode": "110071", "addr:state": "Delhi", "amenity": "clinic", "description": "Dispensaries", "health_facility:type": "dispensary", "healthcare": "centre", "name": "PUHC Qutub Vihar", "source": "OpenGovernmentData"}}, {"type": "node", "id": 7138493198, "lat": 28.5735641, "lon": 77.2174125, "tags": {"addr:district": "South East", "addr:full": "H.No.10, East Kidwai Nagar, Market", "addr:postcode": "110023", "addr:state": "Delhi", "amenity": "clinic", "contact:phone": "011-24646094", "description": "Dispensaries", "health_facility:type": "dispensary", "healthcare": "centre", "name": "Kidwai Nagar Allopathic Dispensary", "source": "OpenGovernmentData"}}, {"type": "node", "id": 7138493200, "lat": 28.5756033, "lon": 77.1876419, "tags": {"addr:district": "New Delhi", "addr:full": "Netaji Nagar, Netaji Nagar Market", "addr:postcode": "110023", "addr:state": "Delhi", "amenity": "clinic", "contact:phone": "011-24673479", "description": "Dispensaries", "health_facility:type": "dispensary", "healthcare": "centre", "name": "Netaji Nagar Allopathic Dispensary", "source": "OpenGovernmentData"}}, {"type": "node", "id": 7138493202, "lat": 28.5917177, "lon": 77.0891933, "tags": {"addr:district": "South West", "addr:full": "Mangla Puri, Sadh Nagar", "addr:postcode": "110045", "addr:state": "Delhi", "amenity": "clinic", "contact:phone": "25056509", "description": "Dispensaries", "health_facility:type": "dispensary", "healthcare": "centre", "name": "CGHS Sadh Nagar", "source": "OpenGovernmentData"}}, {"type": "node", "id": 7138493203, "lat": 28.5822643, "lon": 77.2198427, "tags": {"addr:district": "South East", "addr:full": "CGHS Building, Near Lodhi Road,Cghs Ayurvedic Hospital", "addr:postcode": "110003", "addr:state": "Delhi", "amenity": "clinic", "contact:phone": "011-24611538", "description": "Dispensaries", "health_facility:type": "dispensary", "healthcare": "centre", "name": "CGHS Dispensary Lodhi Road Aliganj", "source": "OpenGovernmentData"}}, {"type": "node", "id": 7138493207, "lat": 28.595138, "lon": 77.1773, "tags": {"addr:district": "New Delhi", "addr:full": "Near Baratghar, Bapudham", "addr:postcode": "110021", "addr:state": "Delhi", "amenity": "clinic", "contact:phone": "011-24101218", "description": "Dispensaries", "health_facility:type": "dispensary", "healthcare": "centre", "name": "Bapudham Allopathic Dispensary", "source": "OpenGovernmentData"}}, {"type": "node", "id": 7138493208, "lat": 28.6457952, "lon": 77.159466, "tags": {"addr:district": "West", "addr:full": "Ranjeet Nagar, Patel Nagar", "addr:postcode": "110008", "addr:state": "Delhi", "amenity": "clinic", "contact:phone": "25705777", "description": "Dispensaries", "health_facility:type": "dispensary", "healthcare": "centre", "name": "DGD New Ranjeet Nagar", "source": "OpenGovernmentData"}}, {"type": "node", "id": 7138493209, "lat": 28.6112923, "lon": 76.9800768, "tags": {"addr:district": "South West", "addr:full": "ESI Dispensary House No. 1281-82, Najafgarh, Krishna Mandir Gali", "addr:postcode": "110043", "addr:state": "Delhi", "amenity": "clinic", "contact:phone": "25012143", "description": "Dispensaries", "health_facility:type": "dispensary", "healthcare": "centre", "name": "ESI Najafgarh", "source": "OpenGovernmentData"}}, {"type": "node", "id": 7138493210, "lat": 28.603382, "lon": 77.2279162, "tags": {"addr:district": "New Delhi", "addr:full": "D-II/365-367, Pandara Road", "addr:postcode": "110003", "addr:state": "Delhi", "amenity": "clinic", "contact:phone": "011-23385040", "description": "Dispensaries", "health_facility:type": "dispensary", "healthcare": "centre", "name": "CGHS Dispensary Pandara Road", "source": "OpenGovernmentData"}}, {"type": "node", "id": 7138493211, "lat": 28.6509308, "lon": 77.055234, "tags": {"addr:district": "West", "addr:full": "H No-83, Nilothi Village", "addr:postcode": "110041", "addr:state": "Delhi", "amenity": "clinic", "description": "Dispensaries", "health_facility:type": "dispensary", "healthcare": "centre", "name": "SPUHC Nilothi", "source": "OpenGovernmentData"}}, {"type": "node", "id": 7138493212, "lat": 28.6168968, "lon": 76.891045, "tags": {"addr:district": "South West", "addr:full": "Mundhela Khurd, Chaupal", "addr:postcode": "110043", "addr:state": "Delhi", "amenity": "clinic", "description": "Dispensaries", "health_facility:type": "dispensary", "healthcare": "centre", "name": "GNCT, Mundela Khurd", "source": "OpenGovernmentData"}}, {"type": "node", "id": 7138493213, "lat": 28.6090129, "lon": 77.2360929, "tags": {"addr:district": "New Delhi", "addr:full": "DELHI HIGH COURT CAMPUS, Sher Shah Road, Delhi High Court, Near India Gate", "addr:postcode": "110503", "addr:state": "Delhi", "amenity": "clinic", "contact:phone": "011-23070962", "description": "Dispensaries", "health_facility:type": "dispensary", "healthcare": "centre", "name": "DGD Delhi High Court", "source": "OpenGovernmentData"}}, {"type": "node", "id": 7138493214, "lat": 28.6626911, "lon": 77.0146696, "tags": {"addr:district": "West", "addr:full": "Resttlement Colony, Bakkarwala", "addr:postcode": "110041", "addr:state": "Delhi", "amenity": "clinic", "contact:phone": "1128344111", "description": "Dispensaries", "health_facility:type": "dispensary", "healthcare": "centre", "name": "DGD Bakkarwala", "source": "OpenGovernmentData"}}, {"type": "node", "id": 7138493216, "lat": 28.6626656, "lon": 77.1624984, "tags": {"addr:district": "North West", "addr:full": "H.No. 2104, Gali No. 12, Prem Nagar, Behind Dms", "addr:postcode": "110008", "addr:state": "Delhi", "amenity": "clinic", "contact:phone": "25875497", "description": "Dispensaries", "health_facility:type": "dispensary", "healthcare": "centre", "name": "DGD Prem Nagar", "source": "OpenGovernmentData"}}, {"type": "node", "id": 7138493217, "lat": 28.622596, "lon": 77.1994817, "tags": {"addr:district": "New Delhi", "addr:full": "31, North Avenue", "addr:postcode": "110004", "addr:state": "Delhi", "amenity": "clinic", "contact:phone": "011-23094420", "description": "Dispensaries", "health_facility:type": "dispensary", "healthcare": "centre", "name": "CGHS Dispensary North Avenue", "source": "OpenGovernmentData"}}, {"type": "node", "id": 7138493218, "lat": 28.677265, "lon": 77.026766, "tags": {"addr:district": "West", "addr:full": "Village Mundka, Near Talab", "addr:postcode": "110041", "addr:state": "Delhi", "amenity": "clinic", "contact:phone": "28345612", "description": "Maternity Home", "health_facility:type": "dispensary", "healthcare": "centre", "name": "MCD Dispensary, Mundka", "source": "OpenGovernmentData"}}, {"type": "node", "id": 7138493219, "lat": 28.68158, "lon": 77.066058, "tags": {"addr:district": "West", "addr:full": "Opp. Naresh Park, Nangloi, Police Station", "addr:postcode": "110041", "addr:state": "Delhi", "amenity": "clinic", "contact:phone": "25941603", "description": "M&CW Center", "health_facility:type": "dispensary", "healthcare": "centre", "name": "MCD Nangloi", "source": "OpenGovernmentData"}}, {"type": "node", "id": 7138493220, "lat": 28.5460788, "lon": 77.1293232, "tags": {"addr:district": "New Delhi", "addr:full": "KH. No.524, Near Hanuman Mandir, Mahipalpur", "addr:postcode": "110037", "addr:state": "Delhi", "amenity": "clinic", "contact:phone": "26783169", "description": "Dispensaries", "health_facility:type": "dispensary", "healthcare": "centre", "name": "DGD Mahipalpur", "source": "OpenGovernmentData"}}, {"type": "node", "id": 7138493221, "lat": 28.629455, "lon": 77.1464559, "tags": {"addr:district": "New Delhi", "addr:full": "Inderpuri, Near Mother Dairy", "addr:postcode": "110012", "addr:state": "Delhi", "amenity": "clinic", "contact:phone": "011-25835843", "description": "Dispensaries", "health_facility:type": "dispensary", "healthcare": "centre", "name": "DGD Inderpuri", "source": "OpenGovernmentData"}}, {"type": "node", "id": 7138493222, "lat": 28.5229951, "lon": 76.9670028, "tags": {"addr:district": "South West", "addr:full": "Jhatikra, Near By Gyatri Siddh Peeth", "addr:postcode": "110043", "addr:state": "Delhi", "amenity": "clinic", "description": "Dispensaries", "health_facility:type": "dispensary", "healthcare": "centre", "name": "CHC Jhatikara", "source": "OpenGovernmentData"}}, {"type": "node", "id": 7138493223, "lat": 28.557788, "lon": 77.0712251, "tags": {"addr:district": "New Delhi", "addr:full": "Lamba Mohalla, Shahbad Mohd.Pur, Near Railway Station", "addr:postcode": "110061", "addr:state": "Delhi", "amenity": "clinic", "contact:phone": "011-25654938", "description": "Dispensaries", "health_facility:type": "dispensary", "healthcare": "centre", "name": "DGD Shahbad Mohammadpur", "source": "OpenGovernmentData"}}, {"type": "node", "id": 7138493224, "lat": 28.5529436, "lon": 76.9023408, "tags": {"addr:district": "South West", "addr:postcode": "110073", "addr:state": "Delhi", "amenity": "clinic", "contact:phone": "25318152", "health_facility:type": "dispensary", "healthcare": "centre", "name": "DGD Malikpur", "source": "OpenGovernmentData"}}, {"type": "node", "id": 7138493226, "lat": 28.6364792, "lon": 77.1634061, "tags": {"addr:district": "West", "addr:full": "Vindhya Avenue, near Government Boys Senior Secondary School, Pusa", "addr:postcode": "110012", "addr:state": "Delhi", "amenity": "clinic", "contact:phone": "011-26183201", "description": "Dispensaries", "health_facility:type": "dispensary", "healthcare": "centre", "name": "Dispensary Pusa", "source": "OpenGovernmentData"}}, {"type": "node", "id": 7138493227, "lat": 28.5728016, "lon": 77.0765067, "tags": {"addr:district": "New Delhi", "addr:full": "Sec-8, Raj Nagar-ii, Dwarka, Near Mother Dairy", "addr:postcode": "110077", "addr:state": "Delhi", "amenity": "clinic", "contact:phone": "25365499", "description": "Dispensaries", "health_facility:type": "dispensary", "healthcare": "centre", "name": "DGD Raj Nagar II", "source": "OpenGovernmentData"}}, {"type": "node", "id": 7138493228, "lat": 28.5733539, "lon": 77.1760096, "tags": {"addr:district": "New Delhi", "addr:full": "R.K. Puram", "addr:postcode": "110022", "addr:state": "Delhi", "amenity": "clinic", "contact:phone": "011-26170472", "description": "Dispensaries", "health_facility:type": "dispensary", "healthcare": "centre", "name": "CGHS Dispensary R.K.Puram Sec-12", "source": "OpenGovernmentData"}}, {"type": "node", "id": 7138493230, "lat": 28.58391, "lon": 77.0726038, "tags": {"addr:district": "South West", "addr:full": "Sector 7, Dwarka, Opposite Shruti Appartment", "addr:postcode": "110075", "addr:state": "Delhi", "amenity": "clinic", "contact:phone": "25088415", "description": "Dispensaries", "health_facility:type": "dispensary", "healthcare": "centre", "name": "ESI Palam Colony", "source": "OpenGovernmentData"}}, {"type": "node", "id": 7138493231, "lat": 28.5754186, "lon": 77.2051091, "tags": {"addr:district": "New Delhi", "addr:full": "D-15, CGHS Disp Building, Laxmibai Naga, Near Navyug School", "addr:postcode": "110023", "addr:state": "Delhi", "amenity": "clinic", "contact:phone": "011-26874643", "description": "Dispensaries", "health_facility:type": "dispensary", "healthcare": "centre", "name": "CGHS Dispensary Laxmibai Nagar", "source": "OpenGovernmentData"}}, {"type": "node", "id": 7138493232, "lat": 28.5917228, "lon": 77.02906, "tags": {"addr:district": "South West", "addr:full": "Delhi Govt. Building, Sec-17, New Delhi-75", "addr:postcode": "110075", "addr:state": "Delhi", "amenity": "clinic", "description": "Dispensaries", "health_facility:type": "dispensary", "healthcare": "centre", "name": "DGD Sec 17 Dwarka", "source": "OpenGovernmentData"}}, {"type": "node", "id": 7138493233, "lat": 28.5817248, "lon": 77.168648, "tags": {"addr:district": "New Delhi", "addr:full": "87, Block I, Moti-Bagh, Near Nanakpura Market", "addr:postcode": "110021", "addr:state": "Delhi", "amenity": "clinic", "contact:phone": "011-24102402", "description": "CGHS Center", "health_facility:type": "dispensary", "healthcare": "centre", "name": "CGHS Dispensery Moti Bagh", "source": "OpenGovernmentData"}}, {"type": "node", "id": 7138493236, "lat": 28.5843695, "lon": 77.177838, "tags": {"addr:district": "New Delhi", "addr:full": "WC-29, CGHS, Nanakpura, Near Women Cell Crime Branch, Nanakpura", "addr:postcode": "110021", "addr:state": "Delhi", "amenity": "clinic", "contact:phone": "011-24670444", "description": "Dispensaries", "health_facility:type": "dispensary", "healthcare": "centre", "name": "CGHS Wellness Centre Nanakpura", "source": "OpenGovernmentData"}}, {"type": "node", "id": 7138493237, "lat": 28.6251868, "lon": 77.0776575}, {"type": "node", "id": 7138493239, "lat": 28.6433158, "lon": 77.0898749, "tags": {"addr:district": "West", "addr:full": "Near Police Station, Tilikvihar", "addr:postcode": "110018", "addr:state": "Delhi", "amenity": "clinic", "contact:phone": "1128333249", "description": "Dispensaries", "health_facility:type": "dispensary", "healthcare": "centre", "name": "Aam Aadmi Polyclinic Tilak Vihar", "source": "OpenGovernmentData"}}, {"type": "node", "id": 7138493240, "lat": 28.6102262, "lon": 76.9666638, "tags": {"addr:district": "South West", "addr:full": "RZ-31, M-Block, Gopal Nagar, Najafgarh, Near Shree Krishan Vatika, Nanak Piao", "addr:postcode": "110043", "addr:state": "Delhi", "amenity": "clinic", "contact:phone": "28010977", "description": "Dispensaries", "health_facility:type": "dispensary", "healthcare": "centre", "name": "DGD, Gopal Nagar", "source": "OpenGovernmentData"}}, {"type": "node", "id": 7138493241, "lat": 28.6497103, "lon": 77.1581716, "tags": {"addr:district": "West", "addr:full": "DDA Flats, New Ranjeet Nagar, Opp. Satyam Cinema", "addr:postcode": "110008", "addr:state": "Delhi", "amenity": "clinic", "contact:phone": "1125703157", "description": "Dispensaries", "health_facility:type": "dispensary", "healthcare": "centre", "name": "DGD Ranjit Nagar", "source": "OpenGovernmentData"}}, {"type": "node", "id": 7138493243, "lat": 28.6087742, "lon": 77.1063672, "tags": {"addr:district": "New Delhi", "addr:full": "CGHS Disp, D Block, Janak Puri, Near Sarvodaya Kanya Vidyalaya, Nangal Raya", "addr:postcode": "110058", "addr:state": "Delhi", "amenity": "clinic", "contact:phone": "011-28521863", "description": "Dispensaries", "health_facility:type": "dispensary", "healthcare": "centre", "name": "CGHS Dispensary Nangal Raya", "source": "OpenGovernmentData"}}, {"type": "node", "id": 7138493244, "lat": 28.6525321, "lon": 77.065494, "tags": {"addr:district": "West", "addr:full": "A-187, Chander Vihar, Nangloi, Niltothi Ext.", "addr:postcode": "110041", "addr:state": "Delhi", "amenity": "clinic", "contact:phone": "011-28363348", "description": "Dispensaries", "health_facility:type": "dispensary", "healthcare": "centre", "name": "SPUHC Chander Vihar", "source": "OpenGovernmentData"}}, {"type": "node", "id": 7138493245, "lat": 28.6521419, "lon": 76.950465, "tags": {"addr:district": "South West", "addr:full": "Jharoda Kalan", "addr:postcode": "110072", "addr:state": "Delhi", "amenity": "clinic", "contact:phone": "25315506", "description": "Dispensaries", "health_facility:type": "dispensary", "healthcare": "centre", "name": "DGD Jharoda Kalan", "source": "OpenGovernmentData"}}, {"type": "node", "id": 7138493246, "lat": 28.6112876, "lon": 77.1081196, "tags": {"addr:district": "New Delhi", "addr:full": "D- Block Janakpuri, Nangal Raya Market, Near Post Office, Nangal Raya", "addr:postcode": "110058", "addr:state": "Delhi", "amenity": "clinic", "contact:phone": "011-28523493", "description": "Dispensaries", "health_facility:type": "dispensary", "healthcare": "centre", "name": "DGD Nangal Raya", "source": "OpenGovernmentData"}}, {"type": "node", "id": 7138493247, "lat": 28.6227119, "lon": 77.2227032, "tags": {"addr:district": "New Delhi", "addr:full": "18-A, Telegraph Lane, Near Bhartiya Vidya Bhawan, Janpath , Diwanchand Imangning Centre", "addr:postcode": "110001", "addr:state": "Delhi", "amenity": "clinic", "contact:phone": "011-23717670 , 011-23326601", "description": "Dispensaries", "health_facility:type": "dispensary", "healthcare": "centre", "name": "H.C.M. Lane Allopathic Dispensary", "source": "OpenGovernmentData"}}, {"type": "node", "id": 7138493249, "lat": 28.624833, "lon": 77.143484, "tags": {"addr:district": "New Delhi", "addr:full": "C-Block, Naraina Vihar, Near Community Centre", "addr:postcode": "110028", "addr:state": "Delhi", "amenity": "clinic", "contact:phone": "011-25778775", "description": "Dispensaries", "health_facility:type": "dispensary", "healthcare": "centre", "name": "CGHS Dispensary Naraina Vihar", "source": "OpenGovernmentData"}}, {"type": "node", "id": 7138493252, "lat": 28.6288565, "lon": 77.2001398, "tags": {"addr:district": "New Delhi", "addr:full": "DIZ Area, Udyan marg, Kalibari Marg, Near Birla Mandir", "addr:postcode": "110001", "addr:state": "Delhi", "amenity": "clinic", "contact:phone": "011-23743142", "description": "Dispensaries", "health_facility:type": "dispensary", "healthcare": "centre", "name": "CGHS Wellness Centre Kali Bari", "source": "OpenGovernmentData"}}, {"type": "node", "id": 7138493256, "lat": 28.5469666, "lon": 76.9872701, "tags": {"addr:district": "South West", "addr:full": "Near Shri Krishna Public School, Kangenheri", "addr:postcode": "110071", "addr:state": "Delhi", "amenity": "clinic", "contact:phone": "25316651", "description": "Dispensaries", "health_facility:type": "dispensary", "healthcare": "centre", "name": "DGD Kanganheri", "source": "OpenGovernmentData"}}, {"type": "node", "id": 7138493257, "lat": 28.5652408, "lon": 77.1735025, "tags": {"addr:district": "New Delhi", "addr:full": "CGHS Building, R.K.Puram Sec-6, Near Mother Dairy", "addr:postcode": "110022", "addr:state": "Delhi", "amenity": "clinic", "contact:phone": "011-26175490", "description": "Dispensaries", "health_facility:type": "dispensary", "healthcare": "centre", "name": "CGHS Wellness Centre R.K.Puram Sec-6", "source": "OpenGovernmentData"}}, {"type": "node", "id": 7138493259, "lat": 28.5724933, "lon": 76.9543863, "tags": {"addr:district": "South West", "addr:full": "Near Sr Secondry Govt. School, Pandwala Kalan", "addr:postcode": "110043", "addr:state": "Delhi", "amenity": "clinic", "contact:phone": "28013068", "description": "Dispensaries", "health_facility:type": "dispensary", "healthcare": "centre", "name": "DGHC Pandwalan Kalan", "source": "OpenGovernmentData"}}, {"type": "node", "id": 7138493260, "lat": 28.572834, "lon": 77.1565414, "tags": {"addr:district": "New Delhi", "addr:full": "Basant Gaon, Niryat Bhawan Opposite Rr", "addr:postcode": "110057", "addr:state": "Delhi", "amenity": "clinic", "contact:phone": "26151641", "description": "Dispensaries", "health_facility:type": "dispensary", "healthcare": "centre", "name": "DGD Basant Goan", "source": "OpenGovernmentData"}}, {"type": "node", "id": 7138493261, "lat": 28.5781838, "lon": 77.1178174, "tags": {"addr:district": "New Delhi", "addr:full": "Palam", "addr:postcode": "110010", "addr:state": "Delhi", "amenity": "clinic", "contact:phone": "25687194", "description": "Dispensaries", "health_facility:type": "dispensary", "healthcare": "centre", "name": "Air Force Station Palam", "source": "OpenGovernmentData"}}, {"type": "node", "id": 7138493262, "lat": 28.575289, "lon": 77.200555, "tags": {"addr:district": "New Delhi", "addr:full": "CWC, Complex, Sarojini Nagar, Near Post Office", "addr:postcode": "110023", "addr:state": "Delhi", "amenity": "clinic", "contact:phone": "011-24672666", "description": "M&CW Center", "health_facility:type": "dispensary", "healthcare": "centre", "name": "M.C.W. Center, NDMC Dispensary, Sarojini Nagar", "source": "OpenGovernmentData"}}, {"type": "node", "id": 7138493267, "lat": 28.5938928, "lon": 77.0441507, "tags": {"addr:district": "South West", "addr:full": "Sec 12, Dwarka", "addr:postcode": "110075", "addr:state": "Delhi", "amenity": "clinic", "check_date": "2025-03-09", "description": "Dispensaries", "health_facility:type": "dispensary", "healthcare": "centre", "name": "Health Centre Sec 12 Dwarka", "source": "OpenGovernmentData"}}, {"type": "node", "id": 7138493268, "lat": 28.6228076, "lon": 77.0562584, "tags": {"addr:district": "West", "addr:full": "Uttam Nagar West, M Block, Mohan Garden, New Delhi", "addr:postcode": "110058", "addr:state": "Delhi", "amenity": "clinic", "contact:phone": "28561918", "description": "MCD Center", "health_facility:type": "dispensary", "healthcare": "centre", "name": "MCD Uttam Nagar", "source": "OpenGovernmentData"}}, {"type": "node", "id": 7138493269, "lat": 28.6027805, "lon": 77.0240327, "tags": {"addr:district": "South West", "addr:full": "Sec 14, Near Sec 14 Metro Station, Dwarka", "addr:postcode": "110075", "addr:state": "Delhi", "amenity": "clinic", "description": "Dispensaries", "health_facility:type": "dispensary", "healthcare": "centre", "name": "DGD Sec 14 Dwarka", "source": "OpenGovernmentData"}}, {"type": "node", "id": 7138493270, "lat": 28.6382874, "lon": 77.0788163, "tags": {"addr:district": "West", "addr:full": "Block KG 1, Vikas Puri", "addr:postcode": "110018", "addr:state": "Delhi", "amenity": "clinic", "contact:phone": "25599437", "description": "Dispensaries", "health_facility:type": "dispensary", "healthcare": "centre", "name": "DGD Vikaspuri", "source": "OpenGovernmentData"}}, {"type": "node", "id": 7138493271, "lat": 28.6002912, "lon": 77.2306526, "tags": {"addr:district": "New Delhi", "addr:full": "Plot no. 213, Golf Link", "addr:postcode": "110003", "addr:state": "Delhi", "amenity": "clinic", "contact:phone": "011-24652762", "description": "Dispensaries", "health_facility:type": "dispensary", "healthcare": "centre", "name": "Golf Link Allopathic Dispensary", "source": "OpenGovernmentData"}}, {"type": "node", "id": 7138493272, "lat": 28.6476905, "lon": 77.0275218, "tags": {"addr:district": "West", "addr:full": "VPO Tilangpur Kotla, Nangloi Nazafgarh Road", "addr:postcode": "110041", "addr:state": "Delhi", "amenity": "clinic", "contact:phone": "011-25325584", "description": "Dispensaries", "health_facility:type": "dispensary", "healthcare": "centre", "name": "DGD Tilangpur Kotla", "source": "OpenGovernmentData"}}, {"type": "node", "id": 7138493274, "lat": 28.6055299, "lon": 77.2346183, "tags": {"addr:district": "New Delhi", "addr:full": "CGHS Building, Dr. Z.H.Road, Near Indiagate", "addr:postcode": "110003", "addr:state": "Delhi", "amenity": "clinic", "contact:phone": "011-23383724", "description": "Dispensaries", "health_facility:type": "dispensary", "healthcare": "centre", "name": "CGHS Dispensary Zakir Husain Road", "source": "OpenGovernmentData"}}, {"type": "node", "id": 7138533837, "lat": 28.6443307, "lon": 77.2719928}, {"type": "node", "id": 7138533838, "lat": 28.6442435, "lon": 77.2720007}, {"type": "node", "id": 7138533839, "lat": 28.6442279, "lon": 77.2717788}, {"type": "node", "id": 7138533957, "lat": 28.6873433, "lon": 77.1986802}, {"type": "node", "id": 7138533958, "lat": 28.6872969, "lon": 77.1987253}, {"type": "node", "id": 7138533959, "lat": 28.6873207, "lon": 77.1987571}, {"type": "node", "id": 7138533960, "lat": 28.6872383, "lon": 77.198837}, {"type": "node", "id": 7138533961, "lat": 28.6871438, "lon": 77.1987105}, {"type": "node", "id": 7138533962, "lat": 28.6871845, "lon": 77.1986709}, {"type": "node", "id": 7138533963, "lat": 28.6872025, "lon": 77.198695}, {"type": "node", "id": 7138534031, "lat": 28.5208568, "lon": 77.2291978}, {"type": "node", "id": 7138534032, "lat": 28.5208197, "lon": 77.2292756}, {"type": "node", "id": 7138534033, "lat": 28.5206837, "lon": 77.2291915}, {"type": "node", "id": 7138534097, "lat": 28.6410506, "lon": 77.2737238}, {"type": "node", "id": 7138534098, "lat": 28.6410502, "lon": 77.273745}, {"type": "node", "id": 7138534099, "lat": 28.6410251, "lon": 77.2737444}, {"type": "node", "id": 7138534100, "lat": 28.6410256, "lon": 77.2737195}, {"type": "node", "id": 7138534101, "lat": 28.640856, "lon": 77.273715}, {"type": "node", "id": 7138534102, "lat": 28.6408534, "lon": 77.2738428}, {"type": "node", "id": 7138534103, "lat": 28.6409037, "lon": 77.2738442}, {"type": "node", "id": 7138534104, "lat": 28.640904, "lon": 77.2738251}, {"type": "node", "id": 7138534105, "lat": 28.6409241, "lon": 77.2738257}, {"type": "node", "id": 7138534106, "lat": 28.6409237, "lon": 77.2738452}, {"type": "node", "id": 7138534107, "lat": 28.6410891, "lon": 77.2738496}, {"type": "node", "id": 7138534286, "lat": 28.8531221, "lon": 77.1039702, "tags": {"addr:district": "North", "addr:full": "Pocket -V Narela, Sector A-6", "addr:postcode": "110040", "addr:state": "Delhi", "amenity": "clinic", "description": "MCD Center", "health_facility:type": "dispensary", "healthcare": "centre", "name": "MCD Dispensary, Narela", "source": "OpenGovernmentData"}}, {"type": "node", "id": 7138534288, "lat": 28.6016654, "lon": 77.3078775, "tags": {"addr:district": "East", "addr:full": "BLOCK Ext. 30,HIMMATPURI, TRILOKPURI, Opp. Noida Link Road", "addr:postcode": "110091", "addr:state": "Delhi", "amenity": "clinic", "contact:phone": "1122711407", "description": "Dispensaries", "health_facility:type": "dispensary", "healthcare": "centre", "name": "DGD, Himmatpuri", "source": "OpenGovernmentData"}}, {"type": "node", "id": 7138534289, "lat": 28.5207208, "lon": 77.2291137}, {"type": "node", "id": 7138534290, "lat": 28.6308574, "lon": 77.3197627, "tags": {"addr:district": "East", "addr:full": "C-19, Mcd Primary School, Ghazipur", "addr:postcode": "110096", "addr:state": "Delhi", "amenity": "clinic", "description": "Dispensaries", "health_facility:type": "dispensary", "healthcare": "centre", "name": "SPUHC, Ghazipur", "source": "OpenGovernmentData"}}, {"type": "node", "id": 7138534291, "lat": 28.6520034, "lon": 77.1855285, "tags": {"addr:district": "Central", "addr:full": "5439, Arya Samaj Road,Karol Bagh, Dev Nagar", "addr:postcode": "110005", "addr:state": "Delhi", "amenity": "clinic", "contact:phone": "25736101", "name": "NGO Parivar Sewa Clinic", "source": "OpenGovernmentData"}}, {"type": "node", "id": 7138534292, "lat": 28.8014655, "lon": 77.0373234, "tags": {"addr:district": "North", "addr:full": "Asthal Colony, Bawana, Delhi", "addr:postcode": "110039", "addr:state": "Delhi", "amenity": "clinic", "contact:phone": "27754667", "description": "MCD Center", "health_facility:type": "dispensary", "healthcare": "centre", "name": "MCD, Bawana", "source": "OpenGovernmentData"}}, {"type": "node", "id": 7138534293, "lat": 28.497836, "lon": 77.183299, "tags": {"addr:district": "South", "addr:full": "Main Chhatarpur Road, Block A1, Chattarpur", "addr:postcode": "110074", "addr:state": "Delhi", "amenity": "clinic", "contact:phone": "011-268010602", "description": "Dispensaries", "health_facility:type": "dispensary", "healthcare": "centre", "name": "DGD, Chattarpur", "source": "OpenGovernmentData"}}, {"type": "node", "id": 7138534294, "lat": 28.7292215, "lon": 77.2073254, "tags": {"addr:district": "Central", "addr:full": "Jharoda Majra, Burari Gaon", "addr:postcode": "110084", "addr:state": "Delhi", "amenity": "clinic", "contact:phone": "1127617122", "description": "Dispensaries", "health_facility:type": "dispensary", "healthcare": "centre", "name": "Delhi Govt Dispensary, Jharoda Majra", "source": "OpenGovernmentData"}}, {"type": "node", "id": 7138534297, "lat": 28.664396, "lon": 77.212246, "tags": {"addr:district": "Central", "addr:full": "Nawab Ganj, Pulbangash,Tokriwala Mohalla", "addr:postcode": "110006", "addr:state": "Delhi", "amenity": "clinic", "contact:phone": "1123532753", "description": "Dispensaries", "health_facility:type": "dispensary", "healthcare": "centre", "name": "DGD Pulbangash", "source": "OpenGovernmentData"}}, {"type": "node", "id": 7138534298, "lat": 28.6447506, "lon": 77.2351031, "tags": {"addr:district": "Central", "addr:full": "Gali Takhat Wali Suiwalan, Kucha Chelan, Sheesh Mahal, Old Delhi, New Delhi", "addr:postcode": "110006", "addr:state": "Delhi", "amenity": "clinic", "contact:phone": "23243145", "description": "Dispensaries", "health_facility:type": "dispensary", "healthcare": "centre", "name": "DGD, Suiwalan", "source": "OpenGovernmentData"}}, {"type": "node", "id": 7138534299, "lat": 28.6722956, "lon": 77.1675833, "tags": {"addr:district": "North West", "addr:full": "Behind Choti Masjid, inderlok , Delhi", "addr:postcode": "110035", "addr:state": "Delhi", "amenity": "clinic", "contact:phone": "23657807", "description": "Dispensaries", "health_facility:type": "dispensary", "healthcare": "centre", "name": "ESI Dispensary, Inder Lok", "source": "OpenGovernmentData"}}, {"type": "node", "id": 7138534305, "lat": 28.722571, "lon": 77.16974, "tags": {"addr:district": "North", "addr:full": "H Block Jahangirpuri", "addr:postcode": "110033", "addr:state": "Delhi", "amenity": "clinic", "contact:phone": "+91 27633689", "description": "Dispensaries", "health_facility:type": "dispensary", "healthcare": "centre", "name": "Delhi Government Dispensary Jahangirpuri H Block", "source": "OpenGovernmentData"}}, {"type": "node", "id": 7138534306, "lat": 28.7189787, "lon": 77.2787923, "tags": {"addr:district": "North East", "addr:full": "Shiv Vihar Tiraha", "addr:postcode": "110094", "addr:state": "Delhi", "amenity": "clinic", "description": "Dispensaries", "health_facility:type": "dispensary", "healthcare": "centre", "name": "DGD, Shiv Vihar Tiraha", "source": "OpenGovernmentData"}}, {"type": "node", "id": 7138534307, "lat": 28.7726197, "lon": 77.1138378, "tags": {"addr:district": "North", "addr:full": "Khera Kalan", "addr:postcode": "110082", "addr:state": "Delhi", "amenity": "clinic", "contact:phone": "27843924", "description": "Dispensaries", "health_facility:type": "dispensary", "healthcare": "centre", "name": "DGD, Khera Kalan", "source": "OpenGovernmentData"}}, {"type": "node", "id": 7138534308, "lat": 28.853969, "lon": 77.0917018, "tags": {"addr:district": "North", "addr:full": "Village Bhor Garh, Narela", "addr:postcode": "110040", "addr:state": "Delhi", "amenity": "clinic", "contact:phone": "27781004", "description": "Dispensaries", "health_facility:type": "dispensary", "healthcare": "centre", "name": "DGD Bhorgarh", "source": "OpenGovernmentData"}}, {"type": "node", "id": 7138534311, "lat": 28.6006989, "lon": 77.3167956, "tags": {"addr:district": "East", "addr:full": "Pavitra Appartment, Vasundhara Enclave, Near Mamta Public School", "addr:postcode": "110096", "addr:state": "Delhi", "amenity": "clinic", "contact:phone": "1122612490", "description": "Dispensaries", "health_facility:type": "dispensary", "healthcare": "centre", "name": "DGD, Vasundhara Enclave", "source": "OpenGovernmentData"}}, {"type": "node", "id": 7138534313, "lat": 28.710388, "lon": 77.207571, "tags": {"addr:district": "North", "addr:full": "Bhai Parmanand Colony, Near Royal Optical", "addr:postcode": "110009", "addr:state": "Delhi", "amenity": "clinic", "name": "Sai Clinic & Maternity Centre, Bhai Parmanand", "source": "OpenGovernmentData"}}, {"type": "node", "id": 7138534314, "lat": 28.4632963, "lon": 77.1519695, "tags": {"addr:district": "South", "addr:full": "DGD Jonapur MPCC Building, Jonapur Village, New-Delhi.110047", "addr:postcode": "110047", "addr:state": "Delhi", "amenity": "clinic", "contact:phone": "011-26658444", "description": "Dispensaries", "health_facility:type": "dispensary", "healthcare": "centre", "name": "DGD, Jonapur", "source": "OpenGovernmentData"}}, {"type": "node", "id": 7138534319, "lat": 28.534181, "lon": 77.212134, "tags": {"addr:district": "South", "addr:full": "Senior Secondary School, Nil Block, Shri Ram Lane Malviya Nagar, New Delhi", "addr:postcode": "110017", "addr:state": "Delhi", "amenity": "clinic", "contact:phone": "26671494", "description": "Dispensaries", "health_facility:type": "dispensary", "healthcare": "centre", "name": "CGHS, Malviya Nagar", "source": "OpenGovernmentData"}}, {"type": "node", "id": 7138534320, "lat": 28.5199097, "lon": 77.2401984, "tags": {"addr:district": "South", "addr:full": "Main Road, Dakshinpuri, Opp. Kali Building, Dakshinpuri New-Delhi.110062", "addr:postcode": "110062", "addr:state": "Delhi", "amenity": "clinic", "contact:phone": "011-29051383", "description": "Dispensaries", "health_facility:type": "dispensary", "healthcare": "centre", "name": "DGD, Dakshinpuri", "source": "OpenGovernmentData"}}, {"type": "node", "id": 7138534322, "lat": 28.6077373, "lon": 77.3011842, "tags": {"addr:district": "East", "addr:full": "436A, 437A&B, MIG flats, MAYUR VIHAR PHASE-1", "addr:postcode": "110091", "addr:state": "Delhi", "amenity": "clinic", "contact:phone": "011-22752593", "description": "Dispensaries", "health_facility:type": "dispensary", "healthcare": "centre", "name": "DGD Mayur Vihar Phase 1", "source": "OpenGovernmentData"}}, {"type": "node", "id": 7138534324, "lat": 28.6545609, "lon": 77.2255581, "tags": {"addr:district": "Central", "addr:full": "Chandani Chowk, Ballimaran, Gali Kasim Jahan", "addr:postcode": "110006", "addr:state": "Delhi", "amenity": "clinic", "contact:phone": "23971413", "description": "Dispensaries", "health_facility:type": "dispensary", "healthcare": "centre", "name": "Unani Dispensary, Ballimaran", "source": "OpenGovernmentData"}}, {"type": "node", "id": 7138534326, "lat": 28.8105999, "lon": 77.0907913, "tags": {"addr:district": "North", "addr:full": "A-Block, Holambi Kalan, Phase-II", "addr:postcode": "110082", "addr:state": "Delhi", "amenity": "clinic", "contact:phone": "27700432", "description": "Dispensaries", "health_facility:type": "dispensary", "healthcare": "centre", "name": "DGD, Holambi Kalan PH2", "source": "OpenGovernmentData"}}, {"type": "node", "id": 7138534329, "lat": 28.6741392, "lon": 77.180078, "tags": {"addr:district": "Central", "addr:full": "B-1430, Main Shastri Nagar", "addr:postcode": "110052", "addr:state": "Delhi", "amenity": "clinic", "contact:phone": "011-23646786", "description": "<100 Bedded Hospital", "name": "Dr. Munjal Clinic", "source": "OpenGovernmentData"}}, {"type": "node", "id": 7138534330, "lat": 28.6543709, "lon": 77.1835213, "tags": {"addr:district": "Central", "addr:full": "Block No.12, Govt. Quarters, Karol Bagh, New Delhi-5, Opp. Mother Dairy", "addr:postcode": "110005", "addr:state": "Delhi", "amenity": "clinic", "contact:phone": "25860275", "description": "Dispensaries", "health_facility:type": "dispensary", "healthcare": "centre", "name": "CGHS, Dev Nagar", "source": "OpenGovernmentData"}}, {"type": "node", "id": 7138534331, "lat": 28.7062547, "lon": 77.2209462, "tags": {"addr:district": "Central", "addr:full": "16, Lucknow Rd, Timarpur, Delhi", "addr:postcode": "110054", "addr:state": "Delhi", "amenity": "clinic", "contact:phone": "011-23813808", "description": "Dispensaries", "health_facility:type": "dispensary", "healthcare": "centre", "name": "CGHS General Hospital, Timarpur", "source": "OpenGovernmentData"}}, {"type": "node", "id": 7138534332, "lat": 28.5393048, "lon": 77.2078324, "tags": {"addr:district": "South", "addr:full": "Begumpur, Malviya Nagar, New-Delhi.110017, Begumpur, Malviya Nagar", "addr:postcode": "110017", "addr:state": "Delhi", "amenity": "clinic", "contact:phone": "011-266653171", "description": "Dispensaries", "health_facility:type": "dispensary", "healthcare": "centre", "name": "DGD, Begumpur", "source": "OpenGovernmentData"}}, {"type": "node", "id": 7138534333, "lat": 28.704335, "lon": 77.224494, "tags": {"addr:district": "Central", "addr:full": "2nd Floor, Barat Ghar, Majnu Ka Tilla, Civil Line", "addr:postcode": "110054", "addr:state": "Delhi", "amenity": "clinic", "contact:phone": "1123810659", "description": "Dispensaries", "health_facility:type": "dispensary", "healthcare": "centre", "name": "DGD, Majnu Ka Tilla", "source": "OpenGovernmentData"}}, {"type": "node", "id": 7138534334, "lat": 28.6280791, "lon": 77.2879995, "tags": {"addr:district": "East", "addr:full": "DGD Mandawali Fazalpur, NEAR RAILWAY CROSSING", "addr:postcode": "110092", "addr:state": "Delhi", "amenity": "clinic", "contact:phone": "011-22476176", "description": "Dispensaries", "health_facility:type": "dispensary", "healthcare": "centre", "name": "DGD Mandawali Fazalpur", "source": "OpenGovernmentData"}}, {"type": "node", "id": 7138534335, "lat": 28.650165, "lon": 77.21111, "tags": {"addr:district": "Central", "addr:full": "Nabi Karim, Gali No-4, Paharganj, Bagichi Alluadin", "addr:postcode": "110055", "addr:state": "Delhi", "amenity": "clinic", "contact:phone": "011-23622310", "description": "Dispensaries", "health_facility:type": "dispensary", "healthcare": "centre", "name": "DGD, Nabi Karim", "source": "OpenGovernmentData"}}, {"type": "node", "id": 7138534338, "lat": 28.6744414, "lon": 77.1831327, "tags": {"addr:district": "Central", "addr:full": "Shastri Nagar, Beside Bank of India", "addr:postcode": "110052", "addr:state": "Delhi", "amenity": "clinic", "contact:phone": "23653288", "description": "CGHS Center", "health_facility:type": "dispensary", "healthcare": "centre", "name": "CGHS Dispensary, Shastri Nagar", "source": "OpenGovernmentData"}}, {"type": "node", "id": 7138534346, "lat": 28.6197044, "lon": 77.2832632, "tags": {"addr:district": "East", "addr:full": "B 28, Pandav Nagar, Patparganj, Near Gurudwara Pandav Nagar", "addr:postcode": "110092", "addr:state": "Delhi", "amenity": "clinic", "contact:phone": "1122484941", "description": "Dispensaries", "health_facility:type": "dispensary", "healthcare": "centre", "name": "DGD, Pandav Nagar", "source": "OpenGovernmentData"}}, {"type": "node", "id": 7138534348, "lat": 28.6032398, "lon": 77.3033794, "tags": {"addr:district": "East", "addr:full": "Block 34, HIMMATPURI, TRILOKPURI, Sai Mandir Wali Gali", "addr:postcode": "110091", "addr:state": "Delhi", "amenity": "clinic", "contact:phone": "011-22725598", "description": "M&CW Center", "healthcare": "centre", "name": "Dispensary, Himmatpuri", "source": "OpenGovernmentData"}}, {"type": "node", "id": 7138534349, "lat": 28.6915954, "lon": 77.2663286, "tags": {"addr:district": "North East", "addr:full": "DGD Arvind Nagar, Ghonda chowk,Ganwadi Road", "addr:postcode": "110053", "addr:state": "Delhi", "amenity": "clinic", "description": "Dispensaries", "health_facility:type": "dispensary", "healthcare": "centre", "name": "DGD, Arvind Nagar", "source": "OpenGovernmentData"}}, {"type": "node", "id": 7138534350, "lat": 28.644386, "lon": 77.189502, "tags": {"addr:district": "Central", "addr:full": "Sadhu Vasvani Marg, Block 1, WEA, Karol Bagh, New Delhi", "addr:postcode": "110005", "addr:state": "Delhi", "amenity": "clinic", "contact:phone": "28758071", "description": "Dispensaries", "health_facility:type": "dispensary", "healthcare": "centre", "name": "CGHS, Pusa Road", "source": "OpenGovernmentData"}}, {"type": "node", "id": 7138534351, "lat": 28.6463656, "lon": 77.2948251, "tags": {"addr:district": "East", "addr:full": "DGD Jagatpuri, 276, GAGAN VIHAR, Preet Vihar", "addr:postcode": "110051", "addr:state": "Delhi", "amenity": "clinic", "contact:phone": "011-22458500", "description": "Dispensaries", "health_facility:type": "dispensary", "healthcare": "centre", "name": "DGD, Jagatpuri", "source": "OpenGovernmentData"}}, {"type": "node", "id": 7138534355, "lat": 28.691084, "lon": 77.221752, "tags": {"addr:district": "Central", "addr:full": "65, Khyber Pass", "addr:postcode": "110054", "addr:state": "Delhi", "amenity": "clinic", "contact:phone": "1123813340", "description": "M&CW Center", "health_facility:type": "dispensary", "healthcare": "centre", "name": "Dispensary, Khyber Pass", "source": "OpenGovernmentData"}}, {"type": "node", "id": 7138534357, "lat": 28.6703642, "lon": 77.1820196, "tags": {"addr:district": "Central", "addr:full": "ESI Dispesnary Shastri Nagar, Near Shastri Nagar Metro Station", "addr:postcode": "110052", "addr:state": "Delhi", "amenity": "clinic", "contact:phone": "23640492", "description": "Dispensaries", "health_facility:type": "dispensary", "healthcare": "centre", "name": "ESI Dispensary, Shastri Nagar", "source": "OpenGovernmentData"}}, {"type": "node", "id": 7138534359, "lat": 28.5171485, "lon": 77.2347363, "tags": {"addr:district": "South", "addr:full": "Block J-2, JJ Colony, Madangir , Phase-II, New- Delhi.110062.", "addr:postcode": "110062", "addr:state": "Delhi", "amenity": "clinic", "contact:phone": "011-29961371", "description": "Dispensaries", "health_facility:type": "dispensary", "healthcare": "centre", "name": "Government hospital, Madangir", "source": "OpenGovernmentData"}}, {"type": "node", "id": 7138534360, "lat": 28.6357855, "lon": 77.1841395, "tags": {"addr:district": "Central", "addr:full": "Near Punjab National Bank, Shankar Road, New Rajender Nagar, Delhi", "addr:postcode": "110060", "addr:state": "Delhi", "amenity": "clinic", "contact:phone": "011 2874 2850", "description": "Dispensaries", "health_facility:type": "dispensary", "healthcare": "centre", "name": "CGHS, New Rajinder Nagar", "source": "OpenGovernmentData"}}, {"type": "node", "id": 7138534361, "lat": 28.7040847, "lon": 77.1932079, "tags": {"addr:district": "North", "addr:full": "Model Town, Part-l", "addr:postcode": "110009", "addr:state": "Delhi", "amenity": "clinic", "contact:phone": "27248806", "description": "Dispensaries", "health_facility:type": "dispensary", "healthcare": "centre", "name": "DGD, Model Town", "source": "OpenGovernmentData"}}, {"type": "node", "id": 7138534362, "lat": 28.6427947, "lon": 77.2098113, "tags": {"addr:district": "Central", "addr:full": "ESI Dispensary Chuna Mandi, gali No.-10, Pahargaj, New Delhi", "addr:postcode": "110055", "addr:state": "Delhi", "amenity": "clinic", "contact:phone": "23580679", "description": "Dispensaries", "health_facility:type": "dispensary", "healthcare": "centre", "name": "ESI Dispensary, Chuna Mandi Paharganj", "source": "OpenGovernmentData"}}, {"type": "node", "id": 7138534369, "lat": 28.670343, "lon": 77.170329, "tags": {"addr:district": "North West", "addr:full": "Vardhaman Nagar, Daya Basti Village, Delhi", "addr:postcode": "110035", "addr:state": "Delhi", "amenity": "clinic", "contact:phone": "2.31E+15", "description": "Dispensaries", "health_facility:type": "dispensary", "healthcare": "centre", "name": "DGD, Shahjada Bagh", "source": "OpenGovernmentData"}}, {"type": "node", "id": 7138534370, "lat": 28.6872905, "lon": 77.1986095}, {"type": "node", "id": 7138534371, "lat": 28.665984, "lon": 77.195321, "tags": {"addr:district": "Central", "addr:full": "Chandershekher Azad Colony, Sarai Rohilla, Delhi", "addr:postcode": "110007", "addr:state": "Delhi", "amenity": "clinic", "contact:phone": "23692478", "description": "Dispensaries", "health_facility:type": "dispensary", "healthcare": "centre", "name": "DGD, Sarai Rohilla", "source": "OpenGovernmentData"}}, {"type": "node", "id": 7138534377, "lat": 28.6326476, "lon": 77.308463, "tags": {"addr:district": "East", "addr:full": "DGD I.P. Extn., SUBHASH APPT, I.P. Extention Patparganj", "addr:postcode": "110091", "addr:state": "Delhi", "amenity": "clinic", "contact:phone": "+91 11 2223 4321", "description": "Dispensaries", "health_facility:type": "dispensary", "healthcare": "centre", "name": "Aam Aadmi Polyclinic", "source": "OpenGovernmentData"}}, {"type": "node", "id": 7138534378, "lat": 28.6486581, "lon": 77.1860862, "tags": {"addr:district": "Central", "addr:full": "100 Quarters, Jagjeewan Niwas, Community Center, Karol Bagh", "addr:postcode": "110005", "addr:state": "Delhi", "amenity": "clinic", "contact:phone": "011-25860557", "description": "Dispensaries", "health_facility:type": "dispensary", "healthcare": "centre", "name": "DGD, RegarPura", "source": "OpenGovernmentData"}}, {"type": "node", "id": 7138534380, "lat": 28.7691385, "lon": 77.1782219, "tags": {"addr:district": "Central", "addr:full": "Village Nathupura, Burari Village", "addr:postcode": "110084", "addr:state": "Delhi", "amenity": "clinic", "contact:phone": "1127731296", "description": "Dispensaries", "health_facility:type": "dispensary", "healthcare": "centre", "name": "Government Dispensary, Nathpura", "source": "OpenGovernmentData"}}, {"type": "node", "id": 7138534383, "lat": 28.6410916, "lon": 77.2737249}, {"type": "node", "id": 7138534390, "lat": 28.675788, "lon": 77.2597307, "tags": {"addr:district": "North East", "addr:full": "Shastri Park, New Seelampur", "addr:postcode": "110053", "addr:state": "Delhi", "amenity": "clinic", "contact:phone": "22561798", "description": "MCD Center", "health_facility:type": "dispensary", "healthcare": "centre", "name": "MCD, Shastri Park", "source": "OpenGovernmentData"}}, {"type": "node", "id": 7138534391, "lat": 28.7015092, "lon": 77.267414, "tags": {"addr:district": "North East", "addr:full": "73-A, C-4, Yamuna Vihar, Near Bank Of Maharashtra", "addr:postcode": "110053", "addr:state": "Delhi", "amenity": "clinic", "contact:phone": "22565516", "description": "Dispensaries", "health_facility:type": "dispensary", "healthcare": "centre", "name": "CGHS Yamuna Vihar", "source": "OpenGovernmentData"}}, {"type": "node", "id": 7138534396, "lat": 28.642259, "lon": 77.2084424, "tags": {"addr:district": "Central", "addr:full": "Aram Bagh, Behind Paharganj Police station, Pahargaj", "addr:postcode": "110055", "addr:state": "Delhi", "amenity": "clinic", "contact:phone": "23676019", "description": "Dispensaries", "health_facility:type": "dispensary", "healthcare": "centre", "name": "CGHS Dispensary, C.G. Road", "source": "OpenGovernmentData"}}, {"type": "node", "id": 7138534397, "lat": 28.5489027, "lon": 77.1828681, "tags": {"addr:district": "South", "addr:full": "DGD Ber Sarai Opp Main Gate, JNU (Old Complex),New-Delhi.110016", "addr:postcode": "110016", "addr:state": "Delhi", "amenity": "clinic", "description": "Dispensaries", "health_facility:type": "dispensary", "healthcare": "centre", "name": "DGD, Bersarai", "source": "OpenGovernmentData"}}, {"type": "node", "id": 7138534398, "lat": 28.7926169, "lon": 77.1638103, "tags": {"addr:district": "North", "addr:full": "Village Mukhmailpur", "addr:postcode": "110036", "addr:state": "Delhi", "amenity": "clinic", "contact:phone": "27207443", "description": "Dispensaries", "health_facility:type": "dispensary", "healthcare": "centre", "name": "DGD, Mukhmail Pur", "source": "OpenGovernmentData"}}, {"type": "node", "id": 7138534399, "lat": 28.660396, "lon": 77.18014, "tags": {"addr:district": "Central", "addr:full": "Gali No.16, Karol Bagh, Nai Basti, Anand Parvat", "addr:postcode": "110005", "addr:state": "Delhi", "amenity": "clinic", "contact:phone": "28764106", "description": "Dispensaries", "health_facility:type": "dispensary", "healthcare": "centre", "name": "DGD, Anand Parbat", "source": "OpenGovernmentData"}}, {"type": "node", "id": 7138534400, "lat": 28.5232645, "lon": 77.2083793, "tags": {"addr:district": "South", "addr:full": "Delhi Government Dispensary Building, PVR Complex Saket", "addr:postcode": "110017", "addr:state": "Delhi", "amenity": "clinic", "description": "Dispensaries", "health_facility:type": "dispensary", "healthcare": "centre", "name": "Delhi Government Dispensary, PVR Complex Saket", "source": "OpenGovernmentData"}}, {"type": "node", "id": 7138534403, "lat": 28.833565, "lon": 77.0080259, "tags": {"addr:city": "Harewali, Delhi", "addr:district": "North Delhi", "addr:full": "Village Harewali", "addr:postcode": "110039", "addr:state": "Delhi", "addr:street": "Dispensary Road", "amenity": "clinic", "contact:phone": "27752950", "description": "Dispensaries", "health_facility:type": "dispensary", "healthcare": "centre", "name": "Delhi Govt. Dispensary (Harewali, Delhi)", "name:hi": "\u0926\u093f\u0932\u094d\u0932\u0940 \u0938\u0930\u0915\u093e\u0930 \u0914\u0937\u0927\u093e\u0932\u092f (\u0939\u0930\u0947\u0935\u0932\u0940, \u0926\u093f\u0932\u094d\u0932\u0940)", "opening_hours": "Mo-Sa 08:00-14:00", "source": "OpenGovernmentData"}}, {"type": "node", "id": 7138534404, "lat": 28.7284729, "lon": 77.1691625, "tags": {"addr:district": "North", "addr:full": "DGD B-Block, Jahangir Puri", "addr:postcode": "110033", "addr:state": "Delhi", "amenity": "clinic", "contact:phone": "27633689", "description": "Dispensaries", "health_facility:type": "dispensary", "healthcare": "centre", "name": "DGD, Jahangirpuri B Block", "source": "OpenGovernmentData"}}, {"type": "node", "id": 7138534409, "lat": 28.6722316, "lon": 77.2721467, "tags": {"addr:district": "Shahdara", "addr:full": "H. No. 337, Welcome Seelampur- ii", "addr:postcode": "110053", "addr:state": "Delhi", "amenity": "clinic", "contact:phone": "22826102", "description": "Dispensaries", "health_facility:type": "dispensary", "healthcare": "centre", "name": "DGD, Seelampur", "source": "OpenGovernmentData"}}, {"type": "node", "id": 7138534410, "lat": 28.736602, "lon": 77.183401, "tags": {"addr:district": "Central", "addr:full": "Block A, Manav Kunj, Mukundpur", "addr:postcode": "110042", "addr:state": "Delhi", "amenity": "clinic", "description": "Dispensaries", "health_facility:type": "dispensary", "healthcare": "centre", "name": "DGD Mukundpur", "source": "OpenGovernmentData"}}, {"type": "node", "id": 7138534415, "lat": 28.6121398, "lon": 77.3114035, "tags": {"addr:district": "East", "addr:full": "Block -5, Trilokpuri, Mayur Vihar, Near Chand Cinema", "addr:postcode": "110091", "addr:state": "Delhi", "amenity": "clinic", "contact:phone": "1122782815", "description": "Dispensaries", "health_facility:type": "dispensary", "healthcare": "centre", "name": "DGD Trilokpuri", "source": "OpenGovernmentData"}}, {"type": "node", "id": 7138534418, "lat": 28.5396605, "lon": 77.2288172, "tags": {"addr:district": "South", "addr:full": "H. No.828, Chirag Delhi.Delhi.110017, H. No.828, Chirag", "addr:postcode": "110017", "addr:state": "Delhi", "amenity": "clinic", "contact:phone": "011-29913539", "description": "Dispensaries", "health_facility:type": "dispensary", "healthcare": "centre", "name": "DGD, Chirag Delhi", "source": "OpenGovernmentData"}}, {"type": "node", "id": 7138534419, "lat": 28.6516214, "lon": 77.1139354, "tags": {"addr:district": "West", "addr:full": "Shivaji Market, Block C, Raghubir Nagar, Tagore Garden", "addr:postcode": "1100027", "addr:state": "Delhi", "amenity": "clinic", "contact:phone": "011-23654536", "description": "Dispensaries", "health_facility:type": "dispensary", "healthcare": "centre", "name": "Delhi Government Dispensary, Gulabi Bagh", "source": "OpenGovernmentData"}}, {"type": "node", "id": 7138534420, "lat": 28.6443152, "lon": 77.2717709}, {"type": "node", "id": 7138534421, "lat": 28.616698, "lon": 77.318866, "tags": {"addr:district": "East", "addr:full": "Resettlement Colony, Khichripur, Delhi", "addr:postcode": "110091", "addr:state": "Delhi", "amenity": "clinic", "contact:phone": "011-22771350", "description": "Dispensaries", "health_facility:type": "dispensary", "healthcare": "centre", "name": "DGD, Kalyanpuri", "source": "OpenGovernmentData"}}, {"type": "node", "id": 7138534422, "lat": 28.677518, "lon": 77.196397, "tags": {"addr:district": "Central", "addr:full": "Behind Birla Mills, Shakti Nagar, Near 15/4 Block, Near Nagia Park", "addr:postcode": "110007", "addr:state": "Delhi", "amenity": "clinic", "contact:phone": "1123845932", "description": "Dispensaries", "health_facility:type": "dispensary", "healthcare": "centre", "name": "ESI Subji Mandi", "source": "OpenGovernmentData"}}, {"type": "node", "id": 7138534423, "lat": 28.7537369, "lon": 77.1509805, "tags": {"addr:district": "North", "addr:full": "A 167, Gali Number 1, Swaroop Nagar", "addr:postcode": "110042", "addr:state": "Delhi", "amenity": "clinic", "contact:phone": "27812075", "description": "Dispensaries", "health_facility:type": "dispensary", "healthcare": "centre", "name": "DGD, Swaroop Nagar", "source": "OpenGovernmentData"}}, {"type": "node", "id": 7138534424, "lat": 28.8258129, "lon": 77.1728911, "tags": {"addr:district": "North", "addr:full": "GARHI BAKHTAWAR PUR", "addr:postcode": "110036", "addr:state": "Delhi", "amenity": "clinic", "contact:phone": "27721574", "description": "Maternity Home", "name": "Malik Maternity & Fertility Clinic, Bakhtawar Pur", "source": "OpenGovernmentData"}}, {"type": "node", "id": 7138534426, "lat": 28.7320073, "lon": 77.2481906, "tags": {"addr:district": "North East", "addr:full": "E-1/953, Gali No. 25, Sonia Vihar 4.5 Pusta,Near Sai Mandir", "addr:postcode": "110094", "addr:state": "Delhi", "amenity": "clinic", "description": "Dispensaries", "health_facility:type": "dispensary", "healthcare": "centre", "name": "SPUHC, Sonia Vihar 4.5 pusta", "source": "OpenGovernmentData"}}, {"type": "node", "id": 7138534427, "lat": 28.611742, "lon": 77.293681, "tags": {"addr:district": "East", "addr:full": "Gali no. 10, Bismil camp Shashi Garden, Mayur Vihar Phase - I", "addr:postcode": "110091", "addr:state": "Delhi", "amenity": "clinic", "contact:phone": "011-22894013", "description": "Dispensaries", "health_facility:type": "dispensary", "healthcare": "centre", "name": "DGD, Shashi Garden", "source": "OpenGovernmentData"}}, {"type": "node", "id": 7138534429, "lat": 28.672408, "lon": 77.16764, "tags": {"addr:district": "North West", "addr:full": "35, Vir Banda Bairagi Marg, Inderlok, Delhi", "addr:postcode": "110035", "addr:state": "Delhi", "amenity": "clinic", "contact:phone": "23128610", "description": "Dispensaries", "health_facility:type": "dispensary", "healthcare": "centre", "name": "DGD, Inderlok", "source": "OpenGovernmentData"}}, {"type": "node", "id": 7138534430, "lat": 28.6696495, "lon": 77.1947256, "tags": {"addr:district": "Central", "addr:full": "Balwant Rai Bansal Marg, Partap Nagar, Gulabi Bagh, New Delhi", "addr:postcode": "110007", "addr:state": "Delhi", "amenity": "clinic", "contact:phone": "23645054", "description": "Dispensaries", "health_facility:type": "dispensary", "healthcare": "centre", "name": "Dispensary, Gulabi Bagh", "source": "OpenGovernmentData"}}, {"type": "node", "id": 7138534431, "lat": 28.5145148, "lon": 77.2258444, "tags": {"addr:district": "South", "addr:full": "DGD Khanpur JJ Colony, New-Delhi.110062, Khanpur Jj Colony, DGD Khanpur JJ Colony", "addr:postcode": "110062", "addr:state": "Delhi", "amenity": "clinic", "contact:phone": "011-29966626", "description": "Dispensaries", "health_facility:type": "dispensary", "healthcare": "centre", "name": "DGD, Khanpur", "source": "OpenGovernmentData"}}, {"type": "node", "id": 7138534432, "lat": 28.732288, "lon": 77.2216036, "tags": {"addr:district": "Central", "addr:full": "H.No.2, Village Jagatpur, Wazirabad, hasra No. 309, Jagatpur Extension", "addr:postcode": "110084", "addr:state": "Delhi", "amenity": "clinic", "description": "Dispensaries", "health_facility:type": "dispensary", "healthcare": "centre", "name": "SPUHC Jagatpur", "source": "OpenGovernmentData"}}, {"type": "node", "id": 7138534433, "lat": 28.700607, "lon": 77.2698737, "tags": {"addr:district": "North East", "addr:full": "Block-B, Opposite B-2 Mkt, Yamuna Vihar, Near Mother Diary", "addr:postcode": "110053", "addr:state": "Delhi", "amenity": "clinic", "contact:phone": "22911996", "description": "Dispensaries", "health_facility:type": "dispensary", "healthcare": "centre", "name": "DGD, Yamuna Vihar", "source": "OpenGovernmentData"}}, {"type": "node", "id": 7138534436, "lat": 28.817329, "lon": 77.0144289, "tags": {"addr:district": "North", "addr:full": "Village Daryapur Kalan, Main Bus Stand", "addr:postcode": "110039", "addr:state": "Delhi", "amenity": "clinic", "contact:phone": "27751202", "description": "Dispensaries", "health_facility:type": "dispensary", "healthcare": "centre", "name": "DGD, Dariyapur Kalan", "source": "OpenGovernmentData"}}, {"type": "node", "id": 7138534438, "lat": 28.5067947, "lon": 77.2291106, "tags": {"addr:district": "South", "addr:full": "B-85, Jawarhar Park, Devli Road, Khanpur", "addr:postcode": "110062", "addr:state": "Delhi", "amenity": "clinic", "contact:phone": "011-29913539", "description": "Dispensaries", "health_facility:type": "dispensary", "healthcare": "centre", "name": "SPUHC, Jawahar park", "source": "OpenGovernmentData"}}, {"type": "node", "id": 7138534439, "lat": 28.7108662, "lon": 77.2582655, "tags": {"addr:district": "North East", "addr:full": "Village Khajuri Khas,Near Sarvodya Vidyalya, Block A, Rajiv Nagar", "addr:postcode": "110094", "addr:state": "Delhi", "amenity": "clinic", "contact:phone": "22966493", "description": "Dispensaries", "health_facility:type": "dispensary", "healthcare": "centre", "name": "DGD, Khajuri Khas", "source": "OpenGovernmentData"}}, {"type": "node", "id": 7138631690, "lat": 28.6801496, "lon": 77.3131915}, {"type": "node", "id": 7138631691, "lat": 28.6803002, "lon": 77.313464}, {"type": "node", "id": 7138631692, "lat": 28.6804253, "lon": 77.3133741}, {"type": "node", "id": 7138631693, "lat": 28.6802747, "lon": 77.3131016}, {"type": "node", "id": 7138631803, "lat": 28.5308944, "lon": 77.2575524}, {"type": "node", "id": 7138631804, "lat": 28.5308633, "lon": 77.257679}, {"type": "node", "id": 7138631805, "lat": 28.5309542, "lon": 77.2577079}, {"type": "node", "id": 7138631882, "lat": 28.6899183, "lon": 77.2900313}, {"type": "node", "id": 7138631883, "lat": 28.6899188, "lon": 77.2900908}, {"type": "node", "id": 7138631884, "lat": 28.6899967, "lon": 77.2900896}, {"type": "node", "id": 7138631982, "lat": 28.684139, "lon": 77.2828952}, {"type": "node", "id": 7138631983, "lat": 28.6842272, "lon": 77.2830227}, {"type": "node", "id": 7138631984, "lat": 28.6842896, "lon": 77.2829667}, {"type": "node", "id": 7138631985, "lat": 28.6842013, "lon": 77.2828391}, {"type": "node", "id": 7138632078, "lat": 28.6888186, "lon": 77.2799695}, {"type": "node", "id": 7138632079, "lat": 28.6887392, "lon": 77.2799419}, {"type": "node", "id": 7138632080, "lat": 28.6887371, "lon": 77.2800803}, {"type": "node", "id": 7138632081, "lat": 28.6888168, "lon": 77.2800819}, {"type": "node", "id": 7138632083, "lat": 28.688868, "lon": 77.2799705}, {"type": "node", "id": 7138632084, "lat": 28.6888695, "lon": 77.2798783}, {"type": "node", "id": 7138632122, "lat": 28.7160809, "lon": 76.9590373, "tags": {"addr:district": "North West", "addr:full": "DGD Building, Nizampur Rashidpur Village", "addr:postcode": "110081", "addr:state": "Delhi", "amenity": "clinic", "contact:phone": "25952916", "description": "Dispensaries", "health_facility:type": "dispensary", "healthcare": "centre", "name": "DGD Nizampur", "source": "OpenGovernmentData"}}, {"type": "node", "id": 7138632126, "lat": 28.4962232, "lon": 77.3100357, "tags": {"addr:district": "South East", "addr:full": "MPCC Building, Tajpur Phari Village, Badarpur", "addr:postcode": "110044", "addr:state": "Delhi", "amenity": "clinic", "contact:phone": "011-24358461", "description": "Dispensaries", "health_facility:type": "dispensary", "healthcare": "centre", "name": "DGD Tajpur", "source": "OpenGovernmentData"}}, {"type": "node", "id": 7138632127, "lat": 28.6636226, "lon": 77.3184333, "tags": {"addr:district": "Shahdara", "addr:full": "D-12 A, Chander Nagar, Vivek Vihar", "addr:postcode": "110092", "addr:state": "Delhi", "amenity": "clinic", "contact:phone": "22143551", "description": "Dispensaries", "health_facility:type": "dispensary", "healthcare": "centre", "name": "CGHS Dispensary Vivek Vihar", "source": "OpenGovernmentData"}}, {"type": "node", "id": 7138632130, "lat": 28.6683992, "lon": 77.2773021, "tags": {"addr:district": "Shahdara", "addr:full": "286/5, West Kanti Nagar", "addr:state": "Delhi", "amenity": "clinic", "description": "Dispensaries", "health_facility:type": "dispensary", "healthcare": "centre", "name": "DGD Kanti Nagar", "source": "OpenGovernmentData"}}, {"type": "node", "id": 7138632135, "lat": 28.539479, "lon": 77.25939, "tags": {"addr:district": "South East", "addr:full": "1st floor, PSMS HOSPITAL,DD BLOCK, KALKAJI", "addr:postcode": "110019", "addr:state": "Delhi", "amenity": "clinic", "contact:phone": "011-26281884", "description": "CGHS Center", "health_facility:type": "dispensary", "healthcare": "centre", "name": "CGHS Dispensary Kalkaji", "source": "OpenGovernmentData"}}, {"type": "node", "id": 7138632140, "lat": 28.7037242, "lon": 77.1025419, "tags": {"addr:district": "North West", "addr:full": "G-26 Block, Sector-03, Rohini", "addr:postcode": "110085", "addr:state": "Delhi", "amenity": "clinic", "contact:phone": "27510385", "description": "Maternity Home", "health_facility:type": "dispensary", "healthcare": "centre", "name": "Delhi Government Dispensary, Rohini, Sec 3", "source": "OpenGovernmentData"}}, {"type": "node", "id": 7138632141, "lat": 28.5662662, "lon": 77.2881643, "tags": {"addr:district": "South East", "addr:full": "DGD Batla House, Jamia Milia Islamiya University, Batla House, Batla House", "addr:postcode": "110025", "addr:state": "Delhi", "amenity": "clinic", "contact:phone": "26985691", "description": "Dispensaries", "health_facility:type": "dispensary", "healthcare": "centre", "name": "DGD Batla House", "source": "OpenGovernmentData"}}, {"type": "node", "id": 7138632144, "lat": 28.5718287, "lon": 77.2527073, "tags": {"addr:district": "South East", "addr:full": "block no. 10 Nehru Nagar", "addr:postcode": "110065", "addr:state": "Delhi", "amenity": "clinic", "description": "MCD Center", "health_facility:type": "dispensary", "healthcare": "centre", "name": "MCD Nehru Nagar", "source": "OpenGovernmentData"}}, {"type": "node", "id": 7138632147, "lat": 28.588109, "lon": 77.255874, "tags": {"addr:district": "South East", "addr:full": "100 D/25, DDA Flats, Block B, Sarai Kale Khan, Nizamuddin East", "addr:postcode": "110013", "addr:state": "Delhi", "amenity": "clinic", "description": "Dispensaries", "health_facility:type": "dispensary", "healthcare": "centre", "name": "Urban UPC Dispensary", "source": "OpenGovernmentData"}}, {"type": "node", "id": 7138632148, "lat": 28.7118509, "lon": 77.1322807, "tags": {"addr:district": "North", "addr:full": "C-Block, Sector-14, Rohini, Near Aggarwal Dharamshala", "addr:postcode": "110085", "addr:state": "Delhi", "addr:street": "Sakand Mata Road, Prashant Vihar", "amenity": "clinic", "contact:phone": "27562092", "description": "Dispensaries", "health_facility:type": "dispensary", "healthcare": "centre", "name": "Delhi Government Dispensary", "source": "OpenGovernmentData"}}, {"type": "node", "id": 7138632151, "lat": 28.6798398, "lon": 77.1719218, "tags": {"addr:district": "North West", "addr:full": "K-Block, Wazirpur JJ Colony", "addr:postcode": "110052", "addr:state": "Delhi", "amenity": "clinic", "contact:phone": "27306145", "description": "Dispensaries", "health_facility:type": "dispensary", "healthcare": "centre", "name": "DGD Wazirpur JJ Colony", "source": "OpenGovernmentData"}}, {"type": "node", "id": 7138632158, "lat": 28.770039, "lon": 76.9978885, "tags": {"addr:district": "North West", "addr:full": "Village Majra, Salahpur Maira", "addr:postcode": "110081", "addr:state": "Delhi", "amenity": "clinic", "contact:phone": "27755536", "description": "Dispensaries", "health_facility:type": "dispensary", "healthcare": "centre", "name": "DGD Majra Dabas", "source": "OpenGovernmentData"}}, {"type": "node", "id": 7138632160, "lat": 28.6928604, "lon": 77.1811672, "tags": {"addr:district": "North West", "addr:full": "Ph-III, Sawan Park, Ashok Vihar, Near Post Office", "addr:postcode": "110052", "addr:state": "Delhi", "amenity": "clinic", "contact:phone": "27117026", "description": "Dispensaries", "health_facility:type": "dispensary", "healthcare": "centre", "name": "DGD, PH3", "source": "OpenGovernmentData"}}, {"type": "node", "id": 7138632161, "lat": 28.5078792, "lon": 77.2439343, "tags": {"addr:district": "South", "addr:full": "D-5/7, Sangam Vihar", "addr:state": "Delhi", "amenity": "clinic", "contact:phone": "011-26043716", "health_facility:type": "dispensary", "healthcare": "centre", "name": "DGD Sangam Vihar D Block", "source": "OpenGovernmentData"}}, {"type": "node", "id": 7138632163, "lat": 28.6946887, "lon": 77.1891716, "tags": {"addr:district": "North", "addr:full": "A-7, Gujranwala Town", "addr:postcode": "110009", "addr:state": "Delhi", "amenity": "clinic", "contact:phone": "27465435", "name": "Northex Stone Clinic", "source": "OpenGovernmentData"}}, {"type": "node", "id": 7138632169, "lat": 28.6998341, "lon": 77.1633685, "tags": {"addr:district": "North West", "addr:full": "Wazirpur Industrial Area, Near Krish Automobiles", "addr:postcode": "110052", "addr:state": "Delhi", "amenity": "clinic", "contact:phone": "27373814", "description": "Dispensaries", "health_facility:type": "dispensary", "healthcare": "centre", "name": "ESI Dispensary, Wazirpur Industrial Area", "source": "OpenGovernmentData"}}, {"type": "node", "id": 7138632170, "lat": 28.5501786, "lon": 77.3005219, "tags": {"addr:district": "South East", "addr:full": "A-27, Thokar no. 6, Shaheen Bagh, Abul fazal-II, Gali no. 4, Behind Ek Minara Masjid", "addr:postcode": "110025", "addr:state": "Delhi", "amenity": "clinic", "description": "Dispensaries", "health_facility:type": "dispensary", "healthcare": "centre", "name": "SPUHC Abul Fazal", "source": "OpenGovernmentData"}}, {"type": "node", "id": 7138632172, "lat": 28.7033698, "lon": 77.0419467, "tags": {"addr:district": "North West", "addr:full": "Seed PUHC Prem Nagar 3, B-41, Agar Nagar", "addr:postcode": "110081", "addr:state": "Delhi", "amenity": "clinic", "description": "Dispensaries", "health_facility:type": "dispensary", "healthcare": "centre", "name": "SPUHC Prem Nagar 3", "source": "OpenGovernmentData"}}, {"type": "node", "id": 7138632175, "lat": 28.7044629, "lon": 77.1355978, "tags": {"addr:district": "North West", "addr:full": "CD-Block, Vishaka Enclave, Pitampura", "addr:postcode": "110034", "addr:state": "Delhi", "amenity": "clinic", "contact:phone": "27324895", "description": "Dispensaries", "health_facility:type": "dispensary", "healthcare": "centre", "name": "DGD Pitampura", "source": "OpenGovernmentData"}}, {"type": "node", "id": 7138632177, "lat": 28.6887403, "lon": 77.2798757}, {"type": "node", "id": 7138632186, "lat": 28.6878228, "lon": 77.1615413, "tags": {"addr:district": "North West", "addr:full": "B-4, Keshavpuram, Near Tyagi Public School", "addr:postcode": "110035", "addr:state": "Delhi", "amenity": "clinic", "contact:phone": "27192215", "description": "Dispensaries", "health_facility:type": "dispensary", "healthcare": "centre", "name": "DGD Keshav Puram B4", "source": "OpenGovernmentData"}}, {"type": "node", "id": 7138632187, "lat": 28.7197739, "lon": 77.1285437, "tags": {"addr:district": "North", "addr:full": "Sector-13, Behind Bhagwati Hospital, Rohini", "addr:postcode": "110085", "addr:state": "Delhi", "amenity": "clinic", "contact:phone": "27867278", "description": "Dispensaries", "health_facility:type": "dispensary", "healthcare": "centre", "name": "DGD Rohini Sector13", "source": "OpenGovernmentData"}}, {"type": "node", "id": 7138632188, "lat": 28.6892803, "lon": 77.1676275, "tags": {"addr:district": "North West", "addr:full": "H-Block, Phase-1, Ashok Vihar, Near Mont Fort School", "addr:postcode": "110035", "addr:state": "Delhi", "amenity": "clinic", "contact:phone": "27224165", "description": "Dispensaries", "health_facility:type": "dispensary", "healthcare": "centre", "name": "DGD Ashok Vihar H Block", "source": "OpenGovernmentData"}}, {"type": "node", "id": 7138632191, "lat": 28.7521324, "lon": 76.9712762, "tags": {"addr:district": "North West", "addr:full": "DGD Building, Jaunti Village", "addr:postcode": "110081", "addr:state": "Delhi", "amenity": "clinic", "contact:phone": "25951922", "description": "Dispensaries", "health_facility:type": "dispensary", "healthcare": "centre", "name": "DGD Jaunti", "source": "OpenGovernmentData"}}, {"type": "node", "id": 7138632193, "lat": 28.5028873, "lon": 77.2527568, "tags": {"addr:district": "South East", "addr:full": "H-161/413, Sangam Vihar", "addr:postcode": "110044", "addr:state": "Delhi", "amenity": "clinic", "contact:phone": "011-26045659", "description": "Dispensaries", "health_facility:type": "dispensary", "healthcare": "centre", "name": "SPUHC Sangam Vihar H Block", "source": "OpenGovernmentData"}}, {"type": "node", "id": 7138632195, "lat": 28.6946654, "lon": 77.0639763, "tags": {"addr:district": "North West", "addr:full": "Sultanpuri, Kirari", "addr:postcode": "110086", "addr:state": "Delhi", "amenity": "clinic", "contact:phone": "25967788", "description": "Dispensaries", "health_facility:type": "dispensary", "healthcare": "centre", "name": "DGD Kirari", "source": "OpenGovernmentData"}}, {"type": "node", "id": 7138632197, "lat": 28.6716803, "lon": 77.2942542, "tags": {"addr:district": "Shahdara", "addr:full": "Community Centre, Near Ramlila Maidan, Mukesh Nagar", "addr:postcode": "110032", "addr:state": "Delhi", "amenity": "clinic", "contact:phone": "01122302081", "description": "Dispensaries", "health_facility:type": "dispensary", "healthcare": "centre", "name": "DGD Mukesh Nagar", "source": "OpenGovernmentData"}}, {"type": "node", "id": 7138632198, "lat": 28.6972083, "lon": 77.1267268, "tags": {"addr:district": "North West", "addr:full": "C-Block, Guru Sandeepan Marg, Near Sbi Bank, Saraswati Vihar", "addr:postcode": "110034", "addr:state": "Delhi", "amenity": "clinic", "contact:phone": "27023849", "description": "Dispensaries", "health_facility:type": "dispensary", "healthcare": "centre", "name": "Aam aadmi polyclinic, Saraswati Vihar", "source": "OpenGovernmentData"}}, {"type": "node", "id": 7138632201, "lat": 28.6996241, "lon": 77.1002822, "tags": {"addr:district": "North West", "addr:full": "Delhi Govt Dispensary, Plot No.2, Sector-02, Rohini", "addr:postcode": "110085", "addr:state": "Delhi", "amenity": "clinic", "contact:phone": "27515024", "description": "Dispensaries", "health_facility:type": "dispensary", "healthcare": "centre", "name": "Aam Aadmi Polyclinic, Rohini Sector2", "source": "OpenGovernmentData"}}, {"type": "node", "id": 7138632204, "lat": 28.5643002, "lon": 77.260592, "tags": {"addr:district": "South East", "addr:full": "Sriniwas puri", "addr:postcode": "110065", "addr:state": "Delhi", "amenity": "clinic", "contact:phone": "26839565", "description": "Dispensaries", "health_facility:type": "dispensary", "healthcare": "centre", "name": "DGD Sri Niwas Puri", "source": "OpenGovernmentData"}}, {"type": "node", "id": 7138632212, "lat": 28.713808, "lon": 77.002903, "tags": {"addr:district": "North West", "addr:full": "Kanjhawla Village", "addr:postcode": "110081", "addr:state": "Delhi", "amenity": "clinic", "contact:phone": "25951550", "description": "MCD Center", "health_facility:type": "dispensary", "healthcare": "centre", "name": "MCD Kanjhawala", "source": "OpenGovernmentData"}}, {"type": "node", "id": 7138632213, "lat": 28.6706106, "lon": 77.1512535, "tags": {"addr:district": "North West", "addr:full": "House No.144 A, Madan Park, Jaidev Park", "addr:postcode": "110026", "addr:state": "Delhi", "amenity": "clinic", "contact:phone": "28313111", "description": "Dispensaries", "health_facility:type": "dispensary", "healthcare": "centre", "name": "DGD Jaidev Park", "source": "OpenGovernmentData"}}, {"type": "node", "id": 7138632214, "lat": 28.6818254, "lon": 77.1740682, "tags": {"addr:district": "North West", "addr:full": "Block E, Nimri Colony, Ashok Vihar", "addr:postcode": "110052", "addr:state": "Delhi", "amenity": "clinic", "contact:phone": "27306112", "description": "MCD Center", "health_facility:type": "dispensary", "healthcare": "centre", "name": "MCD Dispensary, Bharat Nagar", "source": "OpenGovernmentData"}}, {"type": "node", "id": 7138632215, "lat": 28.7144666, "lon": 77.0274483, "tags": {"addr:district": "North West", "addr:full": "Madanpur Dabas Village P.O. Ranikhera", "addr:postcode": "110081", "addr:state": "Delhi", "amenity": "clinic", "contact:phone": "25951099", "description": "Dispensaries", "health_facility:type": "dispensary", "healthcare": "centre", "name": "DGD Madanpur Dabas", "source": "OpenGovernmentData"}}, {"type": "node", "id": 7138632219, "lat": 28.6905476, "lon": 77.1577748, "tags": {"addr:district": "North West", "addr:full": "C-7, Keshavpuram, Near Gurudwara", "addr:postcode": "110035", "addr:state": "Delhi", "amenity": "clinic", "contact:phone": "27188270", "description": "Dispensaries", "health_facility:type": "dispensary", "healthcare": "centre", "name": "DGD Keshav Puram C7", "source": "OpenGovernmentData"}}, {"type": "node", "id": 7138632220, "lat": 28.7371515, "lon": 77.136764, "tags": {"addr:district": "North", "addr:full": "Delhi Govt Dispensary, B-Block, Sector-18, Rohini", "addr:postcode": "110089", "addr:state": "Delhi", "amenity": "clinic", "contact:phone": "27855484", "description": "Dispensaries", "health_facility:type": "dispensary", "healthcare": "centre", "name": "DGD Rohini Sector18", "source": "OpenGovernmentData"}}, {"type": "node", "id": 7138632222, "lat": 28.6926748, "lon": 77.0937042, "tags": {"addr:district": "North West", "addr:full": "S-Block, Mangolpuri", "addr:postcode": "110083", "addr:state": "Delhi", "amenity": "clinic", "contact:phone": "27911080", "description": "MCD Center", "health_facility:type": "dispensary", "healthcare": "centre", "name": "Dispensary Of M.C.D. Mangolpuri S Block", "source": "OpenGovernmentData"}}, {"type": "node", "id": 7138632223, "lat": 28.5008866, "lon": 77.3166065, "tags": {"addr:district": "South East", "addr:full": "MPCC Building, Meethapur Chowk Molarband, Badarpur", "addr:state": "Delhi", "amenity": "clinic", "contact:phone": "011-26663357", "description": "Dispensaries", "health_facility:type": "dispensary", "healthcare": "centre", "name": "DGD Molarband", "source": "OpenGovernmentData"}}, {"type": "node", "id": 7138632225, "lat": 28.6939288, "lon": 77.0413994, "tags": {"addr:district": "North West", "addr:full": "C-1/1, Khasra No. 21/8, Prem Nagar-III, Suleman Nagar, Kirari", "addr:postcode": "110081", "addr:state": "Delhi", "amenity": "clinic", "description": "Dispensaries", "health_facility:type": "dispensary", "healthcare": "centre", "name": "DGD Laxmi Vihar", "source": "OpenGovernmentData"}}, {"type": "node", "id": 7138632227, "lat": 28.6707889, "lon": 77.3117511, "tags": {"addr:district": "Shahdara", "addr:full": "B Block, Jhilmil Colony", "addr:postcode": "110095", "addr:state": "Delhi", "amenity": "clinic", "contact:phone": "22144952", "description": "Dispensaries", "health_facility:type": "dispensary", "healthcare": "centre", "name": "DGD Jhilmil", "source": "OpenGovernmentData"}}, {"type": "node", "id": 7138632229, "lat": 28.5309853, "lon": 77.2575814}, {"type": "node", "id": 7138632231, "lat": 28.6978758, "lon": 77.0764123, "tags": {"addr:district": "North West", "addr:full": "Delhi Govt Dispensary, B- Block, Sultanpuri", "addr:postcode": "110086", "addr:state": "Delhi", "amenity": "clinic", "contact:phone": "25968044", "description": "Dispensaries", "health_facility:type": "dispensary", "healthcare": "centre", "name": "DGD Sultanpuri", "source": "OpenGovernmentData"}}, {"type": "node", "id": 7138632233, "lat": 28.680655, "lon": 77.328367, "tags": {"addr:district": "Shahdara", "addr:full": "F-Block, Dilshad Colony, Seemapuri", "addr:postcode": "110095", "addr:state": "Delhi", "amenity": "clinic", "contact:phone": "22357620", "description": "Maternity Home", "health_facility:type": "dispensary", "healthcare": "centre", "name": "Delhi Government Dispensary, old Seemapuri", "source": "OpenGovernmentData"}}, {"type": "node", "id": 7138632235, "lat": 28.5582752, "lon": 77.25376, "tags": {"addr:district": "South East", "addr:full": "No. 97-108, Slum Tenament Garhi, East Of Kailash", "addr:postcode": "110065", "addr:state": "Delhi", "amenity": "clinic", "contact:phone": "26413340", "description": "Dispensaries", "health_facility:type": "dispensary", "healthcare": "centre", "name": "DGD Garhi", "source": "OpenGovernmentData"}}, {"type": "node", "id": 7138632240, "lat": 28.7057699, "lon": 77.1701289, "tags": {"addr:district": "North", "addr:full": "Flat No.175A, AC-1, Shalimar Bagh (DDA Flats), Shalimar Bagh", "addr:postcode": "110088", "addr:state": "Delhi", "amenity": "clinic", "contact:phone": "27487505", "description": "Dispensaries", "health_facility:type": "dispensary", "healthcare": "centre", "name": "DGD Shalimar Bagh AC1", "source": "OpenGovernmentData"}}, {"type": "node", "id": 7138632242, "lat": 28.689989, "lon": 77.2900274}, {"type": "node", "id": 7138632243, "lat": 28.7082869, "lon": 77.1010425, "tags": {"addr:district": "North West", "addr:full": "9, Pocket A-1, Pocket 3, Sector 4, Rohini", "addr:postcode": "110085", "addr:state": "Delhi", "amenity": "clinic", "contact:phone": "27045890", "description": "Polyclinic", "name": "Aam Aadhmi Polyclinic Rohini Sec 4", "source": "OpenGovernmentData"}}, {"type": "node", "id": 7138632245, "lat": 28.6986025, "lon": 77.3042724, "tags": {"addr:district": "Shahdara", "addr:full": "Main Road, Near Dtc Depot, Village Mandoli, Nand Nagari", "addr:postcode": "110095", "addr:state": "Delhi", "amenity": "clinic", "contact:phone": "2259 1935", "description": "Dispensaries", "health_facility:type": "dispensary", "healthcare": "centre", "name": "ESI NAND NAGRI", "source": "OpenGovernmentData"}}, {"type": "node", "id": 7138632246, "lat": 28.7142255, "lon": 77.1384143, "tags": {"addr:district": "North West", "addr:full": "D-4, Prashant Vihar Delhi", "addr:postcode": "110085", "addr:state": "Delhi", "amenity": "clinic", "description": "<100 Bedded Hospital", "healthcare": "clinic", "name": "Spring Dales Medical Centre", "opening_hours": "Mo-Sa 09:00-21:00", "phone": "+91 01127563963", "source": "OpenGovernmentData"}}, {"type": "node", "id": 7138632248, "lat": 28.716198, "lon": 76.958756, "tags": {"addr:district": "North West", "addr:full": "MCD, Nizampur Rashidpur Village", "addr:postcode": "110081", "addr:state": "Delhi", "amenity": "clinic", "description": "MCD Center", "health_facility:type": "dispensary", "healthcare": "centre", "name": "MCD Nizampur", "source": "OpenGovernmentData"}}, {"type": "node", "id": 7138632249, "lat": 28.68859, "lon": 77.191208, "tags": {"addr:district": "Central", "addr:full": "Block B, Rana Pratap Bagh, Ashok Vihar, Delhi", "addr:postcode": "110007", "addr:state": "Delhi", "amenity": "clinic", "contact:phone": "27133873", "description": "Dispensaries", "health_facility:type": "dispensary", "healthcare": "centre", "name": "Dispensary Rana Pratap Bagh", "source": "OpenGovernmentData"}}, {"type": "node", "id": 7138632250, "lat": 28.6901201, "lon": 77.1460945, "tags": {"addr:district": "North West", "addr:full": "I-Block, DDA Resettlement Colony, Shakurpur, Near Balmiki Mandir", "addr:postcode": "110034", "addr:state": "Delhi", "amenity": "clinic", "contact:phone": "27187380", "description": "Dispensaries", "health_facility:type": "dispensary", "healthcare": "centre", "name": "DGD Shakur Pur I Block", "source": "OpenGovernmentData"}}, {"type": "node", "id": 7138632251, "lat": 28.6589056, "lon": 77.3060238, "tags": {"addr:district": "Shahdara", "addr:full": "A-Block, Surajmal Vihar", "addr:postcode": "110092", "addr:state": "Delhi", "amenity": "clinic", "contact:phone": "22373548", "description": "Dispensaries", "health_facility:type": "dispensary", "healthcare": "centre", "name": "DGD Surajmal Vihar", "source": "OpenGovernmentData"}}, {"type": "node", "id": 7138632253, "lat": 28.4985414, "lon": 77.2453098, "tags": {"addr:district": "South East", "addr:full": "F-2/474, Sangam Vihar", "addr:postcode": "110080", "addr:state": "Delhi", "amenity": "clinic", "contact:phone": "011-26045870", "description": "Dispensaries", "health_facility:type": "dispensary", "healthcare": "centre", "name": "SPUHC Sangam vihar F2", "source": "OpenGovernmentData"}}, {"type": "node", "id": 7138632255, "lat": 28.6932408, "lon": 77.0932851, "tags": {"addr:district": "North West", "addr:full": "A-Block, Mangolpuri", "addr:postcode": "110083", "addr:state": "Delhi", "amenity": "clinic", "contact:phone": "27922997", "description": "Dispensaries", "health_facility:type": "dispensary", "healthcare": "centre", "name": "DGD Mangol Puri", "source": "OpenGovernmentData"}}, {"type": "node", "id": 7138632259, "lat": 28.6779064, "lon": 77.2959784, "tags": {"addr:district": "Shahdara", "addr:full": "Near DDA Flats, Mansarover park, Shahdara", "addr:postcode": "110032", "addr:state": "Delhi", "amenity": "clinic", "contact:phone": "22583766", "description": "Dispensaries", "health_facility:type": "dispensary", "healthcare": "centre", "name": "CGHS Man Sarover Park", "source": "OpenGovernmentData"}}, {"type": "node", "id": 7138632260, "lat": 28.697886, "lon": 77.0763551, "tags": {"addr:district": "North West", "addr:full": "B-3, Janta quarter, Sultanpuri", "addr:postcode": "110086", "addr:state": "Delhi", "amenity": "clinic", "description": "Dispensaries", "health_facility:type": "dispensary", "healthcare": "centre", "name": "Dispensary Sultanpuri B Block", "source": "OpenGovernmentData"}}, {"type": "node", "id": 7138632266, "lat": 28.7036002, "lon": 77.0248944, "tags": {"addr:district": "North West", "addr:full": "DGD Building, Rani Khera Village", "addr:postcode": "110081", "addr:state": "Delhi", "amenity": "clinic", "contact:phone": "25954508", "description": "Dispensaries", "health_facility:type": "dispensary", "healthcare": "centre", "name": "DGD Rani Khera", "source": "OpenGovernmentData"}}, {"type": "node", "id": 7138632270, "lat": 28.6894792, "lon": 77.327676, "tags": {"addr:district": "Shahdara", "addr:full": "W-242, Seemapuri", "addr:postcode": "110095", "addr:state": "Delhi", "amenity": "clinic", "contact:phone": "22570036", "description": "Dispensaries", "health_facility:type": "dispensary", "healthcare": "centre", "name": "DGD New Seemapuri", "source": "OpenGovernmentData"}}, {"type": "node", "id": 7138632271, "lat": 28.7061619, "lon": 77.0617681, "tags": {"addr:district": "North West", "addr:full": "Plot no. 89, Khasra No. 518, Pratap Vihar-II, Suleman Nagar, Kirari", "addr:postcode": "110086", "addr:state": "Delhi", "amenity": "clinic", "contact:phone": "25180543", "health_facility:type": "dispensary", "healthcare": "centre", "name": "NRHM Dispensary Aman Vihar", "source": "OpenGovernmentData"}}, {"type": "node", "id": 7138632273, "lat": 28.6947654, "lon": 77.3067194, "tags": {"addr:district": "Shahdara", "addr:full": "A-2, Resettlement Colony, Near Post Office", "addr:postcode": "110093", "addr:state": "Delhi", "amenity": "clinic", "contact:phone": "22585690", "description": "Dispensaries", "health_facility:type": "dispensary", "healthcare": "centre", "name": "DGD Nand Nagri", "source": "OpenGovernmentData"}}, {"type": "node", "id": 7138632275, "lat": 28.7143022, "lon": 77.1561467, "tags": {"addr:district": "North West", "addr:full": "Flat No.14,15,16,17A, BB-Block, Shalimar Bagh", "addr:postcode": "110052", "addr:state": "Delhi", "amenity": "clinic", "contact:phone": "27486246", "description": "Dispensaries", "health_facility:type": "dispensary", "healthcare": "centre", "name": "DGD Shalimar B Block", "source": "OpenGovernmentData"}}, {"type": "node", "id": 7184365605, "lat": 28.5053496, "lon": 77.1985746, "tags": {"amenity": "clinic", "contact:email": "anmoldiagnostic@gmail.com", "contact:phone": "+91-73031-29283", "healthcare": "clinic", "healthcare:speciality": "general;gynaecology;orthopaedics;physiotherapy;laproscopy", "name": "Anmol Multispeciality Polyclinic and Diagnostic Center"}}, {"type": "node", "id": 7543715673, "lat": 28.622254, "lon": 77.03653, "tags": {"addr:district": "West Delhi", "addr:full": "B-151, Rama Park Road, Block A, Bhagwati Garden, Nawada", "addr:postcode": "110059", "addr:state": "Delhi", "amenity": "clinic", "name": "Goel Health Center", "source": "Local Knowledge"}}, {"type": "node", "id": 7543715684, "lat": 28.6740397, "lon": 77.1145552, "tags": {"addr:district": "West Delhi", "addr:full": "Madipur JJ Colony, Block E, Janta Colony, Paschim Vihar", "addr:postcode": "110063", "addr:state": "Delhi", "amenity": "clinic", "name": "Jain Clinic", "source": "Local Knowledge"}}, {"type": "node", "id": 7543715685, "lat": 28.6499928, "lon": 77.1277233, "tags": {"addr:district": "West Delhi", "addr:full": "33/1, B block, Ramesh Nagar", "addr:postcode": "110026", "addr:state": "Delhi", "amenity": "clinic", "name": "Chaitanya Cardio Diabetes Centre", "source": "Local Knowledge"}}, {"type": "node", "id": 7543715701, "lat": 28.6624108, "lon": 77.1082554, "tags": {"addr:district": "West Delhi", "addr:full": "BG-5, no. 76A, Bhao Rao Devras Marg, Block BG 5, Paschim Vihar", "addr:postcode": "110063", "addr:state": "Delhi", "amenity": "clinic", "name": "Anand Orthopaedic & Maternity Clinic", "source": "Local Knowledge"}}, {"type": "node", "id": 7543715705, "lat": 28.6504538, "lon": 77.1307517, "tags": {"addr:district": "West Delhi", "addr:full": "2B/48, Block B, Ramesh Nagar", "addr:postcode": "110026", "addr:state": "Delhi", "amenity": "clinic", "name": "Ashirwad Speciality Clinic", "source": "Local Knowledge"}}, {"type": "node", "id": 7543715707, "lat": 28.6644771, "lon": 77.1427558, "tags": {"addr:district": "West Delhi", "addr:full": "S. D. Mandir Market, Baba Karam Singh Marg, New Moti Nagar", "addr:postcode": "110015", "addr:state": "Delhi", "amenity": "clinic", "healthcare": "clinic", "name": "The Maternity Clinic", "source": "Local Knowledge"}}, {"type": "node", "id": 7543715709, "lat": 28.6207423, "lon": 77.0852636, "tags": {"addr:district": "West Delhi", "addr:full": "Kendriya Vidyalaya Road, C-2 Block, Janakpuri", "addr:postcode": "110058", "addr:state": "Delhi", "amenity": "clinic", "name": "Sanjivni Rheumatology Clinic", "source": "Local Knowledge"}}, {"type": "node", "id": 7543715710, "lat": 28.6789265, "lon": 77.0242536, "tags": {"addr:district": "West Delhi", "addr:full": "Boring Bankatwa Road, Gorakhnath", "addr:postcode": "110041", "addr:state": "Delhi", "amenity": "clinic", "name": "Aditya Urology Centre & Maternity Home", "source": "Local Knowledge"}}, {"type": "node", "id": 7543715714, "lat": 28.6488881, "lon": 77.1404844, "tags": {"addr:district": "West Delhi", "addr:full": "E-50, Block C, Kirti Nagar Road, Near SD Public School", "addr:postcode": "110015", "addr:state": "Delhi", "amenity": "clinic", "healthcare": "clinic", "name": "Bhasin's Neuro and Gynae clinic", "source": "Local Knowledge"}}, {"type": "node", "id": 7543715718, "lat": 28.6376486, "lon": 77.1778655, "tags": {"addr:district": "West Delhi", "addr:full": "J-364, New Rajender Nagar, Shankar Road", "addr:postcode": "110060", "addr:state": "Delhi", "amenity": "clinic", "name": "Saaol Heart Center", "source": "Local Knowledge"}}, {"type": "node", "id": 7543715740, "lat": 28.6655661, "lon": 77.0737087, "tags": {"addr:district": "West Delhi", "addr:full": "Main Market, Nihal Vihar, Nangloi", "addr:postcode": "110041", "addr:state": "Delhi", "amenity": "clinic", "name": "Mother Child Clinic", "source": "Local Knowledge"}}, {"type": "node", "id": 7543715757, "lat": 28.6793088, "lon": 77.0498414, "tags": {"addr:district": "West Delhi", "addr:full": "B-57, Amar Colony, Nangloi Extension, Nangloi", "addr:postcode": "110041", "addr:state": "Delhi", "amenity": "clinic", "name": "Durga Diagnostic Centre", "source": "Local Knowledge"}}, {"type": "node", "id": 7543715762, "lat": 28.620503, "lon": 77.080925, "tags": {"addr:district": "West Delhi", "addr:full": "C-1-127,Janakpuri", "addr:postcode": "110058", "addr:state": "Delhi", "amenity": "clinic", "name": "Jainak Medical and Orthopaedic Center", "source": "Local Knowledge"}}, {"type": "node", "id": 7543715769, "lat": 28.6486024, "lon": 77.1325176, "tags": {"addr:district": "West Delhi", "addr:full": "Block W, Shivaji Enclave, Bali Nagar", "addr:postcode": "110015", "addr:state": "Delhi", "amenity": "clinic", "name": "Polyclinic, Ramesh Nagar", "source": "Local Knowledge"}}, {"type": "node", "id": 7543715771, "lat": 28.6352937, "lon": 77.0550003, "tags": {"addr:district": "West Delhi", "addr:full": "Deep Enclave, Hastsal Village, Hastsal", "addr:postcode": "110059", "addr:state": "Delhi", "amenity": "clinic", "name": "Mahola Clinic", "source": "Local Knowledge"}}, {"type": "node", "id": 7543715772, "lat": 28.668964, "lon": 77.077163, "tags": {"addr:district": "West Delhi", "addr:full": "B-84, 50 Feet Road, Nihal Vihar, Vandana Vihar, Nangloi", "addr:postcode": "110041", "addr:state": "Delhi", "amenity": "clinic", "name": "Ansari Clinic", "source": "Local Knowledge"}}, {"type": "node", "id": 7544955440, "lat": 28.572765, "lon": 77.272467, "tags": {"addr:district": "South East Delhi", "addr:full": "84, Khizarabad Bhagol, Near Police Ckowki", "addr:postcode": "110025", "addr:state": "Delhi", "amenity": "clinic", "name": "Delhi Diagnostic Centre", "source": "Local Knowledge"}}, {"type": "node", "id": 7544955445, "lat": 28.6432419, "lon": 77.2424546, "tags": {"addr:district": "Central Delhi", "addr:full": "Shyam Lal Road, Minto park, Daryaganj", "addr:postcode": "110002", "addr:state": "Delhi", "amenity": "clinic", "name": "Dr. P.N. Behl Skin Clinic", "source": "Local Knowledge"}}, {"type": "node", "id": 7544955452, "lat": 28.551695, "lon": 77.200439, "tags": {"addr:district": "South Delhi", "addr:full": "Block C 1, Bhim Nagri, Hauz Khas", "addr:postcode": "110016", "addr:state": "Delhi", "amenity": "clinic", "name": "Dr. Rohatgi Clinic", "source": "Local Knowledge"}}, {"type": "node", "id": 7544955453, "lat": 28.4417684, "lon": 77.1445967, "tags": {"addr:district": "South Delhi", "addr:full": "House No. A 135, Sambhav Bapu Colony, Mandi", "addr:postcode": "110047", "addr:state": "Delhi", "amenity": "clinic", "name": "Parivar Clinic", "source": "Local Knowledge"}}, {"type": "node", "id": 7544955459, "lat": 28.5110582, "lon": 77.2356508, "tags": {"addr:district": "South Delhi", "addr:full": "Tigri Colony, Tigri", "addr:postcode": "110044", "addr:state": "Delhi", "amenity": "clinic", "name": "Gold Clinic", "source": "Local Knowledge"}}, {"type": "node", "id": 7544955460, "lat": 28.533909, "lon": 77.210402, "tags": {"addr:district": "South Delhi", "addr:full": "57-60, Captain Hitesh Mehta Marg, Shvalik, Malviya Nagar", "addr:postcode": "110017", "addr:state": "Delhi", "amenity": "clinic", "name": "Kilkari Clinic", "source": "Local Knowledge"}}, {"type": "node", "id": 7544955473, "lat": 28.6458317, "lon": 77.1784997, "tags": {"addr:district": "Central Delhi", "addr:full": "Hemkunt Tower, 6, Street 1, Prasad Nagar", "addr:postcode": "110008", "addr:state": "Delhi", "amenity": "clinic", "name": "New Delhi Medical Centre", "source": "Local Knowledge"}}, {"type": "node", "id": 7544955477, "lat": 28.649289, "lon": 77.199157, "tags": {"addr:district": "Central Delhi", "addr:full": "783, DB Gupta Road, Block A, Karol Bagh", "addr:postcode": "110005", "addr:state": "Delhi", "amenity": "clinic", "name": "Jan Kalyan Health Care Centre", "source": "Local Knowledge"}}, {"type": "node", "id": 7544955479, "lat": 28.5497143, "lon": 77.2397747, "tags": {"addr:district": "South East Delhi", "addr:full": "C-96, Greater Kailash Part-1", "addr:postcode": "110048", "addr:state": "Delhi", "amenity": "clinic", "name": "Mokksh Clinic", "source": "Local Knowledge"}}, {"type": "node", "id": 7544955484, "lat": 28.4630522, "lon": 77.1537878, "tags": {"addr:district": "South Delhi", "addr:full": "Ratiya Pradhan Road, Junapur Village", "addr:postcode": "110047", "addr:state": "Delhi", "amenity": "clinic", "name": "Baba Neem Karoli Dispensary", "source": "Local Knowledge"}}, {"type": "node", "id": 7544955486, "lat": 28.526027, "lon": 77.231042, "tags": {"addr:district": "South Delhi", "addr:full": "Lal Bahadur Shastri Marg, Madangir Village", "addr:postcode": "110062", "addr:state": "Delhi", "amenity": "clinic", "name": "Kaushik Skin Centre", "source": "Local Knowledge"}}, {"type": "node", "id": 7544955489, "lat": 28.5259102, "lon": 77.2364446, "tags": {"addr:city": "Delhi", "addr:district": "South Delhi", "addr:full": "Block 7, Doctor Ambedkar Nagar, Dakshinpuri", "addr:housenumber": "7/1", "addr:postcode": "110062", "addr:state": "Delhi", "addr:street": "Dakshinpuri Extn, Block 7", "amenity": "clinic", "healthcare": "clinic", "name": "Tarawati Diagnotic Centre", "source": "Local Knowledge"}}, {"type": "node", "id": 7544955497, "lat": 28.5504868, "lon": 77.1981951, "tags": {"addr:district": "South Delhi", "addr:full": "C4-140, PT Narender Kumar Pandey Marg, Hauz Khas", "addr:postcode": "110016", "addr:state": "Delhi", "amenity": "clinic", "name": "Phoolwati Jain Poly Clinic", "source": "Local Knowledge"}}, {"type": "node", "id": 7544955508, "lat": 28.5106137, "lon": 77.2367957, "tags": {"addr:district": "South Delhi", "addr:full": "1255, Bank Road, Tigri Colony, Tigri, Sangam Vihar", "addr:postcode": "110062", "addr:state": "Delhi", "amenity": "clinic", "name": "Muhalla Clinic", "source": "Local Knowledge"}}, {"type": "node", "id": 7545203148, "lat": 28.712718, "lon": 77.119198, "tags": {"addr:district": "North West Delhi", "addr:full": "Jai Apartments, Sector 9, Metro Pillar #417 168, Rohini", "addr:postcode": "110085", "addr:state": "Delhi", "amenity": "clinic", "healthcare": "clinic", "name": "North Delhi Diabetes Center", "source": "Local Knowledge"}}, {"type": "node", "id": 7545203155, "lat": 28.8446616, "lon": 77.0913892, "tags": {"addr:district": "North Delhi", "addr:full": "G-10, 54, Punjabi Colony, Narela Mandi, Narela", "addr:postcode": "110040", "addr:state": "Delhi", "amenity": "clinic", "name": "Goel Poly Clinic", "source": "Local Knowledge"}}, {"type": "node", "id": 7545203165, "lat": 28.7101355, "lon": 77.1166883, "tags": {"addr:district": "North West Delhi", "addr:full": "D16-66, Shiva Road, Pocket 16, Sector 7D, Rohini", "addr:postcode": "110085", "addr:state": "Delhi", "amenity": "clinic", "name": "Atul Path Labs and Eye Clinic", "source": "Local Knowledge"}}, {"type": "node", "id": 7545203179, "lat": 28.6963424, "lon": 77.1018968, "tags": {"addr:district": "North West Delhi", "addr:full": "210, Street Number 20, Mangol Pur Kalan, Mangolpuri S Block", "addr:postcode": "110085", "addr:state": "Delhi", "amenity": "clinic", "name": "Aam Admi Polyclinic", "source": "Local Knowledge"}}, {"type": "node", "id": 7545203181, "lat": 28.8547587, "lon": 77.0904098, "tags": {"addr:district": "North Delhi", "addr:full": "Rajiv Colony, Narela Anaj Mandi, Narela", "addr:postcode": "110040", "addr:state": "Delhi", "amenity": "clinic", "name": "Palli Nursing Home", "source": "Local Knowledge"}}, {"type": "node", "id": 7545203182, "lat": 28.7374894, "lon": 77.1187302, "tags": {"addr:district": "North Delhi", "addr:full": "G-6/44, Giani Gurumukhi Musaphir Marg, Pocket 6, Sector 16, Rohini", "addr:postcode": "110085", "addr:state": "Delhi", "amenity": "clinic", "name": "Golden Health Care Center", "source": "Local Knowledge"}}, {"type": "node", "id": 7545203184, "lat": 28.593462, "lon": 77.044685, "tags": {"addr:district": "South West Delhi", "addr:full": "Road Number 203, Sector 7 Extension, Sector 12, Dwarka", "addr:postcode": "110075", "addr:state": "Delhi", "amenity": "clinic", "name": "Delhi Government Clinic", "source": "Local Knowledge"}}, {"type": "node", "id": 7545203187, "lat": 28.6905552, "lon": 77.1562716, "tags": {"addr:district": "North West Delhi", "addr:full": "Lawrence Road, Block C6, Keshav Puram, Tri Nagar", "addr:postcode": "110035", "addr:state": "Delhi", "amenity": "clinic", "name": "JK Gupta clinic", "source": "Local Knowledge"}}, {"type": "node", "id": 7545203189, "lat": 28.7497215, "lon": 77.1427862, "tags": {"addr:district": "North Delhi", "addr:full": "Samaypur - Libaspur Road, Samaipur, Yadav Nagar", "addr:postcode": "110042", "addr:state": "Delhi", "amenity": "clinic", "name": "Patliputra Nursing Home", "source": "Local Knowledge"}}, {"type": "node", "id": 7545203197, "lat": 28.8573891, "lon": 77.0917201, "tags": {"addr:district": "North Delhi", "addr:full": "Rajeev Colony, Punjabi Bagh, Narela", "addr:postcode": "110040", "addr:state": "Delhi", "amenity": "clinic", "name": "Reena Nursing Home", "source": "Local Knowledge"}}, {"type": "node", "id": 7545203205, "lat": 28.711308, "lon": 77.117682, "tags": {"addr:district": "North West Delhi", "addr:full": "D- 16/ 434, Brahmkumaris Marg, Pocket 16, Sector 7D, Rohini", "addr:postcode": "110085", "addr:state": "Delhi", "amenity": "clinic", "healthcare": "clinic", "name": "Lala Hansraj Gupta Polyclinic", "source": "Local Knowledge"}}, {"type": "node", "id": 7545203211, "lat": 28.5832155, "lon": 77.0442082, "tags": {"addr:district": "South West Delhi", "addr:full": "Aksharoadham Apartment, sector 19, Dwarka", "addr:postcode": "110075", "addr:state": "Delhi", "amenity": "clinic", "name": "Dr Shalini Chaudhary's Mother Care Clinic", "source": "Local Knowledge"}}, {"type": "node", "id": 7545203214, "lat": 28.5946941, "lon": 77.0688804, "tags": {"addr:district": "South West Delhi", "addr:full": "Palam Vihar, Sector 6, Dwarka", "addr:postcode": "110075", "addr:state": "Delhi", "amenity": "clinic", "name": "Swastik clinic", "source": "Local Knowledge"}}, {"type": "node", "id": 7545203216, "lat": 28.6778624, "lon": 77.1609578, "tags": {"addr:district": "North West Delhi", "addr:full": "Onkar Nagar A, Tota Ram Bazar, Ganeshpura, Tri Nagar", "addr:postcode": "110035", "addr:state": "Delhi", "amenity": "clinic", "name": "Atma Ram Gupta Polyclinic", "source": "Local Knowledge"}}, {"type": "node", "id": 7545203224, "lat": 28.6197885, "lon": 77.0684856, "tags": {"addr:district": "South West Delhi", "addr:full": "Mahavir Enclave, D- 293, 55, Part III, Gali Number 21", "addr:postcode": "110059", "addr:state": "Delhi", "amenity": "clinic", "name": "Public Health Centre", "source": "Local Knowledge"}}, {"type": "node", "id": 7545203227, "lat": 28.6908228, "lon": 77.1473758, "tags": {"addr:district": "North West Delhi", "addr:full": "Block J, Shakurpur Colony, Shakurpur", "addr:postcode": "110034", "addr:state": "Delhi", "amenity": "clinic", "name": "Sai Jeevan Dhara Child Care Center", "source": "Local Knowledge"}}, {"type": "node", "id": 7545203230, "lat": 28.6739141, "lon": 77.1789173, "tags": {"addr:district": "North West Delhi", "addr:full": "Naag Mandir Road, Block B, Shastri Nagar", "addr:postcode": "110052", "addr:state": "Delhi", "amenity": "clinic", "name": "Ganpati clinic", "source": "Local Knowledge"}}, {"type": "node", "id": 7545203249, "lat": 28.7445134, "lon": 77.1441451, "tags": {"addr:district": "North Delhi", "addr:full": "Ground Floor Main, Bawana Road, Samaypur", "addr:postcode": "110042", "addr:state": "Delhi", "amenity": "clinic", "name": "Raj Nursing Home & Orthopaedic Center", "source": "Local Knowledge"}}, {"type": "node", "id": 7545203251, "lat": 28.6798077, "lon": 77.1607971, "tags": {"addr:district": "North West Delhi", "addr:full": "3661, 7, Ashram Road, Narang Colony, Tri Nagar", "addr:postcode": "110035", "addr:state": "Delhi", "amenity": "clinic", "name": "Balaji Health centre", "source": "Local Knowledge"}}, {"type": "node", "id": 7545203253, "lat": 28.6992987, "lon": 77.1853091, "tags": {"addr:district": "North Delhi", "addr:full": "A 12, Derawal Nagar Main Road, Gujranwala Town", "addr:postcode": "110009", "addr:state": "Delhi", "amenity": "clinic", "name": "Sethi Nursing Home", "source": "Local Knowledge"}}, {"type": "node", "id": 7545203256, "lat": 28.6900709, "lon": 77.1398096, "tags": {"addr:district": "North West Delhi", "addr:full": "B1, Rohit Kunj, Sandesh Vihar, Pitam Pura", "addr:postcode": "110034", "addr:state": "Delhi", "amenity": "clinic", "name": "Delhi New born Centre", "source": "Local Knowledge"}}, {"type": "node", "id": 7545203261, "lat": 28.6910284, "lon": 77.1574594, "tags": {"addr:district": "North West Delhi", "addr:full": "C-7/147, Keshav Puram", "addr:postcode": "110035", "addr:state": "Delhi", "amenity": "clinic", "name": "Rustagi ENT Clinic", "source": "Local Knowledge"}}, {"type": "node", "id": 7545203267, "lat": 28.6882067, "lon": 77.15992, "tags": {"addr:district": "North West Delhi", "addr:full": "B-4/156, Keshav Puram, Tri Nagar", "addr:postcode": "110035", "addr:state": "Delhi", "amenity": "clinic", "name": "Gupta Eye & Gynae Clinic", "source": "Local Knowledge"}}, {"type": "node", "id": 7545203268, "lat": 28.691085, "lon": 77.156688, "tags": {"addr:district": "North West Delhi", "addr:full": "c4/20, Pocket C7, Block C4, Keshav Puram, Tri Nagar", "addr:postcode": "110035", "addr:state": "Delhi", "amenity": "clinic", "name": "Delhi Eye Care Centre", "source": "Local Knowledge"}}, {"type": "node", "id": 7622516652, "lat": 28.8523923, "lon": 77.1303073, "tags": {"addr:district": "Sonipat", "addr:full": "Sindu Village", "addr:postcode": "131028", "addr:state": "Haryana", "amenity": "clinic", "name": "Ravitri Clinic", "source": "Local Knowledge"}}, {"type": "node", "id": 8151203551, "lat": 28.6597987, "lon": 77.1424992, "tags": {"addr:full": "B-11, Block B, Moti Nagar, New Delhi, Delhi", "amenity": "clinic", "healthcare": "clinic", "name": "Dr Tanejas Thyroid Clinic (Dr. Vijay Taneja)"}}, {"type": "node", "id": 8257737686, "lat": 28.5331795, "lon": 77.1421444, "tags": {"addr:city": "Delhi", "addr:postcode": "110070", "addr:street": "Vasant Kunj Marg, opp. Vasant Valley School, IAA Colony, Sector C, Vasant Kunj,", "amenity": "clinic", "healthcare": "clinic", "healthcare:speciality": "Spine_Surgery", "name": "Unit V Indian Spinal Injuries Centre", "website": "https://www.spinesurgerydelhi.com/"}}, {"type": "node", "id": 8266793865, "lat": 28.5326759, "lon": 77.1418025, "tags": {"addr:city": "New Delhi", "addr:postcode": "110070", "addr:street": "Indian Spinal Injuries Centre Vasant Kunj Marg, opp. Vasant Valley School, Sector C, IAA Colony", "amenity": "clinic", "healthcare": "clinic", "healthcare:speciality": "Spine_Surgeon;Orthopedics;Pain_Specialist", "name": "SPECIALITY SPINE CLINIC. DR TARUSH RUSTAGI", "website": "https://www.spinesurgeondelhi.com/"}}, {"type": "node", "id": 8266976545, "lat": 28.5376471, "lon": 77.1416151, "tags": {"addr:city": "New Delhi", "addr:postcode": "110070", "addr:street": "Indian Spinal Injuries Centre, IAA Colony, Sector C, Vasant Kunj", "amenity": "clinic", "healthcare": "clinic", "healthcare:speciality": "Senior_Consultant_and_Unit_Head_spine_surgery", "name": "INDIAN SPINAL INJURIES CENTRE", "website": "https://www.delhibestspinespecialist.com/dr-gururaj"}}, {"type": "node", "id": 8288996284, "lat": 28.7080391, "lon": 77.1909599, "tags": {"addr:city": "Delhi", "addr:housenumber": "F14/69", "addr:postcode": "110009", "addr:street": "Model Town 2, Near Model Town Metro Station, Mukherjee Nagar", "amenity": "clinic", "healthcare": "clinic", "healthcare:speciality": "Obstetrics_&_Gynecology;Reproductive_Endocrinology_and_Infertility;Radiology_and_Sonologist;Vaginoplasty;Hymenoplasty", "name": "Ayoni - Cure De Jouvence", "website": "https://www.drgayatrijuneja.com/"}}, {"type": "node", "id": 8300115677, "lat": 28.7064694, "lon": 77.1897906, "tags": {"addr:city": "Delhi", "addr:housenumber": "F14/69", "addr:postcode": "110009", "addr:street": "ground floor, Model Town 2,", "amenity": "clinic", "healthcare": "clinic", "healthcare:speciality": "gynaecologist", "name": "AYONI - CURE DE JOUVENCE", "website": "https://www.drgayatrijuneja.com/"}}, {"type": "node", "id": 8892257395, "lat": 28.5844159, "lon": 77.246756}, {"type": "node", "id": 8892257396, "lat": 28.5845962, "lon": 77.2470303}, {"type": "node", "id": 8892257397, "lat": 28.5844672, "lon": 77.24714}, {"type": "node", "id": 8892257398, "lat": 28.5842854, "lon": 77.2468658}, {"type": "node", "id": 8985517015, "lat": 28.6794831, "lon": 77.1881001, "tags": {"amenity": "clinic", "healthcare": "clinic", "name": "Mohalla Clinic Sindhoran Kalan"}}, {"type": "node", "id": 8987572722, "lat": 28.6809279, "lon": 77.1928689, "tags": {"amenity": "clinic", "healthcare": "clinic", "name": "Kidoos Clinic and Vaccination Center"}}, {"type": "node", "id": 9024418836, "lat": 28.6024541, "lon": 77.3141628, "tags": {"addr:city": "Delhi India", "addr:postcode": "110096", "addr:street": "Dharamshila Narayana Superspeciality Hospital, Metro Station, Dharamshila marg, Vasundhara Enclave Near Ashok Nagar", "amenity": "clinic", "healthcare": "clinic", "name": "Dharamshila Narayana Superspeciality Hospital, Delhi", "website": "https://www.bloodsrus.com/"}}, {"type": "node", "id": 9111080043, "lat": 28.634961, "lon": 77.3041563, "tags": {"addr:housenumber": "A-131", "addr:place": "Madhu Vihar", "amenity": "clinic", "contact:phone": "+91-70489-68675;+91-98911-59353;+91-98110-13907", "healthcare": "clinic", "healthcare:speciality": "gynaecology;radiology", "level": "1", "name": "Malhotra Clinic"}}, {"type": "node", "id": 9122208544, "lat": 28.5891932, "lon": 77.3017514, "tags": {"addr:city": "Delhi, India", "addr:postcode": "110096", "addr:street": "Dharamshila Narayana Superspeciality Hospital, Metro Station, Dharamshila marg, Vasundhara Enclave Near Ashok Nagar", "amenity": "clinic", "healthcare": "clinic", "healthcare:speciality": "consultant_hematologist_and_bmt_specialist", "name": "BLOODSRUS CENTRE OF EXCELLENCE FOR BLOOD DISORDERS", "website": "https://www.bloodsrus.com/"}}, {"type": "node", "id": 9159982079, "lat": 28.44466, "lon": 77.1879469, "tags": {"addr:city": "Delhi 110074, Chhattarpur, New Delhi-Maharashtra, India", "addr:housenumber": "B-3/105, Shop No -3&4", "addr:postcode": "110074", "addr:street": "Radha Swami Satsang Road, Dera Bhati,", "amenity": "clinic", "healthcare": "clinic", "healthcare:speciality": "dermatology", "name": "Genesis Health", "website": "https://www.genesishealth.co.in/"}}, {"type": "node", "id": 9480755545, "lat": 28.5603685, "lon": 77.2001304, "tags": {"amenity": "clinic", "contact:phone": "+91-11-2619-1918;+91-78348-27779", "name": "Maanmati Polyclinic", "opening_hours:opd": "Mo-Su 17:00-21:00"}}, {"type": "node", "id": 9510441288, "lat": 28.61772, "lon": 77.2945682, "tags": {"addr:block": "E", "addr:housenumber": "189", "addr:place": "Mayur Vihar Phase 2", "addr:postcode": "110091", "amenity": "clinic", "contact:phone": "+91-98108-11678", "healthcare": "clinic", "healthcare:speciality": "cardiology;general", "name": "Doctor M.K. Saxena"}}, {"type": "node", "id": 9542982735, "lat": 28.6838864, "lon": 77.1272005, "tags": {"amenity": "clinic", "name": "Aam Aadmi Mohalla Clinic"}}, {"type": "node", "id": 9938798412, "lat": 28.5476601, "lon": 77.2464008, "tags": {"amenity": "clinic", "branch": "Chirag Enclave", "healthcare": "clinic", "name": "Aam Aadmi Mohalla Clinic"}}, {"type": "node", "id": 10146564369, "lat": 28.7223865, "lon": 77.1657098, "tags": {"addr:block": "A", "addr:housenumber": "20", "addr:place": "Mahendra Park", "addr:postcode": "110033", "amenity": "clinic", "contact:email": "delhi-reception@oca.msf.org", "contact:phone": "+91-11-2764-2481", "contact:website": "https://ukkdelhi.org/", "description": "A clinic where victims of sexual and gender-based violence are provided free treatment and counselling.", "emergency:phone": "1800-102-1075", "healthcare": "clinic", "name": "Umeed Ki Kiran", "name:hi": "\u0909\u092e\u094d\u092e\u0940\u0926 \u0915\u0940 \u0915\u093f\u0930\u0923", "operator": "M\u00e9decins sans fronti\u00e8res", "operator:short": "MSF", "operator:wikidata": "Q49330", "wheelchair": "no"}}, {"type": "node", "id": 10262806206, "lat": 28.6241393, "lon": 77.2924633, "tags": {"addr:housenumber": "B-72A", "addr:place": "Mandawali", "addr:street": "16", "amenity": "clinic", "contact:phone": "+91-98999-58816", "healthcare": "clinic", "name": "Choudhary Healthcare Clinic"}}, {"type": "node", "id": 10567632771, "lat": 28.7243016, "lon": 77.1707271, "tags": {"addr:block": "H/2", "addr:housenumber": "1", "addr:place": "Jahangirpuri", "addr:postcode": "110033", "amenity": "clinic", "healthcare": "clinic", "name": "Shiva Seva Free Dispensary"}}, {"type": "node", "id": 10570378157, "lat": 28.7230794, "lon": 77.1704558, "tags": {"amenity": "clinic", "healthcare": "clinic", "name": "Prantika Clinic"}}, {"type": "node", "id": 10593786419, "lat": 28.7311745, "lon": 77.1739931}, {"type": "node", "id": 10593786431, "lat": 28.731136, "lon": 77.1742903}, {"type": "node", "id": 10593786440, "lat": 28.7312799, "lon": 77.1741903}, {"type": "node", "id": 10593786448, "lat": 28.7310306, "lon": 77.1740931}, {"type": "node", "id": 10654395489, "lat": 28.7348292, "lon": 77.1680993, "tags": {"addr:block": "K", "addr:housenumber": "206", "addr:place": "Jahangir Puri", "addr:postcode": "110033", "amenity": "clinic", "building": "residential", "contact:phone": "+91 92112 74078", "healthcare": "clinic", "level": "1", "name": "Family Clinic", "opening_hours": "Mo-Sa 17:00-22:00"}}, {"type": "node", "id": 10716030452, "lat": 28.7256161, "lon": 77.174372, "tags": {"addr:block": "G", "addr:housenumber": "904", "addr:place": "Jahangir Puri", "addr:postcode": "110033", "amenity": "clinic", "building": "apartments", "healthcare": "clinic", "name": "Medicare & Maternity Center"}}, {"type": "node", "id": 10725383882, "lat": 28.5568869, "lon": 77.165003, "tags": {"amenity": "clinic", "healthcare": "clinic", "healthcare:speciality": "fertility", "name": "Infinite"}}, {"type": "node", "id": 10725383920, "lat": 28.556853, "lon": 77.1650112, "tags": {"amenity": "clinic", "healthcare": "clinic", "name": "Potenza"}}, {"type": "node", "id": 10736211131, "lat": 28.7278169, "lon": 77.1778414, "tags": {"amenity": "clinic", "contact:phone": "+91-99901-73164", "healthcare": "clinic", "healthcare:speciality": "general", "name": "Rehman Clinic", "note": "Days not mentioned.", "opening_hours": "Mo-Su 17:00-22:00"}}, {"type": "node", "id": 10739040917, "lat": 28.7221858, "lon": 77.1694931, "tags": {"addr:city": "Delhi", "addr:housenumber": "L-40", "addr:place": "Mahendra Park", "amenity": "clinic", "healthcare": "clinic", "name": "Dashmesh Clinic"}}, {"type": "node", "id": 10739058105, "lat": 28.7226907, "lon": 77.1667317, "tags": {"amenity": "clinic", "name": "Ekta Clinic"}}, {"type": "node", "id": 10739058505, "lat": 28.7216867, "lon": 77.1692394, "tags": {"amenity": "clinic", "name": "Homeopathic clinic"}}, {"type": "node", "id": 10750605653, "lat": 28.7231163, "lon": 77.167352, "tags": {"addr:housenumber": "F-8", "addr:suburb": "Mahindra Park", "amenity": "clinic", "contact:phone": "+91 96678 91694", "contact:youtube": "Swasth Naari", "healthcare": "clinic", "healthcare:speciality": "gynaecology;obstetrics", "name": "Krishna Clinic", "opening_hours": "Mo-Su 10:00-13:00, 17:00-20:00", "wheelchair": "no"}}, {"type": "node", "id": 10770443849, "lat": 28.5567087, "lon": 77.1650784, "tags": {"amenity": "clinic", "healthcare": "clinic", "name": "Holy Angels Hospital", "opening_hours": "24/7"}}, {"type": "node", "id": 10775213816, "lat": 28.7402712, "lon": 77.1636393}, {"type": "node", "id": 10775213855, "lat": 28.740278, "lon": 77.1631623}, {"type": "node", "id": 10775213861, "lat": 28.7400788, "lon": 77.1641068, "tags": {"addr:block": "A", "addr:housenumber": "685;686", "addr:street": "2", "addr:suburb": "Bhalaswa Dairy", "amenity": "clinic", "branch": "Bhalaswa", "healthcare": "clinic", "name": "Umeed Ki Kiran", "name:hi": "\u0909\u092e\u094d\u092e\u0940\u0926 \u0915\u0940 \u0915\u093f\u0930\u0923", "operator": "M\u00e9decins sans fronti\u00e8res", "operator:short": "MSF", "operator:wikidata": "Q49330", "wheelchair": "no"}}, {"type": "node", "id": 10801807130, "lat": 28.7313821, "lon": 77.1713695, "tags": {"amenity": "clinic", "healthcare": "clinic", "healthcare:speciality": "ophthalmology", "operator": "Society for Social Services"}}, {"type": "node", "id": 10836285934, "lat": 28.7401495, "lon": 77.1631644, "tags": {"barrier": "gate"}}, {"type": "node", "id": 10836285935, "lat": 28.7401146, "lon": 77.1636235}, {"type": "node", "id": 10836285940, "lat": 28.7401021, "lon": 77.1631651}, {"type": "node", "id": 10839204006, "lat": 28.7406546, "lon": 77.1623798, "tags": {"addr:city": "New Delhi", "addr:housenumber": "22B", "addr:place": "Kalander Colony", "addr:postcode": "110042", "amenity": "clinic", "building": "residential", "building:levels": "1", "contact:phone": "+91-93150-55098;+91-85953-34916", "healthcare": "clinic", "name": "Khan Clinic", "wheelchair": "no"}}, {"type": "node", "id": 10841421909, "lat": 28.5319557, "lon": 77.1444771, "tags": {"addr:city": "New Delhi", "addr:housenumber": "Sector-3", "addr:postcode": "110070", "addr:street": "Vasant Kunj,", "amenity": "clinic", "healthcare": "clinic", "healthcare:speciality": "orthopaedics", "name": "Dr Rajat Mahajan Clinic", "operator": "Novosalus", "operator:type": "private"}}, {"type": "node", "id": 10841421910, "lat": 28.5166832, "lon": 77.1592887, "tags": {"addr:city": "New Delhi", "addr:housenumber": "Sector-3", "addr:postcode": "110070", "addr:street": "Vasant Kunj,", "amenity": "clinic", "healthcare": "clinic", "healthcare:speciality": "orthopaedics", "name": "Dr Rajat Mahajan Clinic", "operator": "Novosalus", "operator:type": "private"}}, {"type": "node", "id": 10861879911, "lat": 28.742335, "lon": 77.1651045, "tags": {"amenity": "clinic", "healthcare": "clinic", "name": "Mohalla Clinic"}}, {"type": "node", "id": 10885854793, "lat": 28.7154249, "lon": 77.1791847}, {"type": "node", "id": 10885854804, "lat": 28.7152565, "lon": 77.1790002}, {"type": "node", "id": 10885892212, "lat": 28.7155891, "lon": 77.1789898}, {"type": "node", "id": 10891378002, "lat": 28.7153133, "lon": 77.1790624, "tags": {"barrier": "gate"}}, {"type": "node", "id": 10891419624, "lat": 28.7154816, "lon": 77.1791174}, {"type": "node", "id": 10901403991, "lat": 28.7145083, "lon": 77.1726254, "tags": {"addr:housenumber": "A6", "amenity": "clinic", "healthcare": "clinic", "name": "Sehgal Nursing Home"}}, {"type": "node", "id": 10911422972, "lat": 28.6225607, "lon": 77.2896029}, {"type": "node", "id": 10911422973, "lat": 28.6226575, "lon": 77.2903232, "tags": {"amenity": "clinic", "healthcare": "clinic", "level": "0", "name": "Chauhan Clinic", "opening_hours": "Mo-Sa 19:00-21:00", "operator": "Doctor Aarti Chauhan", "wheelchair": "no"}}, {"type": "node", "id": 10911422976, "lat": 28.6225882, "lon": 77.289587}, {"type": "node", "id": 10911422981, "lat": 28.6224875, "lon": 77.289442}, {"type": "node", "id": 10911422989, "lat": 28.622515, "lon": 77.289426}, {"type": "node", "id": 10926188690, "lat": 28.7532965, "lon": 77.1624661}, {"type": "node", "id": 10926234315, "lat": 28.7534758, "lon": 77.1622994}, {"type": "node", "id": 10926234324, "lat": 28.7534695, "lon": 77.1624658}, {"type": "node", "id": 10926234345, "lat": 28.7532966, "lon": 77.1622969}, {"type": "node", "id": 10926234366, "lat": 28.7534693, "lon": 77.162439, "tags": {"barrier": "gate"}}, {"type": "node", "id": 10931697753, "lat": 28.6229627, "lon": 77.2903325, "tags": {"addr:block": "B", "addr:city": "Delhi", "addr:housenumber": "89", "addr:postcode": "110092", "addr:street": "Gali #2", "addr:suburb": "Mandawali Fazalpur", "amenity": "clinic", "contact:mobile": "+91-95601-97617;+91-85276-63867", "healthcare": "clinic", "name": "Ahmad Health Centre", "wheelchair": "no"}}, {"type": "node", "id": 11048830049, "lat": 28.7423181, "lon": 77.1659751, "tags": {"addr:block": "A", "addr:full": "A-361, Bhalswa Dairy", "addr:housenumber": "361", "addr:suburb": "Bhalswa Dairy", "amenity": "clinic", "contact:mobile": "+91-99906-27389;+91-70112-16391", "healthcare": "clinic", "healthcare:speciality": "general;gynaecology;paediatrics", "name": "Navjeevan Medical Center", "opening_hours": "Mo-Sa 09:30-13:30, 17:00-20:30; Su 09:30-13:30"}}, {"type": "node", "id": 11054407759, "lat": 28.5506762, "lon": 77.2339192, "tags": {"addr:block": "M", "addr:housenumber": "73/3", "amenity": "clinic", "contact:mobile": "+91-98913-21333", "contact:website": "https://geetabhalla.com", "healthcare": "clinic", "healthcare:speciality": "dietician", "level": "0", "name": "Dietitian Geeta Bhalla", "wheelchair": "no"}}, {"type": "node", "id": 11067132371, "lat": 28.7513866, "lon": 77.1719194, "tags": {"amenity": "clinic", "healthcare": "clinic", "name": "Mohalla Clinic"}}, {"type": "node", "id": 11091069270, "lat": 28.6374434, "lon": 77.3040538, "tags": {"entrance": "yes", "wheelchair": "no"}}, {"type": "node", "id": 11091069272, "lat": 28.6376325, "lon": 77.3040456, "tags": {"entrance": "yes", "wheelchair": "no"}}, {"type": "node", "id": 11091069273, "lat": 28.6375459, "lon": 77.3041297, "tags": {"entrance": "yes", "wheelchair": "yes"}}, {"type": "node", "id": 11113323432, "lat": 28.6367178, "lon": 77.3048481, "tags": {"addr:block": "A", "addr:housenumber": "9", "addr:suburb": "Madhu Vihar", "amenity": "clinic", "healthcare": "clinic", "healthcare:speciality": "paediatrics;gynaecology", "level": "0", "name": "Agarwal Polyclinic and Lab", "note": "Child specialist timings Mo-Sa 11:00-13:00, 17:30-19:30; gynaecologist timings Mo-Sa 10:00-11:00"}}, {"type": "node", "id": 11210274634, "lat": 28.6321769, "lon": 77.2785795, "tags": {"addr:street": "CR road", "amenity": "clinic", "name": "Shikhar health care"}}, {"type": "node", "id": 11212510416, "lat": 28.6323835, "lon": 77.28062, "tags": {"amenity": "clinic", "name": "Sharma clinic & Maternity Home", "phone": "+911143042385"}}, {"type": "node", "id": 11235990462, "lat": 28.7173148, "lon": 77.1707829, "tags": {"addr:block": "A", "addr:city": "Delhi", "addr:housenumber": "18", "addr:neighbourhood": "Adarsh Nagar", "addr:parentstreet": "Rajan Babu Road", "addr:postcode": "110033", "addr:street": "Rama Road", "amenity": "clinic", "check_date": "2023-04-10", "healthcare": "clinic", "level": "0", "name": "Sai Clinic"}}, {"type": "node", "id": 11236542434, "lat": 28.7184574, "lon": 77.1721942, "tags": {"amenity": "clinic", "check_date": "2023-04-14", "contact:mobile": "+91-98996-74340", "healthcare": "clinic", "healthcare:speciality": "paediatrics", "level": "0", "name": "Doctor Nitin Jain"}}, {"type": "node", "id": 11236553342, "lat": 28.7184766, "lon": 77.172227, "tags": {"amenity": "clinic", "check_date": "2023-04-14", "contact:mobile": "+91-9555-232-927;+91-9599-290-513", "contact:phone": "+91-11-2767-5619", "healthcare": "clinic", "healthcare:speciality": "dermatology", "name": "Sai Skin Clinic", "opening_hours": "Mo,We,Fr 12:00-16:00; Tu,Th 12:00-14:00, 17:00-19:00; Sa 17:00-21:00"}}, {"type": "node", "id": 11238396921, "lat": 28.6334376, "lon": 77.2820976, "tags": {"amenity": "clinic", "name": "Rediant Clinic"}}, {"type": "node", "id": 11262683257, "lat": 28.6391169, "lon": 77.2791304, "tags": {"amenity": "clinic", "name": "Khanna clinic", "opening_hours": "Mo-Su 10:00-14:00, 18:00-22:00", "phone": "+919810358668"}}, {"type": "node", "id": 11263928669, "lat": 28.5530588, "lon": 77.235332, "tags": {"amenity": "clinic", "check_date": "2023-10-15", "healthcare": "clinic", "name": "MP Heart Clinic"}}, {"type": "node", "id": 11299681569, "lat": 28.5730696, "lon": 77.2380564, "tags": {"amenity": "clinic", "name:ar": "\u0634\u0631\u0643\u0629 \u0623\u0645\u0631\u064a\u0643\u064a\u0629 \u0644\u0635\u0646\u0627\u0639\u0629 \u0627\u0644\u0627\u0637\u0631\u0627\u0641"}}, {"type": "node", "id": 11304153784, "lat": 28.5553896, "lon": 77.2414598}, {"type": "node", "id": 11304153785, "lat": 28.5553767, "lon": 77.2414758}, {"type": "node", "id": 11368545103, "lat": 28.5652709, "lon": 77.2405358, "tags": {"amenity": "clinic", "contact:mobile": "+91-893-893-9292", "contact:website": "https://www.crystaivf.com/", "healthcare": "clinic", "healthcare:speciality": "fertility", "name": "Crysta IVF Fertility Center"}}, {"type": "node", "id": 11391518727, "lat": 28.7367983, "lon": 77.1107394, "tags": {"addr:block": "H-4", "addr:housenumber": "30", "addr:neighbourhood": "Sector 11", "addr:suburb": "Rohini", "amenity": "clinic", "contact:mobile": "+91-98111-64161;+91-98111-65617", "healthcare": "clinic", "healthcare:speciality": "general;paediatrics", "name": "Asha Clinic", "opening_hours": "Mo-Sa 11:00-13:00, 17:00-21:00"}}, {"type": "node", "id": 11409229305, "lat": 28.7361202, "lon": 77.109253, "tags": {"amenity": "clinic", "contact:mobile": "+91-98997-03838", "healthcare": "clinic", "healthcare:speciality": "cosmetology;plastic_surgery", "level": "0", "name": "Jindal Cosmetology and Plastic Surgery", "opening_hours": "Mo-Sa 17:30-19:30"}}, {"type": "node", "id": 11409229308, "lat": 28.7361385, "lon": 77.109236, "tags": {"amenity": "clinic", "contact:mobile": "+91-98995-00094", "contact:phone": "+91-11-4984-7208", "healthcare": "clinic", "healthcare:speciality": "ophthalmology", "level": "0", "name": "Jindal Eye Care", "opening_hours": "Mo-Sa 12:00-14:00, 17:30-19:30"}}, {"type": "node", "id": 11581275761, "lat": 28.6361631, "lon": 77.3044716, "tags": {"amenity": "clinic", "contact:mobile": "+91-99900-68826", "fixme": "Cardiologist timings Mo-Sa 12:00-14:00, pediatrician timings Mo-Sa 18:00-20:00", "healthcare": "clinic", "healthcare:speciality": "cardiology;paediatrics", "level": "0", "name": "IP Heart Care Clinic", "wheelchair": "no"}}, {"type": "node", "id": 11594245908, "lat": 28.549769, "lon": 77.2340861, "tags": {"amenity": "clinic", "healthcare": "clinic", "healthcare:speciality": "dermatology;otolaryngology", "level": "-1", "name": "The Skin Centre"}}, {"type": "node", "id": 11633754782, "lat": 28.6444672, "lon": 77.1711946}, {"type": "node", "id": 11633754785, "lat": 28.6439927, "lon": 77.1712967}, {"type": "node", "id": 11633754791, "lat": 28.6441818, "lon": 77.170976}, {"type": "node", "id": 11633754793, "lat": 28.6442781, "lon": 77.1715152}, {"type": "node", "id": 11648825606, "lat": 28.5493022, "lon": 77.2348475, "tags": {"addr:block": "M", "addr:city": "Delhi", "addr:housenumber": "20", "addr:street": "Hans Raj Gupta Marg", "addr:suburb": "Greater Kailash 1", "amenity": "clinic", "contact:mobile": "+91-81309-44227", "contact:website": "https://akclinics.org", "healthcare": "clinic", "healthcare:speciality": "dermatology;plastic_surgery", "level": "0", "name": "AK Clinics"}}, {"type": "node", "id": 11672397828, "lat": 28.5500478, "lon": 77.2338654, "tags": {"amenity": "clinic", "contact:phone": "+91-11-4226-3230;+91-11-4004-3231", "healthcare": "clinic", "healthcare:speciality": "hepatology;general;gynaecology;paediatrics;cardiology;gastroenterology;internal;oncology", "level": "0", "name": "Spandan Super Speciality Clinic"}}, {"type": "node", "id": 11687907877, "lat": 28.6840891, "lon": 77.318886, "tags": {"amenity": "clinic", "healthcare": "clinic", "name": "HOMEOPATHIC CLINIC"}}, {"type": "node", "id": 11691430923, "lat": 28.5625994, "lon": 77.0535741, "tags": {"amenity": "clinic", "healthcare": "clinic", "name": "CGHS"}}, {"type": "node", "id": 11696972219, "lat": 28.5492157, "lon": 77.2350998, "tags": {"addr:block": "M", "addr:housenumber": "24", "addr:suburb": "Greater Kailash 1", "amenity": "clinic", "contact:mobile": "+91-93542-09099", "healthcare": "clinic", "healthcare:speciality": "gastroenterology;ophthalmology", "level": "1", "name": "RG Super Speciality"}}, {"type": "node", "id": 11738339138, "lat": 28.5903128, "lon": 77.0882874}, {"type": "node", "id": 11738339139, "lat": 28.590312, "lon": 77.0883413}, {"type": "node", "id": 11738339140, "lat": 28.5902654, "lon": 77.0883449}, {"type": "node", "id": 11738339141, "lat": 28.5902654, "lon": 77.0882937}, {"type": "node", "id": 11773657377, "lat": 28.5673384, "lon": 77.216987, "tags": {"amenity": "clinic", "name": "Proderm Skin & Hair clinic"}}, {"type": "node", "id": 11786214075, "lat": 28.5377798, "lon": 77.2470631, "tags": {"addr:city": "New Delhi", "addr:district": "Delhi", "addr:postcode": "110019", "addr:street": "OrthoDocs Physical Therapy Clinic 1933, Block J Basement, Kali Mandir Marg", "amenity": "clinic", "healthcare": "clinic", "healthcare:speciality": "orthopaedics;pregnancy_exercise_specialist", "name": "OrthoDocs Physical Therapy Clinic", "operator": "Novosalus Technology", "operator:type": "private"}}, {"type": "node", "id": 11813654139, "lat": 28.5878707, "lon": 77.168874, "tags": {"amenity": "clinic", "check_date": "2024-04-13", "healthcare": "clinic", "level": "1", "name": "Medi Derma Laser Clinic", "wheelchair": "no"}}, {"type": "node", "id": 11837484593, "lat": 28.5967123, "lon": 77.1231454, "tags": {"amenity": "clinic", "healthcare": "clinic", "level": "0", "name": "Kailash Medical Specialities Centre"}}, {"type": "node", "id": 11837484604, "lat": 28.596167, "lon": 77.1228663, "tags": {"amenity": "clinic", "healthcare": "clinic", "level": "0", "name": "Satyan Polyclinic", "opening_hours": "mo-sa 11:00-13:00; mo-sa 17:00-19:30", "phone": "+91 11 2569 9797"}}, {"type": "node", "id": 11837484633, "lat": 28.5962239, "lon": 77.1229022, "tags": {"amenity": "clinic", "healthcare": "clinic", "level": "0", "name": "Enkay Eye Care", "opening_hours": "Mo-Sa 09:30-13:00; Mo-Sa 17:30-19:00", "phone": "9910714453"}}, {"type": "node", "id": 11849711932, "lat": 28.6772095, "lon": 77.2080449, "tags": {"amenity": "clinic", "healthcare": "clinic", "level": "0", "name": "Dr. Grover's Clinic", "opening_hours": "Mo-Sa 09:30-13:00; Mo-Sa 17:30-20:30", "operator": "Dr. M.K. Grover", "phone": "9810884590; 8851001285"}}, {"type": "node", "id": 11850111495, "lat": 28.5951124, "lon": 77.1222765, "tags": {"amenity": "clinic", "healthcare": "clinic", "healthcare:speciality": "gynaecology;paediatrics", "level": "1", "name": "Devaki Clinic", "operator": "Dr. Anurita Bhalla"}}, {"type": "node", "id": 11896843360, "lat": 28.5964062, "lon": 77.1340475, "tags": {"amenity": "clinic", "baby_feeding": "no", "healthcare": "clinic", "healthcare:speciality": "dermatology", "level": "0", "name": "Vani Skin And Hair Clinic"}}, {"type": "node", "id": 11915022964, "lat": 28.6307454, "lon": 77.2773737}, {"type": "node", "id": 11915022967, "lat": 28.6306876, "lon": 77.2772897}, {"type": "node", "id": 11915038270, "lat": 28.6310405, "lon": 77.2769082}, {"type": "node", "id": 11915038273, "lat": 28.6306989, "lon": 77.2771481}, {"type": "node", "id": 11915038275, "lat": 28.6307228, "lon": 77.2773409, "tags": {"barrier": "gate", "entrance": "yes"}}, {"type": "node", "id": 11915038288, "lat": 28.6311197, "lon": 77.2770913}, {"type": "node", "id": 11915038296, "lat": 28.6307563, "lon": 77.277232}, {"type": "node", "id": 11916137243, "lat": 28.6172043, "lon": 77.0306765, "tags": {"amenity": "clinic", "check_date": "2024-05-18", "healthcare": "clinic", "healthcare:speciality": "dentistry;dentist", "name": "The Anchor Dental Clinic", "operator:type": "private"}}, {"type": "node", "id": 11918192863, "lat": 28.6309506, "lon": 77.2772168}, {"type": "node", "id": 11919418032, "lat": 28.5653124, "lon": 77.2420742, "tags": {"addr:city": "New Delhi", "addr:district": "Delhi", "addr:housenumber": "2nd/3rd", "addr:postcode": "110024", "addr:street": "Path in I Block Park in Lajpat Nagar 3", "amenity": "clinic", "emergency": "yes", "healthcare": "clinic", "healthcare:speciality": "fertility", "name": "Birla Fertility & IVF"}}, {"type": "node", "id": 11946772369, "lat": 28.6136582, "lon": 77.0326356, "tags": {"amenity": "clinic", "check_date": "2024-05-31", "healthcare": "clinic", "healthcare:speciality": "fertility", "name": "Benison IVF & Healthcare Clinic", "operator": "Datta Healthcare", "operator:type": "private", "phone": "+91 72900 23950", "website": "https://www.benisonivf.com"}}, {"type": "node", "id": 11947456407, "lat": 28.5941155, "lon": 77.0171182, "tags": {"amenity": "clinic", "healthcare": "clinic", "name": "Medical room IPU"}}, {"type": "node", "id": 11962826232, "lat": 28.5950107, "lon": 77.1211995, "tags": {"amenity": "clinic", "healthcare": "clinic", "level": "0", "name": "Family Wellness Clinic"}}, {"type": "node", "id": 11985412785, "lat": 28.6436517, "lon": 77.2984564, "tags": {"amenity": "clinic", "healthcare": "clinic", "level": "0", "name": "Doctor Anand Imaging"}}, {"type": "node", "id": 11993705204, "lat": 28.637611, "lon": 77.3039865}, {"type": "node", "id": 11993705216, "lat": 28.6374932, "lon": 77.3041195}, {"type": "node", "id": 11993705227, "lat": 28.6375015, "lon": 77.3039256}, {"type": "node", "id": 11993705240, "lat": 28.6376186, "lon": 77.3039971}, {"type": "node", "id": 12050848475, "lat": 28.525311, "lon": 77.2369646, "tags": {"amenity": "clinic", "check_date": "2024-07-13", "healthcare": "clinic"}}, {"type": "node", "id": 12105834066, "lat": 28.6330862, "lon": 77.2816989, "tags": {"amenity": "clinic", "contact:mobile": "+91-96548-72263;+91-96541-50771;+91-93184-49460;+91-78381-80991", "healthcare": "clinic", "healthcare:speciality": "dermatology;dentistry", "level": "0", "name": "Surat Dental and Skin Care"}}, {"type": "node", "id": 12172358088, "lat": 28.7368719, "lon": 77.1357045, "tags": {"amenity": "clinic", "healthcare": "clinic", "healthcare:speciality": "ophthalmology", "level": "3", "name": "Dr. Ashwani Ghai's Eye Care Clinic"}}, {"type": "node", "id": 12208700816, "lat": 28.5689114, "lon": 77.2480083, "tags": {"amenity": "clinic", "check_date": "2024-09-29", "healthcare": "clinic", "name": "Habilite Clinics"}}, {"type": "node", "id": 12208769449, "lat": 28.5680466, "lon": 77.246961, "tags": {"amenity": "clinic", "check_date": "2024-09-29", "description": "Polyclinic Pathlab, X-ray, Dental", "healthcare": "clinic", "level": "3", "name": "Kharbanda Polyclinic", "wheelchair": "no"}}, {"type": "node", "id": 12334823941, "lat": 28.5876151, "lon": 77.2166248, "tags": {"amenity": "clinic", "check_date": "2024-11-12", "healthcare": "clinic"}}, {"type": "node", "id": 12385665493, "lat": 28.5842892, "lon": 77.0715181, "tags": {"amenity": "clinic", "check_date": "2024-11-30", "healthcare": "clinic", "name": "Prime IVF Centre"}}, {"type": "node", "id": 12390182094, "lat": 28.6149948, "lon": 77.0329543, "tags": {"amenity": "clinic", "check_date": "2024-12-02", "healthcare": "clinic", "name": "Dr Pathak Clinic"}}, {"type": "node", "id": 12397231937, "lat": 28.6303988, "lon": 77.0217007, "tags": {"amenity": "clinic", "check_date": "2024-12-05", "healthcare": "clinic", "name": "Delhi Govt Mohalla Clinic"}}, {"type": "node", "id": 12495441510, "lat": 28.6974623, "lon": 77.2045936, "tags": {"amenity": "clinic", "check_date": "2025-01-12", "healthcare": "clinic", "name": "Dr. Shikha's Dental Clinic", "operator:type": "public", "phone": "+91 95602 22949"}}, {"type": "node", "id": 12535573543, "lat": 28.6572596, "lon": 77.2034195, "tags": {"amenity": "clinic", "healthcare": "clinic", "level": "0", "name": "SGD Diagnostic Centre"}}, {"type": "node", "id": 12548074466, "lat": 28.5876255, "lon": 77.0713148, "tags": {"amenity": "clinic", "check_date": "2025-02-01", "healthcare": "clinic", "level": "-1", "name": "Milkos Cosmetic Dental Clinic"}}, {"type": "node", "id": 12588966448, "lat": 28.5886946, "lon": 77.0714085, "tags": {"amenity": "clinic", "check_date": "2025-02-15", "healthcare": "clinic", "level": "1", "name": "Dr Brijmohan Arora"}}, {"type": "node", "id": 12588966449, "lat": 28.5886934, "lon": 77.0714222, "tags": {"amenity": "clinic", "check_date": "2025-02-15", "healthcare": "clinic", "level": "1", "name": "Med Care Multi-speciality Medical And Dental Laser Center"}}, {"type": "node", "id": 12588984973, "lat": 28.5898063, "lon": 77.0714444, "tags": {"amenity": "clinic", "check_date": "2025-02-15", "healthcare": "clinic", "level": "1", "name": "Indira IVF"}}, {"type": "node", "id": 12593022004, "lat": 28.5655203, "lon": 77.1889343}, {"type": "node", "id": 12593022005, "lat": 28.5655283, "lon": 77.1888606}, {"type": "node", "id": 12593022006, "lat": 28.5654365, "lon": 77.1888476}, {"type": "node", "id": 12593022007, "lat": 28.5654284, "lon": 77.1889213}, {"type": "node", "id": 12596614702, "lat": 28.6700682, "lon": 77.2883841, "tags": {"amenity": "clinic", "healthcare": "clinic", "name": "Vats Medical Centre"}}, {"type": "node", "id": 12647113757, "lat": 28.59532, "lon": 77.0409497, "tags": {"amenity": "clinic", "healthcare": "clinic", "level": "0", "name": "Pinaak Health Care"}}, {"type": "node", "id": 12647123146, "lat": 28.5966661, "lon": 77.0396859, "tags": {"amenity": "clinic", "healthcare": "clinic", "healthcare:speciality": "orthopaedics", "name": "QI Spine"}}, {"type": "node", "id": 12669724709, "lat": 28.5579657, "lon": 77.2072939, "tags": {"amenity": "clinic", "check_date": "2025-03-16", "healthcare": "clinic", "level": "1", "name": "Amar Homeo Healers"}}, {"type": "node", "id": 12676484917, "lat": 28.6235493, "lon": 77.2901079, "tags": {"amenity": "clinic", "contact:mobile": "+91-935544-2024", "healthcare": "clinic", "level": "0", "name": "Primary Healthcare", "wheelchair": "no"}}, {"type": "node", "id": 12739058152, "lat": 28.6244425, "lon": 77.2900848, "tags": {"addr:block": "A", "addr:city": "Delhi", "addr:housenumber": "307/2", "addr:postcode": "110092", "addr:street": "Buddha Marg", "addr:suburb": "Mandawali", "amenity": "clinic", "contact:mobile": "+91-98715-56020;+91-81780-46190", "description": "\"Lab, X-Ray, ECG, Physiotherapy\"", "healthcare": "clinic", "level": "0", "name": "Shiv-Shakti Charitable Medical Center", "wheelchair": "no"}}, {"type": "node", "id": 12786144103, "lat": 28.6229016, "lon": 77.2931845, "tags": {"amenity": "clinic", "contact:mobile": "+91-81788-78438;+91-88005-32098", "healthcare": "clinic", "level": "0", "name": "Shreya Health Care", "opening_hours": "08:00-20:00", "wheelchair": "no"}}, {"type": "node", "id": 12800815784, "lat": 28.6219972, "lon": 77.2919224, "tags": {"addr:unit": "5", "amenity": "clinic", "contact:mobile": "+91-98713-93739;+91-98106-74329", "healthcare": "clinic", "level": "0", "name": "Mahajan Clinic", "opening_hours": "Mo-Sa 09:30-13:00, 18:00-21:00; Su 10:00-13:00"}}, {"type": "node", "id": 12828285627, "lat": 28.7083223, "lon": 77.1243361, "tags": {"amenity": "clinic", "healthcare": "clinic", "healthcare:speciality": "paediatrics;vaccination", "kids_area": "no", "level": "0"}}, {"type": "node", "id": 12828293686, "lat": 28.7066846, "lon": 77.1267988, "tags": {"addr:street": "Rohini", "amenity": "clinic", "healthcare": "clinic", "level": "1", "name": "CAPRI SPINE CLINIC"}}, {"type": "node", "id": 12828293687, "lat": 28.7068318, "lon": 77.1266069, "tags": {"addr:housenumber": "148", "addr:street": "Rohini", "amenity": "clinic", "building": "yes", "healthcare": "clinic", "level": "0", "name": "Dr.Lal PathLabs"}}, {"type": "node", "id": 12828298384, "lat": 28.7065568, "lon": 77.1270078, "tags": {"amenity": "clinic", "healthcare": "clinic", "healthcare:speciality": "fertility", "level": "0", "name": "Nova IVF"}}, {"type": "node", "id": 12828302097, "lat": 28.7067202, "lon": 77.1268359, "tags": {"amenity": "clinic", "healthcare": "clinic", "healthcare:speciality": "fertility", "level": "1", "mobile": "+91 95602 56261;+91 98717 44665", "name": "Fetal Medicine & Child Clinic"}}, {"type": "node", "id": 12828302100, "lat": 28.7067328, "lon": 77.1268498, "tags": {"amenity": "clinic", "healthcare": "clinic", "healthcare:speciality": "fertility", "level": "4", "name": "India IVF"}}, {"type": "node", "id": 12828317913, "lat": 28.7067983, "lon": 77.1266593, "tags": {"addr:housenumber": "148", "addr:street": "Rohini East", "amenity": "clinic", "healthcare": "clinic", "healthcare:speciality": "fertility", "level": "0", "name": "Birla fertility & IVF"}}, {"type": "node", "id": 12828320114, "lat": 28.7069559, "lon": 77.1261318, "tags": {"amenity": "clinic", "healthcare": "clinic", "mobile": "+91 98100 40549", "name": "Dr. Anil Handa", "opening_hours": "Mo-Su 11:00-13:00,18:00-20:15; PH closed"}}, {"type": "node", "id": 12828356137, "lat": 28.7090952, "lon": 77.1233571, "tags": {"amenity": "clinic", "healthcare": "clinic", "name": "The Jrop Clinic", "phone": "+91 9312624864"}}, {"type": "node", "id": 12828356220, "lat": 28.706412, "lon": 77.1226624, "tags": {"amenity": "clinic", "healthcare": "clinic", "healthcare:speciality": "dermatology", "name": "Wonder Hair Solution"}}, {"type": "node", "id": 12839647640, "lat": 28.6399323, "lon": 77.2040074, "tags": {"amenity": "clinic", "healthcare": "clinic", "level": "1", "name": "Ayush Polyclinic", "operator": "New Delhi Municipal Council"}}, {"type": "node", "id": 12896611359, "lat": 28.6325356, "lon": 77.207086, "tags": {"amenity": "clinic", "contact:mobile": "+91 92112 55993", "contact:phone": "+91 113442424", "healthcare": "clinic", "level": "0", "name": "Apollo Diagnostica Bones & Joints Clinic"}}, {"type": "node", "id": 12943429976, "lat": 28.6191171, "lon": 77.1361578, "tags": {"amenity": "clinic", "name": "Mohalla Clinic", "name:hi": "\u092e\u094b\u0939\u0932\u094d\u0932\u093e \u0915\u094d\u0932\u093f\u0928\u093f\u0915"}}, {"type": "node", "id": 12969324748, "lat": 28.5966675, "lon": 77.0396743, "tags": {"addr:block": "A", "addr:district": "New Delhi", "addr:floor": "2", "addr:housenumber": "28", "addr:place": "Dwarka Sector 12", "addr:postcode": "110075", "addr:street": "Dwarka Sector 12A Road", "amenity": "clinic", "contact:facebook": "https://www.facebook.com/anvayahealthcareclinic/", "description": "Anvaya Healthcare is a mental health clinic in Dwarka, Delhi. Anvaya Healthcare provides counselling, therapy, and psychiatry-related services for mental well-being. The team consists of mental health experts, including psychiatrists and psychologists.", "email": "info@anvayahealthcare.com", "emergency": "yes", "fax": "+91 98106 59825", "healthcare": "clinic", "healthcare:speciality": "psychiatry;psychotherapist;psychology;neuropsychiatry", "image": "https://anvayahealthcare.com/wp-content/uploads/2024/12/cropped-Anvaya-Healthcare-Logo.png", "level": "2", "loc_name": "Anvaya Healthcare", "mobile": "+91 98106 59825", "name": "Anvaya Healthcare", "official_name": "Anvaya Healthcare", "opening_hours": "Mo-Sa 09:00-18:00", "website": "https://anvayahealthcare.in", "wheelchair": "yes"}}, {"type": "node", "id": 13061156433, "lat": 28.5384915, "lon": 77.2997698, "tags": {"amenity": "clinic", "healthcare": "clinic", "name": "Health and Wellness Centre"}}, {"type": "node", "id": 13110127583, "lat": 28.6801418, "lon": 77.20252, "tags": {"amenity": "clinic", "healthcare": "clinic", "name": "Aam Aadmi Mohalla Clinic"}}, {"type": "node", "id": 13114177153, "lat": 28.5444853, "lon": 77.2177387, "tags": {"barrier": "gate"}}, {"type": "node", "id": 13114177164, "lat": 28.5446244, "lon": 77.2176813}, {"type": "node", "id": 13114178022, "lat": 28.5445, "lon": 77.2176533}, {"type": "node", "id": 13114178055, "lat": 28.544595, "lon": 77.2178577}, {"type": "node", "id": 13114178111, "lat": 28.5444721, "lon": 77.2178253}, {"type": "node", "id": 13142481901, "lat": 28.5484105, "lon": 77.2166727, "tags": {"amenity": "clinic", "healthcare": "clinic", "name": "Dr. P.K. Goyal"}}, {"type": "node", "id": 13192478575, "lat": 28.5618777, "lon": 77.2531937, "tags": {"amenity": "clinic", "healthcare": "clinic", "name": "Nobel Diagnostics, Nobel Gynae Clinic"}}, {"type": "node", "id": 13193794439, "lat": 28.5618777, "lon": 77.2531937, "tags": {"amenity": "clinic", "healthcare": "clinic", "name": "Nobel Diagnostics, Nobel Gynae Clinic"}}, {"type": "node", "id": 13195826650, "lat": 28.6001296, "lon": 77.3176768, "tags": {"amenity": "clinic", "healthcare": "clinic", "name": "Suhani Clinic"}}, {"type": "node", "id": 13202970130, "lat": 28.6048094, "lon": 77.3323874, "tags": {"amenity": "clinic", "healthcare": "clinic", "name": "Aam Aadmi Mohallah Clinic"}}, {"type": "node", "id": 13227565031, "lat": 28.5944341, "lon": 77.0475978, "tags": {"amenity": "clinic", "healthcare": "clinic", "healthcare:speciality": "gynaecology;obstetrics", "name": "Ipsita Medicare", "operator": "Doctor Nileshma Pandey"}}, {"type": "node", "id": 13227576855, "lat": 28.5932654, "lon": 77.0466196, "tags": {"amenity": "clinic", "healthcare": "clinic", "healthcare:speciality": "Nutrition", "level": "0", "name": "Doctor Sugeeta Mutreja's Diets and Nutrition Clinic"}}, {"type": "way", "id": 348200592, "nodes": [3742310541, 3543759314, 3543758791, 3543758790, 3742310524, 3742310541], "tags": {"addr:housenumber": "B-38", "addr:place": "Golf Links", "addr:street": "Archbishop Makarios Marg", "amenity": "clinic", "building": "yes", "healthcare": "clinic", "name": "East West Medical Center"}}, {"type": "way", "id": 350570153, "nodes": [3563202721, 3563202718, 3563202708, 3563202711, 3563202721], "tags": {"addr:city": "New Delhi", "addr:housenumber": "E-18", "addr:postcode": "110024", "addr:street": "Defence Colony", "amenity": "clinic", "building": "yes", "healthcare": "clinic", "name": "Medanta Mediclinic", "opening_hours": "Mo-Sa 08:00-20:00", "operator": "Medanta", "operator:type": "private"}}, {"type": "way", "id": 350852625, "nodes": [3565901086, 3565901078, 3565901084, 3565901093, 3565901086], "tags": {"amenity": "clinic", "building": "yes", "healthcare": "clinic", "name": "Delhi Government Dispensary"}}, {"type": "way", "id": 350854946, "nodes": [7138493127, 3565911902, 3565911791, 3565911896, 7138493127], "tags": {"addr:district": "West", "addr:full": "Jhule Lal Marg, Block A, New Moti Nagar, New Delhi", "addr:postcode": "110015", "addr:state": "Delhi", "amenity": "clinic", "building": "yes", "contact:phone": "25428886", "description": "MCD Center", "health_facility:type": "dispensary", "healthcare": "clinic", "name": "MCD New Moti Nagar", "source": "OpenGovernmentData"}}, {"type": "way", "id": 351576409, "nodes": [3573866639, 3573866618, 3573863884, 3573866598, 3573866639], "tags": {"amenity": "clinic", "building": "yes", "healthcare": "clinic"}}, {"type": "way", "id": 351578150, "nodes": [3573881947, 11993705204, 11993705240, 3573881959, 11091069272, 11091069273, 3573881946, 11993705216, 11091069270, 3573881940, 11993705227, 3573881947], "tags": {"addr:housenumber": "F-1;F-2", "addr:place": "Madhu Vihar", "addr:postcode": "110092", "amenity": "clinic", "building": "yes", "building:colour": "white", "building:levels": "5", "building:levels:underground": "1", "contact:phone": "+91 11 4316 2346;+91 11 4316 2347;+91 11 4316 2348", "healthcare": "clinic", "name": "Ahinsa Dham", "note": "Report collection time 08:00-19:30; blood collection time Mo-Sa 8:00-19:00", "operator": "Ahinsa Jain Dharmarth Sansthan", "roof:shape": "flat"}}, {"type": "way", "id": 351584017, "nodes": [3573923067, 3573923084, 3573923063, 3573923045, 3573923067], "tags": {"amenity": "clinic", "building": "yes", "healthcare": "clinic", "name": "Aam Aadmi Mohalla Clinic"}}, {"type": "way", "id": 351840815, "nodes": [7138493192, 3576438291, 3576438290, 3576438292, 7138493192], "tags": {"addr:district": "New Delhi", "addr:full": "CGHS Disp Building, R.K. Puram, Opp. Venkateshwar Temple", "addr:postcode": "110022", "addr:state": "Delhi", "amenity": "clinic", "building": "yes", "contact:phone": "011-26175323", "description": "Dispensaries", "health_facility:type": "dispensary", "healthcare": "clinic", "name": "CGHS Dispensary R.K.Puram sec-2", "source": "OpenGovernmentData"}}, {"type": "way", "id": 351869713, "nodes": [7138493237, 3576678075, 3576678077, 3576678091, 7138493237], "tags": {"addr:district": "West", "addr:full": "A-4/A Block, Sardar Mota Singh Marg, Janakpuri, Near Chander Nagar", "addr:postcode": "110058", "addr:state": "Delhi", "amenity": "clinic", "building": "yes", "contact:phone": "25610257", "description": "Dispensaries", "health_facility:type": "dispensary", "healthcare": "clinic", "name": "DGD Janakpuri A4 Block", "operator": "Delhi Government", "source": "OpenGovernmentData"}}, {"type": "way", "id": 352467406, "nodes": [3582576940, 3582576941, 3583123349, 3583123344, 3583123335, 3583123341, 3582576939, 3582576938, 3583123315, 3583123322, 3583123329, 3583123321, 3582576940], "tags": {"addr:city": "Dilshad Garden, Delhi", "addr:district": "Shahdara", "addr:housenumber": "No. 87, Pkt B", "addr:postcode": "110095", "addr:street": "G.T.B Road", "amenity": "clinic", "building": "yes", "contact:phone": "22596489", "description": "Dispensary", "health_facility:type": "dispensary", "healthcare": "clinic", "name": "CGHS Dishad Garden", "source": "OpenGovernmentData"}}, {"type": "way", "id": 352513321, "nodes": [3582865701, 3582865698, 3582865447, 3582865448, 3582865701], "tags": {"addr:city": "New Delhi", "addr:postcode": "110017", "addr:street": "Outer Ring Road", "amenity": "clinic", "building": "yes", "check_date": "2023-11-01", "name": "Max Multi Speciality Centre"}}, {"type": "way", "id": 352538921, "nodes": [3583052185, 3583052184, 3583052186, 3583052187, 3583052185], "tags": {"amenity": "clinic", "building": "yes", "healthcare": "clinic", "name": "Sree Krishna Medical and Research Centre", "opening_hours": "Mo-Su 08:00-20:00"}}, {"type": "way", "id": 352921804, "nodes": [3587089811, 3587089808, 3587089806, 3587089809, 11304153785, 11304153784, 3587089811], "tags": {"addr:block": "A", "addr:city": "New Delhi", "addr:full": "A-18, Lala Lajpat Rai Marg, Block A, Kailash Colony, South Delhi, New Delhi, Delhi - 110048", "addr:housenumber": "18", "addr:postcode": "110048", "addr:street": "Lala Lajpat Rai Marg", "addr:suburb": "Kailash Colony", "amenity": "clinic", "building": "yes", "building:levels": "6", "contact:website": "https://www.cloudninecare.com/centre/kailash-colony", "female": "yes", "healthcare": "clinic", "healthcare:speciality": "gynaecology;abortion;fertility;neonatology", "name": "CloudNine", "roof:shape": "flat"}}, {"type": "way", "id": 436880395, "nodes": [4347364009, 4347364007, 4347364008, 4347364010, 4347364009], "tags": {"addr:city": "Delhi", "addr:country": "IN", "addr:housenumber": "WZ 1367", "addr:place": "Rani Bagh", "addr:postcode": "110034", "amenity": "clinic", "name": "Manna Clinic & Maternity Home & Eyes Care"}}, {"type": "way", "id": 684722534, "nodes": [6415669197, 6415669198, 6415669199, 6415669200, 6415669197], "tags": {"amenity": "clinic", "building": "yes", "healthcare": "clinic", "name": "Mohalla Clinic", "opening_hours": "Mo-Sa 08:00-14:00", "operator": "Delhi Government", "operator:type": "government"}}, {"type": "way", "id": 764094249, "nodes": [7138493184, 7138492342, 7138492341, 7138492340, 7138493184], "tags": {"addr:district": "West", "addr:full": "Block F, sudarshan park", "addr:postcode": "110026", "addr:state": "Delhi", "amenity": "clinic", "building": "yes", "description": "Dispensaries", "health_facility:type": "dispensary", "healthcare": "clinic", "name": "SPUHC Sudharshan park", "source": "OpenGovernmentData"}}, {"type": "way", "id": 764094322, "nodes": [7138493128, 7138493098, 7138493097, 7138493094, 7138493095, 7138493096, 7138493128], "tags": {"addr:district": "West", "addr:full": "F Block, Madipur, Madipur Colony", "addr:postcode": "110063", "addr:state": "Delhi", "amenity": "clinic", "building": "yes", "contact:phone": "011-25213570", "description": "Dispensaries", "health_facility:type": "dispensary", "healthcare": "clinic", "name": "Poly Clinic Madipur", "source": "OpenGovernmentData"}}, {"type": "way", "id": 764098917, "nodes": [7138534420, 7138533837, 7138533838, 7138533839, 7138534420], "tags": {"addr:district": "East", "addr:full": "D96, New Lahor Road, New Lahore Munshi Colony, Geeta Colony, New Delhi", "addr:postcode": "110031", "addr:state": "Delhi", "amenity": "clinic", "building": "yes", "contact:phone": "011-22044900", "description": "Dispensaries", "health_facility:type": "dispensary", "healthcare": "clinic", "name": "DGD, NewLahore Shastri Nagar", "source": "OpenGovernmentData"}}, {"type": "way", "id": 764098928, "nodes": [7138534370, 7138533963, 7138533962, 7138533961, 7138533960, 7138533959, 7138533958, 7138533957, 7138534370], "tags": {"addr:district": "Central", "addr:full": "Phase-I, Community Centre, Rajpura,Gurmandi", "addr:postcode": "110007", "addr:state": "Delhi", "amenity": "clinic", "building": "yes", "contact:phone": "27418261", "description": "Dispensaries", "health_facility:type": "dispensary", "healthcare": "clinic", "name": "DGD, Gur Mandi", "source": "OpenGovernmentData"}}, {"type": "way", "id": 764098941, "nodes": [7138534289, 7138534031, 7138534032, 7138534033, 7138534289], "tags": {"addr:district": "South", "addr:full": "19/561 DDA Flats, Ambedkar Nagar, Village Madangir,New Delhi-62", "addr:postcode": "110062", "addr:state": "Delhi", "amenity": "clinic", "building": "yes", "description": "M&CW Center", "healthcare": "clinic", "name": "MCW Madangir", "source": "OpenGovernmentData"}}, {"type": "way", "id": 764098954, "nodes": [7138534383, 7138534107, 7138534106, 7138534105, 7138534104, 7138534103, 7138534102, 7138534101, 7138534100, 7138534099, 7138534098, 7138534097, 7138534383], "tags": {"addr:district": "East", "addr:full": "DGD Bank Enclave, OPP KOTHI NO. 75, Laxmi Nagar", "addr:postcode": "110092", "addr:state": "Delhi", "amenity": "clinic", "building": "yes", "contact:phone": "011-22304223", "description": "Dispensaries", "health_facility:type": "dispensary", "healthcare": "clinic", "name": "DGD, Bank Enclave", "source": "OpenGovernmentData"}}, {"type": "way", "id": 764108576, "nodes": [7138631693, 7138631692, 7138631691, 7138631690, 7138631693], "tags": {"addr:city": "Dilshad Garden, Delhi", "addr:district": "Shahdara", "addr:housenumber": "A-13/G1&G2 block", "addr:postcode": "110095", "addr:street": "G.T.B Road", "amenity": "clinic", "building": "yes", "contact:phone": "22585490", "description": "Dispensary", "health_facility:type": "dispensary", "healthcare": "clinic", "name": "DGD Dilshad Garden", "source": "OpenGovernmentData"}}, {"type": "way", "id": 764108602, "nodes": [7138632229, 7138631805, 7138631804, 7138631803, 7138632229], "tags": {"addr:district": "South East", "addr:full": "Near IV Story DDA Flat Kalkaji", "addr:postcode": "110019", "addr:state": "Delhi", "amenity": "clinic", "building": "yes", "contact:phone": "011-26281884", "description": "Dispensaries", "health_facility:type": "dispensary", "healthcare": "clinic", "name": "DGD Kalkaji", "source": "OpenGovernmentData"}}, {"type": "way", "id": 764108614, "nodes": [7138632242, 7138631884, 7138631883, 7138631882, 7138632242], "tags": {"addr:district": "Shahdara", "addr:full": "C-2, Jyoti Nagar West", "addr:postcode": "110095", "addr:state": "Delhi", "amenity": "clinic", "building": "yes", "description": "Dispensaries", "health_facility:type": "dispensary", "healthcare": "clinic", "name": "PHC West Jyoti Nagar", "source": "OpenGovernmentData"}}, {"type": "way", "id": 764108624, "nodes": [7138631985, 7138631984, 7138631983, 7138631982, 7138631985], "tags": {"addr:city": "Shahdara", "addr:full": "Babarpur, West Gorakh Park", "addr:postcode": "110032", "amenity": "clinic", "building": "yes", "contact:phone": "22823075", "health_facility:type": "dispensary", "healthcare": "clinic", "name": "MCD Babarpur", "operator": "MCD", "operator:type": "government", "source": "OpenGovernmentData"}}, {"type": "way", "id": 764108644, "nodes": [7138632177, 7138632084, 7138632083, 7138632078, 7138632081, 7138632080, 7138632079, 7138632177], "tags": {"addr:district": "Shahdara", "addr:full": "Busstand, Babarpur", "addr:postcode": "110032", "addr:state": "Delhi", "amenity": "clinic", "building": "yes", "contact:phone": "22820453", "description": "Dispensaries", "health_facility:type": "dispensary", "healthcare": "clinic", "name": "DGD Babarpur", "source": "OpenGovernmentData"}}, {"type": "way", "id": 961276647, "nodes": [8892257395, 8892257396, 8892257397, 8892257398, 8892257395], "tags": {"amenity": "clinic", "building": "yes", "healthcare": "clinic", "name": "SDMC Polyclinic"}}, {"type": "way", "id": 1136416155, "nodes": [10593786440, 10593786431, 10593786448, 10593786419, 10593786440], "tags": {"amenity": "clinic", "healthcare": "clinic", "name:hi": "\u092e\u093e\u0924\u0943-\u0936\u093f\u0936\u0941 \u090f\u0935\u0902 \u0915\u0932\u094d\u092f\u093e\u0923 \u0915\u0947\u0902\u0926\u094d\u0930", "operator": "\u0926\u093f\u0932\u094d\u0932\u0940 \u0928\u0917\u0930 \u0928\u093f\u0917\u092e"}}, {"type": "way", "id": 1164997811, "nodes": [10836285940, 10836285935, 10775213816, 10775213855, 10836285934, 10836285940], "tags": {"amenity": "clinic", "healthcare": "clinic", "name": "Delhi Government Dispensary"}}, {"type": "way", "id": 1171502805, "nodes": [10885892212, 10891419624, 10885854793, 10891378002, 10885854804, 922983250, 10885892212], "tags": {"amenity": "clinic", "barrier": "wall", "healthcare": "clinic"}}, {"type": "way", "id": 1174289119, "nodes": [10911422981, 10911422972, 10911422976, 10911422989, 10911422981], "tags": {"amenity": "clinic", "building": "yes", "healthcare": "clinic", "name": "Aam Admi Mohalla Clinic", "opening_hours": "Mo-Sa 8:00-14:00", "roof:shape": "flat", "wheelchair": "yes"}}, {"type": "way", "id": 1175896936, "nodes": [10926234324, 10926188690, 10926234345, 10926234315, 10926234366, 10926234324], "tags": {"addr:block": "D-1", "addr:city": "Delhi", "addr:hamlet": "JJ Colony", "addr:postcode": "110042", "addr:suburb": "Bhalswa", "amenity": "clinic", "barrier": "wall", "healthcare": "clinic", "name": "Delhi Government Dispensary"}}, {"type": "way", "id": 1251507784, "nodes": [11633754785, 11633754793, 11633754782, 11633754791, 11633754785], "tags": {"amenity": "clinic", "healthcare": "clinic", "healthcare:speciality": "ophthalmology", "name": "Goyal Eye Institute", "name:hi": "\u0917\u094b\u092f\u0932 \u0928\u0947\u0924\u094d\u0930 \u091a\u093f\u0915\u093f\u0924\u094d\u0938\u093e\u0932\u092f"}}, {"type": "way", "id": 1263403980, "nodes": [11738339138, 11738339139, 11738339140, 11738339141, 11738339138], "tags": {"amenity": "clinic", "building": "yes", "healthcare": "clinic", "healthcare:speciality": "general", "name": "Govt clinic", "opening_hours": "Mo-Sa 08:00-20:00", "operator": "Doctor", "operator:type": "government"}}, {"type": "way", "id": 1284317100, "nodes": [11915022964, 11918192863, 11915038288, 11915038270, 11915038273, 11915038296, 11915022967, 11915038275, 11915022964], "tags": {"amenity": "clinic", "healthcare": "clinic"}}, {"type": "way", "id": 1360343076, "nodes": [12593022004, 12593022005, 12593022006, 12593022007, 12593022004], "tags": {"amenity": "clinic", "building": "yes", "healthcare": "clinic", "healthcare:speciality": "general", "name": "Mohalla Clinic", "operator": "Govt. of Delhi", "operator:type": "government"}}, {"type": "way", "id": 1426586709, "nodes": [13114177164, 13114178022, 13114177153, 13114178111, 13114178055, 13114177164], "tags": {"amenity": "clinic", "healthcare": "clinic", "level": "0", "name": "Aam Aadmi Mohalla Clinic"}}]}