{"version": 0.6, "generator": "Overpass API 0.7.62.8 e802775f", "osm3s": {"timestamp_osm_base": "2025-11-29T17:16:58Z", "copyright": "The data included in this document is from www.openstreetmap.org. The data is made available under ODbL."}, "elements": [{"type": "node", "id": 2573370829, "lat": 16.38135, "lon": 76.65558, "tags": {"amenity": "school", "name": "Ekalvya Lower Primary School Thinthani", "name:kn": "\u0c95\u0cbf\u0cb0\u0cbf\u0caf \u0caa\u0ccd\u0cb0\u0cbe\u0ca5\u0cae\u0cbf\u0c95 \u0cb6\u0cbe\u0cb2\u0cc6", "operator": "Government", "school_code": "29330820402", "taluk": "Shorapur"}}, {"type": "node", "id": 2573370841, "lat": 16.39442, "lon": 76.36775, "tags": {"amenity": "school", "name": "Government High School Hagaratgi", "name:kn": "\u0cb8\u0cb0\u0ccd\u0c95\u0cbe\u0cb0\u0cbf \u0caa\u0ccd\u0cb0\u0ccc\u0ca1 \u0cb6\u0cbe\u0cb2\u0cc6 \u0cb9\u0c97\u0cb0\u0c9f\u0c97\u0cbf", "operator": "Government", "school_code": "29330807202", "taluk": "Shorapur"}}, {"type": "node", "id": 2573370849, "lat": 16.35842, "lon": 76.4947, "tags": {"amenity": "school", "name": "Government Higher Primary School Bailakunti", "name:kn": "\u0cb8\u0cb0\u0ccd\u0c95\u0cbe\u0cb0\u0cbf \u0cb9\u0cbf\u0cb0\u0cbf\u0caf \u0caa\u0ccd\u0cb0\u0cbe\u0ca5\u0cae\u0cbf\u0c95 \u0cb6\u0cbe\u0cb2\u0cc6, \u0cac\u0ccb\u0cae\u0ccd\u0cae\u0c97\u0cc1\u0ca1\u0ccd\u0ca1", "operator": "Government", "school_code": "29330801802", "taluk": "Shorapur"}}, {"type": "node", "id": 2573370851, "lat": 16.35546, "lon": 76.47823, "tags": {"amenity": "school", "name": "Government Higher Primary School Bammagudda", "name:kn": "\u0cb8\u0cb0\u0ccd\u0c95\u0cbe\u0cb0\u0cbf \u0cb9\u0cbf\u0cb0\u0cbf\u0caf \u0caa\u0ccd\u0cb0\u0cbe\u0ca5\u0cae\u0cbf\u0c95 \u0cb6\u0cbe\u0cb2\u0cc6, \u0cac\u0cc8\u0cb2\u0c95\u0cc1\u0c82\u0c9f\u0cbf", "operator": "Government", "school_code": "29330803501", "taluk": "Shorapur"}}, {"type": "node", "id": 2573370852, "lat": 16.34901, "lon": 76.59929, "tags": {"amenity": "school", "name": "Government Higher Primary School Banadoddi", "name:kn": "\u0cb8\u0cb0\u0ccd\u0c95\u0cbe\u0cb0\u0cbf \u0cb9\u0cbf\u0cb0\u0cbf\u0caf \u0caa\u0ccd\u0cb0\u0cbe\u0ca5\u0cae\u0cbf\u0c95 \u0cb6\u0cbe\u0cb2\u0cc6", "operator": "Government", "school_code": "29330802202", "taluk": "Shorapur"}}, {"type": "node", "id": 2573370872, "lat": 16.43421, "lon": 76.44895, "tags": {"amenity": "school", "name": "Government Higher Primary School Gulabal", "name:kn": "\u0cb8\u0cb0\u0ccd\u0c95\u0cbe\u0cb0\u0cbf \u0cb9\u0cbf\u0cb0\u0cbf\u0caf \u0caa\u0ccd\u0cb0\u0cbe\u0ca5\u0cae\u0cbf\u0c95 \u0cb6\u0cbe\u0cb2\u0cc6 \u0c97\u0cc1\u0cb3\u0cac\u0cbe\u0cb3", "operator": "Government", "school_code": "29330806901", "taluk": "Shorapur"}}, {"type": "node", "id": 2573370873, "lat": 16.73697, "lon": 76.5425, "tags": {"amenity": "school", "name": "Government Higher Primary School Hadanoor", "name:kn": "\u0cb8\u0cb0\u0ccd\u0c95\u0cbe\u0cb0\u0cbf \u0cb9\u0cbf\u0cb0\u0cbf\u0caf \u0caa\u0ccd\u0cb0\u0cbe\u0ca5\u0cae\u0cbf\u0c95 \u0cb6\u0cbe\u0cb2\u0cc6", "operator": "Government", "school_code": "29330807102"}}, {"type": "node", "id": 2573370874, "lat": 16.39814, "lon": 76.36686, "tags": {"amenity": "school", "name": "Government Higher Primary School Hagaratgi", "name:kn": "\u0cb8\u0cb0\u0ccd\u0c95\u0cbe\u0cb0\u0cbf \u0cb9\u0cbf\u0cb0\u0cbf\u0caf \u0caa\u0ccd\u0cb0\u0cbe\u0ca5\u0cae\u0cbf\u0c95 \u0cb6\u0cbe\u0cb2\u0cc6 \u0cb9\u0c97\u0cb0\u0c9f\u0c97\u0cbf", "operator": "Government", "school_code": "29330807201", "taluk": "Shorapur"}}, {"type": "node", "id": 2573370886, "lat": 16.33531, "lon": 76.48589, "tags": {"amenity": "school", "name": "Government Higher Primary School Kadadaral", "name:kn": "\u0cb8\u0cb0\u0ccd\u0c95\u0cbe\u0cb0\u0cbf \u0cb9\u0cbf\u0cb0\u0cbf\u0caf \u0caa\u0ccd\u0cb0\u0cbe\u0ca5\u0cae\u0cbf\u0c95 \u0cb6\u0cbe\u0cb2\u0cc6 \u0c95\u0ca1\u0ca6\u0cb0\u0cbe\u0cb3", "operator": "Government", "school_code": "29330824001", "taluk": "Shorapur"}}, {"type": "node", "id": 2573370893, "lat": 16.35025, "lon": 76.40321, "tags": {"amenity": "school", "name": "Government Higher Primary School Kodekal", "name:kn": "\u0cb8\u0cb0\u0ccd\u0c95\u0cbe\u0cb0\u0cbf \u0cb9\u0cbf\u0cb0\u0cbf\u0caf \u0caa\u0ccd\u0cb0\u0cbe\u0ca5\u0cae\u0cbf\u0c95 \u0cb6\u0cbe\u0cb2\u0cc6 \u0c95\u0ccb\u0ca1\u0cc6\u0c95\u0cb2", "operator": "Government", "school_code": "29330812301", "taluk": "Shorapur"}}, {"type": "node", "id": 2573370894, "lat": 16.49349, "lon": 76.46439, "tags": {"amenity": "school", "name": "Government Higher Primary School Kolihall", "name:kn": "\u0cb8\u0cb0\u0ccd\u0c95\u0cbe\u0cb0\u0cbf \u0cb9\u0cbf\u0cb0\u0cbf\u0caf \u0caa\u0ccd\u0cb0\u0cbe\u0ca5\u0cae\u0cbf\u0c95 \u0cb6\u0cbe\u0cb2\u0cc6 \u0c95\u0ccb\u0cb3\u0cbf\u0cb9\u0cbe\u0cb3", "operator": "Government", "school_code": "29330812401", "taluk": "Shorapur"}}, {"type": "node", "id": 2573370900, "lat": 16.36547, "lon": 76.63155, "tags": {"amenity": "school", "name": "Government Higher Primary School Lingadalli (A)", "name:kn": "\u0cb8\u0cb0\u0ccd\u0c95\u0cbe\u0cb0\u0cbf \u0cb9\u0cbf\u0cb0\u0cbf\u0caf \u0caa\u0ccd\u0cb0\u0cbe\u0ca5\u0cae\u0cbf\u0c95 \u0cb6\u0cbe\u0cb2\u0cc6", "operator": "Government", "school_code": "29330813801", "taluk": "Shorapur"}}, {"type": "node", "id": 2573370905, "lat": 16.73788, "lon": 76.56383, "tags": {"amenity": "school", "name": "Government Higher Primary School Malla [b]", "name:kn": "\u0cb8\u0cb0\u0ccd\u0c95\u0cbe\u0cb0\u0cbf \u0cb9\u0cbf\u0cb0\u0cbf\u0caf \u0caa\u0ccd\u0cb0\u0cbe\u0ca5\u0cae\u0cbf\u0c95 \u0cb6\u0cbe\u0cb2\u0cc6", "operator": "Government", "school_code": "29330815201"}}, {"type": "node", "id": 2573370906, "lat": 16.44961, "lon": 76.44356, "tags": {"amenity": "school", "name": "Government Higher Primary School Malnoor", "name:kn": "\u0cb8\u0cb0\u0ccd\u0c95\u0cbe\u0cb0\u0cbf \u0cb9\u0cbf\u0cb0\u0cbf\u0caf \u0caa\u0ccd\u0cb0\u0cbe\u0ca5\u0cae\u0cbf\u0c95 \u0cb6\u0cbe\u0cb2\u0cc6, \u0cae\u0cbe\u0cb3\u0ca8\u0cc2\u0cb0", "operator": "Government", "school_code": "29330815101", "taluk": "Shorapur"}}, {"type": "node", "id": 2573370917, "lat": 16.42939, "lon": 76.42546, "tags": {"amenity": "school", "name": "Government Higher Primary School Maralbhavi", "name:kn": "\u0cb8\u0cb0\u0ccd\u0c95\u0cbe\u0cb0\u0cbf \u0cb9\u0cbf\u0cb0\u0cbf\u0caf \u0caa\u0ccd\u0cb0\u0cbe\u0ca5\u0cae\u0cbf\u0c95 \u0cb6\u0cbe\u0cb2\u0cc6 \u0cae\u0cbe\u0cb0\u0cb2\u0cad\u0cbe\u0cb5\u0cbf", "operator": "Government", "school_code": "29330815601", "taluk": "Shorapur"}}, {"type": "node", "id": 2573370933, "lat": 16.68732, "lon": 76.6009, "tags": {"amenity": "school", "name": "Government Higher Primary School Naganoor", "name:kn": "\u0cb8\u0cb0\u0ccd\u0c95\u0cbe\u0cb0\u0cbf \u0cb9\u0cbf\u0cb0\u0cbf\u0caf \u0caa\u0ccd\u0cb0\u0cbe\u0ca5\u0cae\u0cbf\u0c95 \u0cb6\u0cbe\u0cb2\u0cc6 \u0ca8\u0c97\u0ca8\u0cc2\u0cb0", "operator": "Government", "school_code": "29330816501"}}, {"type": "node", "id": 2573370958, "lat": 16.37822, "lon": 76.45818, "tags": {"amenity": "school", "name": "Government Higher Primary School Rajankollur", "name:kn": "\u0cb8\u0cb0\u0ccd\u0c95\u0cbe\u0cb0\u0cbf \u0cb9\u0cbf\u0cb0\u0cbf\u0caf \u0caa\u0ccd\u0cb0\u0cbe\u0ca5\u0cae\u0cbf\u0c95 \u0cb6\u0cbe\u0cb2\u0cc6 \u0cb0\u0cbe\u0c9c\u0ca8\u0c95\u0cca\u0cb3\u0ccd\u0cb3\u0cc2\u0cb0", "operator": "Government", "school_code": "29330817801", "taluk": "Shorapur"}}, {"type": "node", "id": 2573371000, "lat": 16.38263, "lon": 76.43829, "tags": {"amenity": "school", "name": "Government Higher Primary School Teerth", "name:kn": "\u0cb8\u0cb0\u0ccd\u0c95\u0cbe\u0cb0\u0cbf \u0cb9\u0cbf\u0cb0\u0cbf\u0caf \u0caa\u0ccd\u0cb0\u0cbe\u0ca5\u0cae\u0cbf\u0c95 \u0cb6\u0cbe\u0cb2\u0cc6, \u0ca4\u0cc0\u0cb0\u0ccd\u0ca5", "operator": "Government", "school_code": "29330820601", "taluk": "Shorapur"}}, {"type": "node", "id": 2573371016, "lat": 16.6873888, "lon": 76.50037, "tags": {"amenity": "school", "name": "Government Higher Primary School Urdu Yalagi", "name:kn": "\u0cb8\u0cb0\u0ccd\u0c95\u0cbe\u0cb0\u0cbf \u0cb9\u0cbf\u0cb0\u0cbf\u0caf \u0caa\u0ccd\u0cb0\u0cbe\u0ca5\u0cae\u0cbf\u0c95 \u0c89\u0cb0\u0ccd\u0ca6\u0cc1 \u0cb6\u0cbe\u0cb2\u0cc6 \u0caf\u0cbe\u0cb3\u0c97\u0cbf", "operator": "Government", "school_code": "29330821603", "taluk": "Shorapur"}}, {"type": "node", "id": 2573371026, "lat": 16.33951, "lon": 76.549, "tags": {"amenity": "school", "name": "Government Higher Primary School Yadalbhavi", "name:kn": "\u0cb8\u0cb0\u0ccd\u0c95\u0cbe\u0cb0\u0cbf \u0cb9\u0cbf\u0cb0\u0cbf\u0caf \u0caa\u0ccd\u0cb0\u0cbe\u0ca5\u0cae\u0cbf\u0c95 \u0cb6\u0cbe\u0cb2\u0cc6, \u0c8f\u0ca6\u0cb2\u0cad\u0cbe\u0cb5\u0cbf", "operator": "Government", "school_code": "29330821301", "taluk": "Shorapur"}}, {"type": "node", "id": 2573371029, "lat": 16.64992, "lon": 76.44413, "tags": {"amenity": "school", "name": "Government Higher Primary School Yaktapur", "name:kn": "\u0cb8\u0cb0\u0ccd\u0c95\u0cbe\u0cb0\u0cbf \u0cb9\u0cbf\u0cb0\u0cbf\u0caf \u0caa\u0ccd\u0cb0\u0cbe\u0ca5\u0cae\u0cbf\u0c95 \u0cb6\u0cbe\u0cb2\u0cc6 \u0caf\u0c95\u0ccd\u0ca4\u0cbe\u0caa\u0cc2\u0cb0", "operator": "Government", "school_code": "29330821502", "taluk": "Shorapur"}}, {"type": "node", "id": 2573371032, "lat": 16.73422, "lon": 76.60535, "tags": {"amenity": "school", "name": "Government Higher Primary School Yawoor", "name:kn": "\u0cb8\u0cb0\u0ccd\u0c95\u0cbe\u0cb0\u0cbf \u0cb9\u0cbf\u0cb0\u0cbf\u0caf \u0caa\u0ccd\u0cb0\u0cbe\u0ca5\u0cae\u0cbf\u0c95 \u0cb6\u0cbe\u0cb2\u0cc6 \u0caf\u0cc6\u0cb5\u0cc2\u0cb0", "operator": "Government", "school_code": "29330822101"}}, {"type": "node", "id": 2573371049, "lat": 16.37515, "lon": 76.66126, "tags": {"amenity": "school", "name": "Government Lower Primary School Bandolli", "name:kn": "\u0cb8\u0cb0\u0ccd\u0c95\u0cbe\u0cb0\u0cbf \u0c95\u0cbf\u0cb0\u0cbf\u0caf \u0caa\u0ccd\u0cb0\u0cbe\u0ca5\u0cae\u0cbf\u0c95 \u0cb6\u0cbe\u0cb2\u0cc6", "operator": "Government", "school_code": "29330802101", "taluk": "Shorapur"}}, {"type": "node", "id": 2573371059, "lat": 16.3364, "lon": 76.5614, "tags": {"amenity": "school", "name": "Government Lower Primary School Benchigaddi", "name:kn": "\u0cb8\u0cb0\u0ccd\u0c95\u0cbe\u0cb0\u0cbf \u0c95\u0cbf\u0cb0\u0cbf\u0caf \u0caa\u0ccd\u0cb0\u0cbe\u0ca5\u0cae\u0cbf\u0c95 \u0cb6\u0cbe\u0cb2\u0cc6, \u0cac\u0cc6\u0c82\u0c9a\u0cbf\u0c97\u0ca1\u0ccd\u0ca1\u0cbf", "operator": "Government", "school_code": "29330802901", "taluk": "Shorapur"}}, {"type": "node", "id": 2573371064, "lat": 16.65539, "lon": 76.4496, "tags": {"amenity": "school", "name": "Government Lower Primary School Bevinal", "name:kn": "\u0cb8\u0cb0\u0ccd\u0c95\u0cbe\u0cb0\u0cbf \u0c95\u0cbf\u0cb0\u0cbf\u0caf \u0caa\u0ccd\u0cb0\u0cbe\u0ca5\u0cae\u0cbf\u0c95 \u0cb6\u0cbe\u0cb2\u0cc6", "operator": "Government", "school_code": "29330822901", "taluk": "Shorapur"}}, {"type": "node", "id": 2573371109, "lat": 16.38185, "lon": 76.6703, "tags": {"amenity": "school", "name": "Government Lower Primary School Dadalapur", "name:kn": "\u0cb8\u0cb0\u0ccd\u0c95\u0cbe\u0cb0\u0cbf \u0c95\u0cbf\u0cb0\u0cbf\u0caf \u0caa\u0ccd\u0cb0\u0cbe\u0ca5\u0cae\u0cbf\u0c95 \u0cb6\u0cbe\u0cb2\u0cc6", "operator": "Government", "school_code": "29330804901", "taluk": "Shorapur"}}, {"type": "node", "id": 2573371119, "lat": 16.67721, "lon": 76.61822, "tags": {"amenity": "school", "name": "Government Lower Primary School G.G.Colony", "name:kn": "\u0cb8\u0cb0\u0ccd\u0c95\u0cbe\u0cb0\u0cbf \u0c95\u0cbf\u0cb0\u0cbf\u0caf \u0caa\u0ccd\u0cb0\u0cbe\u0ca5\u0cae\u0cbf\u0c95 \u0cb6\u0cbe\u0cb2\u0cc6", "operator": "Government", "school_code": "29330816502"}}, {"type": "node", "id": 2573371126, "lat": 16.35645, "lon": 76.601, "tags": {"amenity": "school", "name": "Government Lower Primary School Gojagardoddi", "name:kn": "\u0cb8\u0cb0\u0ccd\u0c95\u0cbe\u0cb0\u0cbf \u0c95\u0cbf\u0cb0\u0cbf\u0caf \u0caa\u0ccd\u0cb0\u0cbe\u0ca5\u0cae\u0cbf\u0c95 \u0cb6\u0cbe\u0cb2\u0cc6", "operator": "Government", "school_code": "29330824801", "taluk": "Shorapur"}}, {"type": "node", "id": 2573371137, "lat": 16.35744, "lon": 76.60649, "tags": {"amenity": "school", "name": "Government Lower Primary School Gugalgatti", "name:kn": "\u0cb8\u0cb0\u0ccd\u0c95\u0cbe\u0cb0\u0cbf \u0c95\u0cbf\u0cb0\u0cbf\u0caf \u0caa\u0ccd\u0cb0\u0cbe\u0ca5\u0cae\u0cbf\u0c95 \u0cb6\u0cbe\u0cb2\u0cc6", "operator": "Government", "school_code": "29330806801", "taluk": "Shorapur"}}, {"type": "node", "id": 2573371169, "lat": 16.3679, "lon": 76.50585, "tags": {"amenity": "school", "name": "Government Lower Primary School Hombalkal", "name:kn": "\u0cb8\u0cb0\u0ccd\u0c95\u0cbe\u0cb0\u0cbf \u0c95\u0cbf\u0cb0\u0cbf\u0caf \u0caa\u0ccd\u0cb0\u0cbe\u0ca5\u0cae\u0cbf\u0c95 \u0cb6\u0cbe\u0cb2\u0cc6 \u0cb9\u0cca\u0c82\u0cac\u0cb3\u0c95\u0cb2\u0ccd\u200c", "operator": "Government", "school_code": "29330808601", "taluk": "Shorapur"}}, {"type": "node", "id": 2573371183, "lat": 16.38374, "lon": 76.34569, "tags": {"amenity": "school", "name": "Government Lower Primary School Horati", "name:kn": "\u0cb8\u0cb0\u0ccd\u0c95\u0cbe\u0cb0\u0cbf \u0c95\u0cbf\u0cb0\u0cbf\u0caf \u0caa\u0ccd\u0cb0\u0cbe\u0ca5\u0cae\u0cbf\u0c95 \u0cb6\u0cbe\u0cb2\u0cc6", "operator": "Government", "school_code": "29330808801", "taluk": "Shorapur"}}, {"type": "node", "id": 2573371191, "lat": 16.35215, "lon": 76.57256, "tags": {"amenity": "school", "name": "Government Lower Primary School Hosurpai Doddi", "name:kn": "\u0cb8\u0cb0\u0ccd\u0c95\u0cbe\u0cb0\u0cbf \u0c95\u0cbf\u0cb0\u0cbf\u0caf \u0caa\u0ccd\u0cb0\u0cbe\u0ca5\u0cae\u0cbf\u0c95 \u0cb6\u0cbe\u0cb2\u0cc6", "operator": "Government", "school_code": "29330808901", "taluk": "Shorapur"}}, {"type": "node", "id": 2573371196, "lat": 16.5886386, "lon": 76.4354876, "tags": {"amenity": "school", "name": "Government Lower Primary School Huvinahalli", "name:kn": "\u0cb8\u0cb0\u0ccd\u0c95\u0cbe\u0cb0\u0cbf \u0c95\u0cbf\u0cb0\u0cbf\u0caf \u0caa\u0ccd\u0cb0\u0cbe\u0ca5\u0cae\u0cbf\u0c95 \u0cb6\u0cbe\u0cb2\u0cc6, \u0cb9\u0cc2\u0cb5\u0cbf\u0ca8\u0cb9\u0cb3\u0ccd\u0cb3\u0cbf", "operator": "Government", "school_code": "29330809401", "taluk": "Shorapur"}}, {"type": "node", "id": 2573371200, "lat": 16.68757, "lon": 76.6047, "tags": {"amenity": "school", "name": "Government Lower Primary School Janatha Colony", "name:kn": "\u0cb8\u0cb0\u0ccd\u0c95\u0cbe\u0cb0\u0cbf \u0c95\u0cbf\u0cb0\u0cbf\u0caf \u0caa\u0ccd\u0cb0\u0cbe\u0ca5\u0cae\u0cbf\u0c95 \u0cb6\u0cbe\u0cb2\u0cc6", "operator": "Government", "school_code": "29330816504"}}, {"type": "node", "id": 2573371203, "lat": 16.6053, "lon": 76.4799, "tags": {"amenity": "school", "name": "Government Lower Primary School Janatha Colony Mudanoor B.", "name:kn": "\u0cb8\u0cb0\u0ccd\u0c95\u0cbe\u0cb0\u0cbf \u0c95\u0cbf\u0cb0\u0cbf\u0caf \u0caa\u0ccd\u0cb0\u0cbe\u0ca5\u0cae\u0cbf\u0c95 \u0cb6\u0cbe\u0cb2\u0cc6", "operator": "Government"}}, {"type": "node", "id": 2573371218, "lat": 16.49277, "lon": 76.4402, "tags": {"amenity": "school", "name": "Government Lower Primary School Kolihall N Tanda", "name:kn": "\u0cb8\u0cb0\u0ccd\u0c95\u0cbe\u0cb0\u0cbf \u0c95\u0cbf\u0cb0\u0cbf\u0caf \u0caa\u0ccd\u0cb0\u0cbe\u0ca5\u0cae\u0cbf\u0c95 \u0cb6\u0cbe\u0cb2\u0cc6", "operator": "Government"}}, {"type": "node", "id": 2573371221, "lat": 16.49042, "lon": 76.45088, "tags": {"amenity": "school", "name": "Government Lower Primary School Kolihall Tanda", "name:kn": "\u0cb8\u0cb0\u0ccd\u0c95\u0cbe\u0cb0\u0cbf \u0c95\u0cbf\u0cb0\u0cbf\u0caf \u0caa\u0ccd\u0cb0\u0cbe\u0ca5\u0cae\u0cbf\u0c95 \u0cb6\u0cbe\u0cb2\u0cc6 \u0c95\u0ccb\u0cb3\u0cbf\u0cb9\u0cbe\u0cb3 \u0ca4\u0cbe\u0c82\u0ca1", "operator": "Government", "school_code": "29330812601", "taluk": "Shorapur"}}, {"type": "node", "id": 2573371245, "lat": 16.35456, "lon": 76.58479, "tags": {"amenity": "school", "name": "Government Lower Primary School Malkarjun Doddi", "name:kn": "\u0cb8\u0cb0\u0ccd\u0c95\u0cbe\u0cb0\u0cbf \u0c95\u0cbf\u0cb0\u0cbf\u0caf \u0caa\u0ccd\u0cb0\u0cbe\u0ca5\u0cae\u0cbf\u0c95 \u0cb6\u0cbe\u0cb2\u0cc6", "operator": "Government", "school_code": "29330814901", "taluk": "Shorapur"}}, {"type": "node", "id": 2573371248, "lat": 16.74197, "lon": 76.56735, "tags": {"amenity": "school", "name": "Government Lower Primary School Malla K", "name:kn": "\u0cb8\u0cb0\u0ccd\u0c95\u0cbe\u0cb0\u0cbf \u0c95\u0cbf\u0cb0\u0cbf\u0caf \u0caa\u0ccd\u0cb0\u0cbe\u0ca5\u0cae\u0cbf\u0c95 \u0cb6\u0cbe\u0cb2\u0cc6 \u0cae\u0cb2\u0ccd\u0cb2\u0cbe", "operator": "Government", "school_code": "29330815302"}}, {"type": "node", "id": 2573371264, "lat": 16.36689, "lon": 76.62274, "tags": {"amenity": "school", "name": "Government Lower Primary School Mm Doddi Kakkera", "name:kn": "\u0cb8\u0cb0\u0ccd\u0c95\u0cbe\u0cb0\u0cbf \u0c95\u0cbf\u0cb0\u0cbf\u0caf \u0caa\u0ccd\u0cb0\u0cbe\u0ca5\u0cae\u0cbf\u0c95 \u0cb6\u0cbe\u0cb2\u0cc6", "operator": "Government", "school_code": "29330810831", "taluk": "Shorapur"}}, {"type": "node", "id": 2573371292, "lat": 16.33685, "lon": 76.4324, "tags": {"amenity": "school", "name": "Government Lower Primary School R.Dasargota", "name:kn": "\u0cb8\u0cb0\u0ccd\u0c95\u0cbe\u0cb0\u0cbf \u0c95\u0cbf\u0cb0\u0cbf\u0caf \u0caa\u0ccd\u0cb0\u0cbe\u0ca5\u0cae\u0cbf\u0c95 \u0cb6\u0cbe\u0cb2\u0cc6", "operator": "Government", "school_code": "29330817501", "taluk": "Shorapur"}}, {"type": "node", "id": 2573371301, "lat": 16.36773, "lon": 76.44723, "tags": {"amenity": "school", "name": "Government Lower Primary School Rajankollur Tanda", "name:kn": "\u0cb8\u0cb0\u0ccd\u0c95\u0cbe\u0cb0\u0cbf \u0c95\u0cbf\u0cb0\u0cbf\u0caf \u0caa\u0ccd\u0cb0\u0cbe\u0ca5\u0cae\u0cbf\u0c95 \u0cb6\u0cbe\u0cb2\u0cc6", "operator": "Government", "school_code": "29330817805", "taluk": "Shorapur"}}, {"type": "node", "id": 2573371304, "lat": 16.33679, "lon": 76.47661, "tags": {"amenity": "school", "name": "Government Lower Primary School Rajwal", "name:kn": "\u0cb8\u0cb0\u0ccd\u0c95\u0cbe\u0cb0\u0cbf \u0c95\u0cbf\u0cb0\u0cbf\u0caf \u0caa\u0ccd\u0cb0\u0cbe\u0ca5\u0cae\u0cbf\u0c95 \u0cb6\u0cbe\u0cb2\u0cc6 \u0cb0\u0cbe\u0c9c\u0cb5\u0cbe\u0cb3", "operator": "Government", "school_code": "29330818001", "taluk": "Shorapur"}}, {"type": "node", "id": 2573371310, "lat": 16.35272, "lon": 76.43981, "tags": {"amenity": "school", "name": "Government Lower Primary School Rayanpal", "name:kn": "\u0cb8\u0cb0\u0ccd\u0c95\u0cbe\u0cb0\u0cbf \u0c95\u0cbf\u0cb0\u0cbf\u0caf \u0caa\u0ccd\u0cb0\u0cbe\u0ca5\u0cae\u0cbf\u0c95 \u0cb6\u0cbe\u0cb2\u0cc6", "operator": "Government", "school_code": "29330818701", "taluk": "Shorapur"}}, {"type": "node", "id": 2573371347, "lat": 16.68665, "lon": 76.60034, "tags": {"amenity": "school", "name": "Government Lower Primary School Urdu Naganoor", "name:kn": "\u0cb8\u0cb0\u0ccd\u0c95\u0cbe\u0cb0\u0cbf \u0c95\u0cbf\u0cb0\u0cbf\u0caf \u0caa\u0ccd\u0cb0\u0cbe\u0ca5\u0cae\u0cbf\u0c95 \u0c89\u0cb0\u0ccd\u0ca6\u0cc1 \u0cb6\u0cbe\u0cb2\u0cc6 \u0ca8\u0c97\u0ca8\u0cc2\u0cb0", "operator": "Government", "school_code": "29330816503"}}, {"type": "node", "id": 2573371354, "lat": 16.7037, "lon": 76.44099, "tags": {"amenity": "school", "name": "Government Lower Primary School Wandaganur", "name:kn": "\u0c95\u0cbf\u0cb0\u0cbf\u0caf \u0caa\u0ccd\u0cb0\u0cbe\u0ca5\u0cae\u0cbf\u0c95 \u0cb6\u0cbe\u0cb2\u0cc6 \u0cb5\u0c82\u0ca6\u0c97\u0ca8\u0cc2\u0cb0", "operator": "Government", "school_code": "29330821002", "taluk": "Shorapur"}}, {"type": "node", "id": 2573371357, "lat": 16.33898, "lon": 76.3567, "tags": {"amenity": "school", "name": "Government Lower Primary School Yarkihal", "name:kn": "\u0cb8\u0cb0\u0ccd\u0c95\u0cbe\u0cb0\u0cbf \u0c95\u0cbf\u0cb0\u0cbf\u0caf \u0caa\u0ccd\u0cb0\u0cbe\u0ca5\u0cae\u0cbf\u0c95 \u0cb6\u0cbe\u0cb2\u0cc6, \u0caf\u0cb0\u0c95\u0cbf\u0cb9\u0cbe\u0cb3", "operator": "Government", "school_code": "29330821901", "taluk": "Shorapur"}}, {"type": "node", "id": 2573371365, "lat": 16.72835, "lon": 76.58692, "tags": {"amenity": "school", "name": "Government Lower Primary School Yawoor D Tanda", "name:kn": "\u0cb8\u0cb0\u0ccd\u0c95\u0cbe\u0cb0\u0cbf \u0c95\u0cbf\u0cb0\u0cbf\u0caf \u0caa\u0ccd\u0cb0\u0cbe\u0ca5\u0cae\u0cbf\u0c95 \u0cb6\u0cbe\u0cb2\u0cc6", "operator": "Government", "school_code": "29330822001"}}, {"type": "node", "id": 2573371368, "lat": 16.73437, "lon": 76.60246, "tags": {"amenity": "school", "name": "Government Lower Primary School Yawoor S Tanda", "name:kn": "\u0cb8\u0cb0\u0ccd\u0c95\u0cbe\u0cb0\u0cbf \u0c95\u0cbf\u0cb0\u0cbf\u0caf \u0caa\u0ccd\u0cb0\u0cbe\u0ca5\u0cae\u0cbf\u0c95 \u0cb6\u0cbe\u0cb2\u0cc6, \u0caf\u0cc6\u0cb5\u0cc2\u0cb0", "operator": "Government", "school_code": "29330822201"}}, {"type": "node", "id": 2573371386, "lat": 16.68735, "lon": 76.50593, "tags": {"amenity": "school", "name": "Government Model Primary School Yalagi", "name:kn": "\u0caf\u0cbe\u0cb3\u0c97\u0cbf \u0cb8\u0cb0\u0ccd\u0c95\u0cbe\u0cb0\u0cbf \u0cae\u0cbe\u0ca6\u0cb0\u0cbf \u0caa\u0ccd\u0cb0\u0cbe\u0ca5\u0cae\u0cbf\u0c95 \u0cb6\u0cbe\u0cb2\u0cc6", "operator": "Government", "school_code": "29330821601", "taluk": "Shorapur"}}, {"type": "node", "id": 2573371396, "lat": 16.37836, "lon": 76.55265, "tags": {"amenity": "school", "name": "Government Higher Primary School Kakkera Tanda", "name:kn": "\u0cb8\u0cb0\u0ccd\u0c95\u0cbe\u0cb0\u0cbf \u0cb9\u0cbf\u0cb0\u0cbf\u0caf \u0caa\u0ccd\u0cb0\u0cbe\u0ca5\u0cae\u0cbf\u0c95 \u0cb6\u0cbe\u0cb2\u0cc6", "operator": "Government", "school_code": "29330810901", "taluk": "Shorapur"}}, {"type": "node", "id": 2573371410, "lat": 16.6912, "lon": 76.43111, "tags": {"amenity": "school", "name": "Government High School Chincholi", "name:kn": "\u0cb8\u0cb0\u0ccd\u0c95\u0cbe\u0cb0\u0cbf \u0caa\u0ccd\u0cb0\u0ccc\u0ca1\u0cb6\u0cbe\u0cb2\u0cc6", "operator": "Government", "school_code": "29330804602", "taluk": "Shorapur"}}, {"type": "node", "id": 2573371443, "lat": 16.49374, "lon": 76.4677, "tags": {"amenity": "school", "name": "Government High School Kolihal", "name:kn": "\u0cb8\u0cb0\u0ccd\u0c95\u0cbe\u0cb0\u0cbf \u0caa\u0ccd\u0cb0\u0ccc\u0ca1\u0cb6\u0cbe\u0cb2\u0cc6 \u0c95\u0ccb\u0cb3\u0cbf\u0cb9\u0cbe\u0cb3", "operator": "Government", "school_code": "29330812402", "taluk": "Shorapur"}}, {"type": "node", "id": 2573371450, "lat": 16.6793, "lon": 76.61267, "tags": {"amenity": "school", "name": "Government High School Naganuru Naganoor", "name:kn": "\u0cb8\u0cb0\u0ccd\u0c95\u0cbe\u0cb0\u0cbf \u0caa\u0ccd\u0cb0\u0ccc\u0ca1\u0cb6\u0cbe\u0cb2\u0cc6 \u0ca8\u0c97\u0ca8\u0cc2\u0cb0", "operator": "Government", "school_code": "29330816506"}}, {"type": "node", "id": 2573371457, "lat": 16.37582, "lon": 76.45969, "tags": {"amenity": "school", "name": "Government High School Rajankollur", "name:kn": "\u0cb8\u0cb0\u0ccd\u0c95\u0cbe\u0cb0\u0cbf \u0caa\u0ccd\u0cb0\u0ccc\u0ca1\u0cb6\u0cbe\u0cb2\u0cc6 \u0cb0\u0cbe\u0c9c\u0ca8\u0c95\u0cca\u0cb3\u0ccd\u0cb3\u0cc2\u0cb0", "operator": "Government", "school_code": "29330817803", "taluk": "Shorapur"}}, {"type": "node", "id": 2573371464, "lat": 16.38128, "lon": 76.67071, "tags": {"amenity": "school", "name": "Government High School Thinthani", "name:kn": "\u0cb8\u0cb0\u0ccd\u0c95\u0cbe\u0cb0\u0cbf \u0caa\u0ccd\u0cb0\u0ccc\u0ca1\u0cb6\u0cbe\u0cb2\u0cc6 \u0ca4\u0cbf\u0c82\u0ca5\u0ca3\u0cbf", "operator": "Government", "school_code": "29330820404", "taluk": "Shorapur"}}, {"type": "node", "id": 2573371476, "lat": 16.64955, "lon": 76.4488, "tags": {"amenity": "school", "name": "Government High School Yektapur", "name:kn": "\u0cb8\u0cb0\u0ccd\u0c95\u0cbe\u0cb0\u0cbf \u0caa\u0ccd\u0cb0\u0ccc\u0ca1\u0cb6\u0cbe\u0cb2\u0cc6 \u0caf\u0c95\u0ccd\u0ca4\u0cbe\u0caa\u0cc2\u0cb0", "operator": "Government", "school_code": "29330821504", "taluk": "Shorapur"}}, {"type": "node", "id": 2573371492, "lat": 16.36795, "lon": 76.55029, "tags": {"amenity": "school", "name": "Government Lower Primary School Ambanagar Kakkera", "name:kn": "\u0cb8\u0cb0\u0ccd\u0c95\u0cbe\u0cb0\u0cbf \u0c95\u0cbf\u0cb0\u0cbf\u0caf \u0caa\u0ccd\u0cb0\u0cbe\u0ca5\u0cae\u0cbf\u0c95 \u0cb6\u0cbe\u0cb2\u0cc6", "operator": "Government", "school_code": "29330810815", "taluk": "Shorapur"}}, {"type": "node", "id": 2573371509, "lat": 16.33248, "lon": 76.52443, "tags": {"amenity": "school", "name": "Government Lower Primary School Geddalamari Tanda", "name:kn": "\u0cb8\u0cb0\u0ccd\u0c95\u0cbe\u0cb0\u0cbf \u0c95\u0cbf\u0cb0\u0cbf\u0caf \u0caa\u0ccd\u0cb0\u0cbe\u0ca5\u0cae\u0cbf\u0c95 \u0cb6\u0cbe\u0cb2\u0cc6 \u0ca4\u0cbe\u0c82\u0ca1", "operator": "Government", "school_code": "29330806101", "taluk": "Shorapur"}}, {"type": "node", "id": 2573371512, "lat": 16.3705, "lon": 76.5687, "tags": {"amenity": "school", "name": "Government Lower Primary School Goudagera Doddi Kakkera", "name:kn": "\u0cb8\u0cb0\u0ccd\u0c95\u0cbe\u0cb0\u0cbf \u0c95\u0cbf\u0cb0\u0cbf\u0caf \u0caa\u0ccd\u0cb0\u0cbe\u0ca5\u0cae\u0cbf\u0c95 \u0cb6\u0cbe\u0cb2\u0cc6", "operator": "Government", "school_code": "29330810811", "taluk": "Shorapur"}}, {"type": "node", "id": 2573371525, "lat": 16.35712, "lon": 76.58036, "tags": {"amenity": "school", "name": "Government Lower Primary School Hole Jampar Doddi Kakkera", "name:kn": "\u0cb8\u0cb0\u0ccd\u0c95\u0cbe\u0cb0\u0cbf \u0c95\u0cbf\u0cb0\u0cbf\u0caf \u0caa\u0ccd\u0cb0\u0cbe\u0ca5\u0cae\u0cbf\u0c95 \u0cb6\u0cbe\u0cb2\u0cc6", "operator": "Government", "school_code": "29330810820", "taluk": "Shorapur"}}, {"type": "node", "id": 2573371540, "lat": 16.35247, "lon": 76.3983, "tags": {"amenity": "school", "name": "Government Lower Primary School Kodekal", "name:kn": "\u0cb8\u0cb0\u0ccd\u0c95\u0cbe\u0cb0\u0cbf \u0c95\u0cbf\u0cb0\u0cbf\u0caf \u0caa\u0ccd\u0cb0\u0cbe\u0ca5\u0cae\u0cbf\u0c95 \u0cb6\u0cbe\u0cb2\u0cc6 \u0c95\u0ccb\u0ca1\u0cc6\u0c95\u0cb2", "operator": "Government", "school_code": "29330812304", "taluk": "Shorapur"}}, {"type": "node", "id": 2573371544, "lat": 16.37293, "lon": 76.3887, "tags": {"amenity": "school", "name": "Government Lower Primary School Kodekal Pyati", "name:kn": "\u0cb8\u0cb0\u0ccd\u0c95\u0cbe\u0cb0\u0cbf \u0c95\u0cbf\u0cb0\u0cbf\u0caf \u0caa\u0ccd\u0cb0\u0cbe\u0ca5\u0cae\u0cbf\u0c95 \u0cb6\u0cbe\u0cb2\u0cc6", "operator": "Government", "school_code": "29330812303", "taluk": "Shorapur"}}, {"type": "node", "id": 2573371553, "lat": 16.35785, "lon": 76.55194, "tags": {"amenity": "school", "name": "Government Lower Primary School Peeranayak Tanda (Kakkeras)", "name:kn": "\u0cb8\u0cb0\u0ccd\u0c95\u0cbe\u0cb0\u0cbf \u0c95\u0cbf\u0cb0\u0cbf\u0caf \u0caa\u0ccd\u0cb0\u0cbe\u0ca5\u0cae\u0cbf\u0c95 \u0cb6\u0cbe\u0cb2\u0cc6", "operator": "Government", "school_code": "29330817301", "taluk": "Shorapur"}}, {"type": "node", "id": 2573371556, "lat": 16.37412, "lon": 76.45838, "tags": {"amenity": "school", "name": "Government Lower Primary School Rajankollur Camp", "name:kn": "\u0cb8\u0cb0\u0ccd\u0c95\u0cbe\u0cb0\u0cbf \u0c95\u0cbf\u0cb0\u0cbf\u0caf \u0caa\u0ccd\u0cb0\u0cbe\u0ca5\u0cae\u0cbf\u0c95 \u0cb6\u0cbe\u0cb2\u0cc6", "operator": "Government", "school_code": "29330817802", "taluk": "Shorapur"}}, {"type": "node", "id": 2573371568, "lat": 16.35083, "lon": 76.4037, "tags": {"amenity": "school", "name": "Government Lower Primary School Urdu Kodekal", "name:kn": "\u0cb8\u0cb0\u0ccd\u0c95\u0cbe\u0cb0\u0cbf \u0c95\u0cbf\u0cb0\u0cbf\u0caf \u0caa\u0ccd\u0cb0\u0cbe\u0ca5\u0cae\u0cbf\u0c95 \u0c89\u0cb0\u0ccd\u0ca6\u0cc1 \u0cb6\u0cbe\u0cb2\u0cc6 \u0c95\u0ccb\u0ca1\u0cc6\u0c95\u0cb2", "operator": "Government", "school_code": "29330812305", "taluk": "Shorapur"}}, {"type": "node", "id": 2573371571, "lat": 16.4498, "lon": 76.44432, "tags": {"amenity": "school", "name": "Government Lower Primary School Urdu Malanoor", "name:kn": "\u0cb8\u0cb0\u0ccd\u0c95\u0cbe\u0cb0\u0cbf \u0c95\u0cbf\u0cb0\u0cbf\u0caf \u0caa\u0ccd\u0cb0\u0cbe\u0ca5\u0cae\u0cbf\u0c95 \u0c89\u0cb0\u0ccd\u0ca6\u0cc1 \u0cb6\u0cbe\u0cb2\u0cc6, \u0cae\u0cbe\u0cb3\u0ca8\u0cc2\u0cb0", "operator": "Government", "school_code": "29330815102", "taluk": "Shorapur"}}, {"type": "node", "id": 2573371591, "lat": 16.65616, "lon": 76.53523, "tags": {"amenity": "school", "name": "Holyfaith Higher Primary School Kembhavi", "name:kn": "\u0cb9\u0cbf\u0cb0\u0cbf\u0caf \u0caa\u0ccd\u0cb0\u0cbe\u0ca5\u0cae\u0cbf\u0c95 \u0cb6\u0cbe\u0cb2\u0cc6", "operator": "Government", "school_code": "29330811725"}}, {"type": "node", "id": 2573371594, "lat": 16.65876, "lon": 76.53644, "tags": {"amenity": "school", "name": "HTC Kembhavi", "operator": "Government", "school_code": "29330811703"}}, {"type": "node", "id": 2573371598, "lat": 16.6269569, "lon": 76.4373081, "tags": {"amenity": "school", "name": "Higher Primary School Alhal", "name:kn": "\u0cb8\u0cb0\u0ccd\u0c95\u0cbe\u0cb0\u0cbf \u0cb9\u0cbf\u0cb0\u0cbf\u0caf \u0caa\u0ccd\u0cb0\u0cbe\u0ca5\u0cae\u0cbf\u0c95 \u0cb6\u0cbe\u0cb2\u0cc6, \u0c85\u0cb2\u0cb9\u0cbe\u0cb3", "operator": "Government"}}, {"type": "node", "id": 2573371601, "lat": 16.69113, "lon": 76.43084, "tags": {"amenity": "school", "name": "Higher Primary School Chincholi", "name:kn": "\u0cb9\u0cbf\u0cb0\u0cbf\u0caf \u0caa\u0ccd\u0cb0\u0cbe\u0ca5\u0cae\u0cbf\u0c95 \u0cb6\u0cbe\u0cb2\u0cc6 \u0c9a\u0cbf\u0c82\u0c9a\u0ccb\u0cb3\u0cbf", "operator": "Government", "school_code": "29330804601", "taluk": "Shorapur"}}, {"type": "node", "id": 2573371615, "lat": 16.65432, "lon": 76.52444, "tags": {"amenity": "school", "name": "Higher Primary School Sanjeev Nagar", "name:kn": "\u0cb9\u0cbf\u0cb0\u0cbf\u0caf \u0caa\u0ccd\u0cb0\u0cbe\u0ca5\u0cae\u0cbf\u0c95 \u0cb6\u0cbe\u0cb2\u0cc6, \u0cb8\u0c82\u0c9c\u0cc0\u0cb5 \u0ca8\u0c97\u0cb0", "operator": "Government", "school_code": "29330811704"}}, {"type": "node", "id": 2573371625, "lat": 16.37592, "lon": 76.4599, "tags": {"amenity": "school", "name": "K R Chanamma (Eng) Higher Primary School Rajankolur", "name:kn": "\u0c85\u0c82\u0c97\u0ccd\u0cb2 \u0cb8\u0cb0\u0ccd\u0c95\u0cbe\u0cb0\u0cbf \u0cb9\u0cbf\u0cb0\u0cbf\u0caf \u0caa\u0ccd\u0cb0\u0cbe\u0ca5\u0cae\u0cbf\u0c95 \u0cb6\u0cbe\u0cb2\u0cc6 \u0cb0\u0cbe\u0c9c\u0ca8\u0c95\u0cca\u0cb3\u0ccd\u0cb3\u0cc2\u0cb0", "operator": "Government", "school_code": "29330817806", "taluk": "Shorapur"}}, {"type": "node", "id": 2573371645, "lat": 16.6375, "lon": 76.47005, "tags": {"amenity": "school", "name": "Lower Primary School Ainapur", "name:kn": "\u0cb8\u0cb0\u0ccd\u0c95\u0cbe\u0cb0\u0cbf \u0c95\u0cbf\u0cb0\u0cbf\u0caf \u0caa\u0ccd\u0cb0\u0cbe\u0ca5\u0cae\u0cbf\u0c95 \u0cb6\u0cbe\u0cb2\u0cc6, \u0c90\u0ca8\u0cbe\u0caa\u0cc1\u0cb0", "operator": "Government"}}, {"type": "node", "id": 2573371669, "lat": 16.6626, "lon": 76.41893, "tags": {"amenity": "school", "name": "Lower Primary School Doranhalli", "name:kn": "\u0c95\u0cbf\u0cb0\u0cbf\u0caf \u0caa\u0ccd\u0cb0\u0cbe\u0ca5\u0cae\u0cbf\u0c95 \u0cb6\u0cbe\u0cb2\u0cc6, \u0ca6\u0ccb\u0cb0\u0ca8\u0cb9\u0cb3\u0ccd\u0cb3\u0cbf", "operator": "Government", "school_code": "29330805801", "taluk": "Shorapur"}}, {"type": "node", "id": 2573371682, "lat": 16.66239, "lon": 76.5284, "tags": {"amenity": "school", "name": "Lower Primary School Janata Colony Kembhavi", "name:kn": "\u0c95\u0cbf\u0cb0\u0cbf\u0caf \u0caa\u0ccd\u0cb0\u0cbe\u0ca5\u0cae\u0cbf\u0c95 \u0cb6\u0cbe\u0cb2\u0cc6", "operator": "Government", "school_code": "29330811717"}}, {"type": "node", "id": 2573371686, "lat": 16.62081, "lon": 76.4588, "tags": {"amenity": "school", "name": "Lower Primary School Kachapur", "name:kn": "\u0cb8\u0cb0\u0ccd\u0c95\u0cbe\u0cb0\u0cbf \u0c95\u0cbf\u0cb0\u0cbf\u0caf \u0caa\u0ccd\u0cb0\u0cbe\u0ca5\u0cae\u0cbf\u0c95 \u0cb6\u0cbe\u0cb2\u0cc6, \u0c95\u0cbe\u0c9a\u0cbe\u0caa\u0cc2\u0cb0", "operator": "Government"}}, {"type": "node", "id": 2573371695, "lat": 16.34106, "lon": 76.50745, "tags": {"amenity": "school", "name": "Lower Primary School Kumbarbenchi Geddalmari", "name:kn": "\u0cb8\u0cb0\u0ccd\u0c95\u0cbe\u0cb0\u0cbf \u0c95\u0cbf\u0cb0\u0cbf\u0caf \u0caa\u0ccd\u0cb0\u0cbe\u0ca5\u0cae\u0cbf\u0c95 \u0cb6\u0cbe\u0cb2\u0cc6 \u0c97\u0cc6\u0ca6\u0ccd\u0ca6\u0cb2\u0cae\u0cb0\u0cbf", "operator": "Government", "school_code": "29330806002", "taluk": "Shorapur"}}, {"type": "node", "id": 2573371701, "lat": 16.6278, "lon": 76.46267, "tags": {"amenity": "school", "name": "Lower Primary School Malkapur", "name:kn": "\u0cb8\u0cb0\u0ccd\u0c95\u0cbe\u0cb0\u0cbf \u0c95\u0cbf\u0cb0\u0cbf\u0caf \u0caa\u0ccd\u0cb0\u0cbe\u0ca5\u0cae\u0cbf\u0c95 \u0cb6\u0cbe\u0cb2\u0cc6", "operator": "Government"}}, {"type": "node", "id": 2573371705, "lat": 16.33438, "lon": 76.57701, "tags": {"amenity": "school", "name": "Lower Primary School Nilkantarayan Gaddi", "name:kn": "\u0cb8\u0cb0\u0ccd\u0c95\u0cbe\u0cb0\u0cbf \u0c95\u0cbf\u0cb0\u0cbf\u0caf \u0caa\u0ccd\u0cb0\u0cbe\u0ca5\u0cae\u0cbf\u0c95 \u0cb6\u0cbe\u0cb2\u0cc6", "operator": "Government", "school_code": "29330810826", "taluk": "Shorapur"}}, {"type": "node", "id": 2573371718, "lat": 16.3562, "lon": 76.45451, "tags": {"amenity": "school", "name": "Lower Primary School Parutanayak Tanda Kodekal", "name:kn": "\u0cb8\u0cb0\u0ccd\u0c95\u0cbe\u0cb0\u0cbf \u0c95\u0cbf\u0cb0\u0cbf\u0caf \u0caa\u0ccd\u0cb0\u0cbe\u0ca5\u0cae\u0cbf\u0c95 \u0cb6\u0cbe\u0cb2\u0cc6", "operator": "Government", "school_code": "29330812308", "taluk": "Shorapur"}}, {"type": "node", "id": 2573371724, "lat": 16.36925, "lon": 76.57817, "tags": {"amenity": "school", "name": "Lower Primary School Phulbhavi Doddi Kakkera", "name:kn": "\u0cb8\u0cb0\u0ccd\u0c95\u0cbe\u0cb0\u0cbf \u0c95\u0cbf\u0cb0\u0cbf\u0caf \u0caa\u0ccd\u0cb0\u0cbe\u0ca5\u0cae\u0cbf\u0c95 \u0cb6\u0cbe\u0cb2\u0cc6", "operator": "Government", "school_code": "29330810823", "taluk": "Shorapur"}}, {"type": "node", "id": 2573371789, "lat": 16.35282, "lon": 76.39802, "tags": {"amenity": "school", "name": "Morarji Desai Kodakal", "name:etymology:wikidata": "Q218661", "name:kn": "\u0cae\u0ccb\u0cb0\u0cbe\u0cb0\u0ccd\u0c9c\u0cbf \u0ca6\u0cc7\u0cb8\u0cbe\u0caf\u0cbf \u0cb6\u0cbe\u0cb2\u0cc6", "operator": "Government", "school_code": "29330812309", "taluk": "Shorapur"}}, {"type": "node", "id": 2573371830, "lat": 16.68753, "lon": 76.6048, "tags": {"amenity": "school", "name": "Sharanabasaveshwara Lower Primary School Naganoor", "name:kn": "\u0cb6\u0cb0\u0ca3 \u0cac\u0cb8\u0cb5\u0cc7\u0cb6\u0ccd\u0cb5\u0cb0 \u0c95\u0cbf\u0cb0\u0cbf\u0caf \u0caa\u0ccd\u0cb0\u0cbe\u0ca5\u0cae\u0cbf\u0c95 \u0cb6\u0cbe\u0cb2\u0cc6", "operator": "Government", "school_code": "29330816508"}}, {"type": "node", "id": 2573371854, "lat": 16.68794, "lon": 76.60294, "tags": {"amenity": "school", "name": "Sri Basaveshwara Lower Primary School Naganoor", "name:kn": "\u0cb6\u0ccd\u0cb0\u0cc0 \u0cac\u0cb8\u0cb5\u0cc7\u0cb6\u0ccd\u0cb5\u0cb0 \u0c95\u0cbf\u0cb0\u0cbf\u0caf \u0caa\u0ccd\u0cb0\u0cbe\u0ca5\u0cae\u0cbf\u0c95 \u0cb6\u0cbe\u0cb2\u0cc6", "operator": "Government", "school_code": "29330816509"}}, {"type": "node", "id": 2587515191, "lat": 16.37627, "lon": 76.46603, "tags": {"amenity": "school", "name": "Boruka Lower Primary School Rajankolur, Kodekal", "name:kn": "\u0cb8\u0cb0\u0ccd\u0c95\u0cbe\u0cb0\u0cbf \u0c95\u0cbf\u0cb0\u0cbf\u0caf \u0caa\u0ccd\u0cb0\u0cbe\u0ca5\u0cae\u0cbf\u0c95 \u0cb6\u0cbe\u0cb2\u0cc6 \u0cb0\u0cbe\u0c9c\u0ca8\u0c95\u0cca\u0cb3\u0ccd\u0cb3\u0cc2\u0cb0", "operator": "Government", "school_code": "29330812310", "taluk": "Shorapur"}}, {"type": "node", "id": 2587515375, "lat": 16.5817, "lon": 76.4304, "tags": {"amenity": "school", "name": "Government Higher Primary School, Amalihal", "name:kn": "\u0cb8\u0cb0\u0ccd\u0c95\u0cbe\u0cb0\u0cbf \u0cb9\u0cbf\u0cb0\u0cbf\u0caf \u0caa\u0ccd\u0cb0\u0cbe\u0ca5\u0cae\u0cbf\u0c95 \u0cb6\u0cbe\u0cb2\u0cc6 \u0c85\u0cae\u0cb2\u0cbf\u0cb9\u0cbe\u0cb3", "operator": "Government", "school_code": "29330800701", "taluk": "Shorapur"}}, {"type": "node", "id": 2587675275, "lat": 16.47627, "lon": 76.5481, "tags": {"amenity": "school", "name": "Adarsh Vidyalaya (rmsa) Vajjal", "name:kn": "\u0c86\u0ca6\u0cb0\u0ccd\u0cb6 \u0cb5\u0cbf\u0ca6\u0ccd\u0caf\u0cbe\u0cb2\u0caf", "operator": "Government"}}, {"type": "node", "id": 2587675279, "lat": 16.53168, "lon": 76.77021, "tags": {"amenity": "school", "name": "Al-Ameen Rangampeth School", "operator": "Government", "school_code": "29330818310"}}, {"type": "node", "id": 2587675281, "lat": 16.73449, "lon": 76.74246, "tags": {"amenity": "school", "name": "Almeen Higher Primary School", "name:kn": "\u0cb9\u0cbf\u0cb0\u0cbf\u0caf \u0caa\u0ccd\u0cb0\u0cbe\u0ca5\u0cae\u0cbf\u0c95 \u0cb6\u0cbe\u0cb2\u0cc6", "operator": "Private Aided"}}, {"type": "node", "id": 2587675284, "lat": 16.52954, "lon": 76.76735, "tags": {"amenity": "school", "name": "Aided Higher Primary School Vivekanda Rangampeth", "name:kn": "\u0cb9\u0cbf\u0cb0\u0cbf\u0caf \u0caa\u0ccd\u0cb0\u0cbe\u0ca5\u0cae\u0cbf\u0c95 \u0cb6\u0cbe\u0cb2\u0cc6", "operator": "Government", "school_code": "29330818308"}}, {"type": "node", "id": 2587675286, "lat": 16.53349, "lon": 76.76813, "tags": {"amenity": "school", "name": "Aided K B Urdu", "operator": "Government", "school_code": "29330818311"}}, {"type": "node", "id": 2587675290, "lat": 16.53053, "lon": 76.76937, "tags": {"amenity": "school", "name": "Aided Higher Primary School B.S.A Rangampeth", "name:kn": "\u0cb9\u0cbf\u0cb0\u0cbf\u0caf \u0caa\u0ccd\u0cb0\u0cbe\u0ca5\u0cae\u0cbf\u0c95 \u0cb6\u0cbe\u0cb2\u0cc6", "operator": "Government", "school_code": "29330818309"}}, {"type": "node", "id": 2587675292, "lat": 16.52301, "lon": 76.75957, "tags": {"amenity": "school", "name": "Akshardham Lower Primary School R.K.Galli Surpur", "name:kn": "\u0c85\u0c95\u0ccd\u0cb7\u0cb0\u0ca7\u0cbe\u0cae \u0c95\u0cbf\u0cb0\u0cbf\u0caf \u0caa\u0ccd\u0cb0\u0cbe\u0ca5\u0cae\u0cbf\u0c95 \u0cb6\u0cbe\u0cb2\u0cc6", "operator": "Government", "school_code": "29330819446"}}, {"type": "node", "id": 2587675295, "lat": 16.53597, "lon": 76.79023, "tags": {"amenity": "school", "name": "Ambedkar V.V.S Residential", "operator": "Government", "school_code": "29330819425"}}, {"type": "node", "id": 2587675296, "lat": 16.51533, "lon": 76.75261, "tags": {"amenity": "school", "name": "Ananda Vidyalaya Higher Primary School", "name:kn": "\u0c86\u0ca6\u0cb0\u0ccd\u0cb6 \u0cb5\u0cbf\u0ca6\u0ccd\u0caf\u0cbe\u0cb2\u0caf \u0cb9\u0cbf\u0cb0\u0cbf\u0caf \u0caa\u0ccd\u0cb0\u0cbe\u0ca5\u0cae\u0cbf\u0c95 \u0cb6\u0cbe\u0cb2\u0cc6", "operator": "Government", "school_code": "29330819428"}}, {"type": "node", "id": 2587675298, "lat": 16.45989, "lon": 76.64179, "tags": {"amenity": "school", "name": "Beeralingeshwar Lower Primary School Devatkal", "name:kn": "\u0cac\u0cc0\u0cb0\u0cb2\u0cbf\u0c82\u0c97\u0cc7\u0cb6\u0ccd\u0cb5\u0cb0 \u0c95\u0cbf\u0cb0\u0cbf\u0caf \u0caa\u0ccd\u0cb0\u0cbe\u0ca5\u0cae\u0cbf\u0c95 \u0cb6\u0cbe\u0cb2\u0cc6", "operator": "Government", "school_code": "29330805306"}}, {"type": "node", "id": 2587675309, "lat": 16.53052, "lon": 76.77013, "tags": {"amenity": "school", "name": "Christ the King Higher Primary School Rangampet", "name:kn": "\u0cb9\u0cbf\u0cb0\u0cbf\u0caf \u0caa\u0ccd\u0cb0\u0cbe\u0ca5\u0cae\u0cbf\u0c95 \u0cb6\u0cbe\u0cb2\u0cc6", "operator": "Government", "school_code": "29330818324"}}, {"type": "node", "id": 2587675310, "lat": 16.51794, "lon": 76.76165, "tags": {"amenity": "school", "name": "Christ the King Convent Rangam", "operator": "Government", "school_code": "29330819432"}}, {"type": "node", "id": 2587675314, "lat": 16.73607, "lon": 76.74599, "tags": {"addr:place": "Gogipet", "amenity": "school", "name": "Darshana Lower Primary School", "name:kn": "\u0ca6\u0cb0\u0ccd\u0cb6\u0ca8 \u0c95\u0cbf\u0cb0\u0cbf\u0caf \u0caa\u0ccd\u0cb0\u0cbe\u0ca5\u0cae\u0cbf\u0c95 \u0cb6\u0cbe\u0cb2\u0cc6", "operator": "Government"}}, {"type": "node", "id": 2587675316, "lat": 16.72573, "lon": 76.79524, "tags": {"amenity": "school", "name": "Divya Gnyana Lower Primary School", "name:kn": "\u0ca6\u0cbf\u0cb5\u0ccd\u0caf\u0c9c\u0ccd\u0c9e\u0cbe\u0ca8 \u0c95\u0cbf\u0cb0\u0cbf\u0caf \u0caa\u0ccd\u0cb0\u0cbe\u0ca5\u0cae\u0cbf\u0c95 \u0cb6\u0cbe\u0cb2\u0cc6", "operator": "Government", "school_code": "29330712337"}}, {"type": "node", "id": 2587675318, "lat": 16.53091, "lon": 76.77993, "tags": {"amenity": "school", "name": "Dr. Babu Jagajeevanram Lower Primary School D.Gudda", "name:kn": "\u0cac\u0cbe\u0cac\u0cc1 \u0c9c\u0c97\u0c9c\u0cc0\u0cb5\u0ca8 \u0cb0\u0cbe\u0cae\u0ccd \u0caa\u0ccd\u0cb0\u0cbe\u0ca5\u0cae\u0cbf\u0c95 \u0cb6\u0cbe\u0cb2\u0cc6", "operator": "Government", "school_code": "29330805702"}}, {"type": "node", "id": 2587675319, "lat": 16.64738, "lon": 76.52779, "tags": {"amenity": "school", "name": "Ekalavya Higher Primary School Lohar Colony", "name:kn": "\u0c8f\u0c95\u0cb2\u0cb5\u0ccd\u0caf \u0cb9\u0cbf\u0cb0\u0cbf\u0caf \u0caa\u0ccd\u0cb0\u0cbe\u0ca5\u0cae\u0cbf\u0c95 \u0cb6\u0cbe\u0cb2\u0cc6", "operator": "Government", "school_code": "29330811708"}}, {"type": "node", "id": 2587675323, "lat": 16.53128, "lon": 76.76812, "tags": {"amenity": "school", "name": "Foukhaniya Arabic School Ranga", "operator": "Government", "school_code": "29330818312"}}, {"type": "node", "id": 2587675330, "lat": 16.44934, "lon": 76.57, "tags": {"amenity": "school", "name": "Government Higher Primary School Bailapur Tanda", "name:kn": "\u0cb8\u0cb0\u0ccd\u0c95\u0cbe\u0cb0\u0cbf \u0cb9\u0cbf\u0cb0\u0cbf\u0caf \u0caa\u0ccd\u0cb0\u0cbe\u0ca5\u0cae\u0cbf\u0c95 \u0cb6\u0cbe\u0cb2\u0cc6", "operator": "Government", "school_code": "29330802801"}}, {"type": "node", "id": 2587675333, "lat": 16.42861, "lon": 76.59752, "tags": {"amenity": "school", "name": "Government Higher Primary School Jangandoddi Kakkera", "name:kn": "\u0cb8\u0cb0\u0ccd\u0c95\u0cbe\u0cb0\u0cbf \u0cb9\u0cbf\u0cb0\u0cbf\u0caf \u0caa\u0ccd\u0cb0\u0cbe\u0ca5\u0cae\u0cbf\u0c95 \u0cb6\u0cbe\u0cb2\u0cc6", "operator": "Government", "school_code": "29330810816"}}, {"type": "node", "id": 2587675337, "lat": 16.38629, "lon": 76.58987, "tags": {"amenity": "school", "name": "Government Higher Primary School Urdu Kakkera", "name:kn": "\u0cb8\u0cb0\u0ccd\u0c95\u0cbe\u0cb0\u0cbf \u0cb9\u0cbf\u0cb0\u0cbf\u0caf \u0caa\u0ccd\u0cb0\u0cbe\u0ca5\u0cae\u0cbf\u0c95 \u0c89\u0cb0\u0ccd\u0ca6\u0cc1 \u0cb6\u0cbe\u0cb2\u0cc6, \u0c95\u0c95\u0ccd\u0c95\u0cc6\u0cb0", "operator": "Government", "school_code": "29330810810", "taluk": "Shorapur"}}, {"type": "node", "id": 2587675341, "lat": 16.5715, "lon": 76.71768, "tags": {"amenity": "school", "name": "Government High School Devargonal", "name:kn": "\u0cb8\u0cb0\u0ccd\u0c95\u0cbe\u0cb0\u0cbf \u0caa\u0ccd\u0cb0\u0ccc\u0ca1 \u0cb6\u0cbe\u0cb2\u0cc6 \u0ca6\u0cc7\u0cb5\u0cb0\u0c97\u0ccb\u0ca8\u0cbe\u0cb2", "operator": "Government", "school_code": "29330805403"}}, {"type": "node", "id": 2587675345, "lat": 16.56578, "lon": 76.56845, "tags": {"amenity": "school", "name": "Government High School Baichbala", "name:kn": "\u0cb8\u0cb0\u0ccd\u0c95\u0cbe\u0cb0\u0cbf \u0caa\u0ccd\u0cb0\u0ccc\u0ca1\u0cb6\u0cbe\u0cb2\u0cc6 \u0cac\u0cc8\u0c9a\u0cac\u0cbe\u0cb3", "operator": "Government", "school_code": "29330801702"}}, {"type": "node", "id": 2587675346, "lat": 16.3834, "lon": 76.50405, "tags": {"amenity": "school", "name": "Government High School Balashettihal", "name:kn": "\u0cb8\u0cb0\u0ccd\u0c95\u0cbe\u0cb0\u0cbf \u0caa\u0ccd\u0cb0\u0ccc\u0ca1\u0cb6\u0cbe\u0cb2\u0cc6 \u0cac\u0cb2\u0cb6\u0cc6\u0c9f\u0ccd\u0c9f\u0cbf\u0cb9\u0cbe\u0cb3", "operator": "Government", "school_code": "29330801902", "taluk": "Shorapur"}}, {"type": "node", "id": 2587675348, "lat": 16.47007, "lon": 76.61806, "tags": {"amenity": "school", "name": "Government High School Benakanhalli", "name:kn": "\u0cb8\u0cb0\u0ccd\u0c95\u0cbe\u0cb0\u0cbf \u0caa\u0ccd\u0cb0\u0ccc\u0ca1\u0cb6\u0cbe\u0cb2\u0cc6", "operator": "Government", "school_code": "29330803002"}}, {"type": "node", "id": 2587675350, "lat": 16.4337, "lon": 76.72468, "tags": {"amenity": "school", "name": "Government High School Devapur", "name:kn": "\u0cb8\u0cb0\u0ccd\u0c95\u0cbe\u0cb0\u0cbf \u0caa\u0ccd\u0cb0\u0ccc\u0ca1\u0cb6\u0cbe\u0cb2\u0cc6 \u0ca6\u0cc6\u0cb5\u0cbe\u0caa\u0cc1\u0cb0", "operator": "Government", "school_code": "29330805104"}}, {"type": "node", "id": 2587675351, "lat": 16.4614209, "lon": 76.6365258, "tags": {"amenity": "school", "name": "Government High School Devatkal", "name:kn": "\u0cb8\u0cb0\u0ccd\u0c95\u0cbe\u0cb0\u0cbf \u0caa\u0ccd\u0cb0\u0ccc\u0ca1\u0cb6\u0cbe\u0cb2\u0cc6 \u0ca6\u0cc7\u0cb5\u0ca4\u0c95\u0cb2\u0ccd\u200c", "operator": "Government", "school_code": "29330805305"}}, {"type": "node", "id": 2587675355, "lat": 16.45807, "lon": 76.52383, "tags": {"amenity": "school", "name": "Government High School Girls Hunasagi", "name:kn": "\u0cb8\u0cb0\u0ccd\u0c95\u0cbe\u0cb0\u0cbf \u0cac\u0cbe\u0cb2\u0c95\u0cbf\u0caf\u0cb0 \u0caa\u0ccd\u0cb0\u0ccc\u0ca1\u0cb6\u0cbe\u0cb2\u0cc6 \u0cb9\u0cc1\u0ca3\u0cb8\u0c97\u0cbf", "operator": "Government", "school_code": "29330809113"}}, {"type": "node", "id": 2587675356, "lat": 16.64853, "lon": 76.5288, "tags": {"amenity": "school", "name": "Government High School Girls Kembhavi", "name:kn": "\u0cb8\u0cb0\u0ccd\u0c95\u0cbe\u0cb0\u0cbf \u0cac\u0cbe\u0cb2\u0c95\u0cbf\u0caf\u0cb0 \u0caa\u0ccd\u0cb0\u0ccc\u0ca1\u0cb6\u0cbe\u0cb2\u0cc6 \u0c95\u0cc6\u0c82\u0cad\u0cbe\u0cb5\u0cbf", "operator": "Government", "school_code": "29330811720"}}, {"type": "node", "id": 2587675359, "lat": 16.52631, "lon": 76.4841, "tags": {"amenity": "school", "name": "Government High School Gundalgera", "name:kn": "\u0cb8\u0cb0\u0ccd\u0c95\u0cbe\u0cb0\u0cbf \u0caa\u0ccd\u0cb0\u0ccc\u0ca1\u0cb6\u0cbe\u0cb2\u0cc6 \u0c97\u0cc1\u0c82\u0ca1\u0cb2\u0c97\u0cc7\u0cb0\u0cbf", "operator": "Government"}}, {"type": "node", "id": 2587675361, "lat": 16.66297, "lon": 76.71967, "tags": {"amenity": "school", "name": "Government High School Hosakera", "name:kn": "\u0cb8\u0cb0\u0ccd\u0c95\u0cbe\u0cb0\u0cbf \u0caa\u0ccd\u0cb0\u0ccc\u0ca1\u0cb6\u0cbe\u0cb2\u0cc6 \u0cb9\u0cca\u0cb8\u0c95\u0cc7\u0cb0\u0cbf", "operator": "Government", "school_code": "29330706006"}}, {"type": "node", "id": 2587675363, "lat": 16.38479, "lon": 76.58544, "tags": {"amenity": "school", "name": "Government High School Kakkera", "name:kn": "\u0cb8\u0cb0\u0ccd\u0c95\u0cbe\u0cb0\u0cbf \u0caa\u0ccd\u0cb0\u0ccc\u0ca1\u0cb6\u0cbe\u0cb2\u0cc6 \u0c95\u0c95\u0ccd\u0c95\u0cc6\u0cb0", "operator": "Government", "school_code": "29330810827", "taluk": "Shorapur"}}, {"type": "node", "id": 2587675364, "lat": 16.48441, "lon": 76.5743, "tags": {"amenity": "school", "name": "Government High School Kaldevanhalli", "name:kn": "\u0cb8\u0cb0\u0ccd\u0c95\u0cbe\u0cb0\u0cbf \u0caa\u0ccd\u0cb0\u0ccc\u0ca1\u0cb6\u0cbe\u0cb2\u0cc6 \u0c95\u0cb2\u0ccd\u0cb2\u0ca6\u0cc7\u0cb5\u0ca8\u0cb9\u0cb3\u0ccd\u0cb3\u0cbf", "operator": "Government", "school_code": "29330811003"}}, {"type": "node", "id": 2587675368, "lat": 16.53777, "lon": 76.8006, "tags": {"amenity": "school", "name": "Government High School Lakshmipur", "name:kn": "\u0cb8\u0cb0\u0ccd\u0c95\u0cbe\u0cb0\u0cbf \u0caa\u0ccd\u0cb0\u0ccc\u0ca1\u0cb6\u0cbe\u0cb2\u0cc6", "operator": "Government", "school_code": "29330813604"}}, {"type": "node", "id": 2587675379, "lat": 16.73236, "lon": 76.7461, "tags": {"amenity": "school", "name": "Government High School Urdu Gogi", "name:kn": "\u0cb8\u0cb0\u0ccd\u0c95\u0cbe\u0cb0\u0cbf \u0c89\u0cb0\u0ccd\u0ca6\u0cc1 \u0caa\u0ccd\u0cb0\u0ccc\u0ca1\u0cb6\u0cbe\u0cb2\u0cc6 \u0c97\u0ccb\u0c97\u0cbf", "operator": "Government", "school_code": "29330704024"}}, {"type": "node", "id": 2587675380, "lat": 16.65003, "lon": 76.53227, "tags": {"amenity": "school", "name": "Government High School Urdu Kembhavi", "name:kn": "\u0cb8\u0cb0\u0ccd\u0c95\u0cbe\u0cb0\u0cbf \u0c89\u0cb0\u0ccd\u0ca6\u0cc1 \u0caa\u0ccd\u0cb0\u0ccc\u0ca1\u0cb6\u0cbe\u0cb2\u0cc6 \u0c95\u0cc6\u0c82\u0cad\u0cbe\u0cb5\u0cbf", "operator": "Government", "school_code": "29330811721"}}, {"type": "node", "id": 2587675382, "lat": 16.47603, "lon": 76.54846, "tags": {"amenity": "school", "name": "Government High School Vajjala", "name:kn": "\u0cb8\u0cb0\u0ccd\u0c95\u0cbe\u0cb0\u0cbf \u0caa\u0ccd\u0cb0\u0ccc\u0ca1\u0cb6\u0cbe\u0cb2\u0cc6 \u0cb5\u0c9c\u0ccd\u0c9c\u0cb2", "operator": "Government"}}, {"type": "node", "id": 2587675384, "lat": 16.68796, "lon": 76.50605, "tags": {"amenity": "school", "name": "Government High School Yalagi", "name:kn": "\u0cb8\u0cb0\u0ccd\u0c95\u0cbe\u0cb0\u0cbf \u0caa\u0ccd\u0cb0\u0ccc\u0ca1\u0cb6\u0cbe\u0cb2\u0cc6 \u0caf\u0cbe\u0cb3\u0c97\u0cbf", "operator": "Government", "school_code": "29330821604", "taluk": "Shorapur"}}, {"type": "node", "id": 2587675395, "lat": 16.47068, "lon": 76.5469, "tags": {"amenity": "school", "name": "Government Lower Primary School Ashraya Colony Vajjal", "name:kn": "\u0cb8\u0cb0\u0ccd\u0c95\u0cbe\u0cb0\u0cbf \u0c95\u0cbf\u0cb0\u0cbf\u0caf \u0caa\u0ccd\u0cb0\u0cbe\u0ca5\u0cae\u0cbf\u0c95 \u0cb6\u0cbe\u0cb2\u0cc6", "operator": "Government"}}, {"type": "node", "id": 2587675396, "lat": 16.41728, "lon": 76.57444, "tags": {"amenity": "school", "name": "Government Lower Primary School Asker Doddi Kakkera", "name:kn": "\u0cb8\u0cb0\u0ccd\u0c95\u0cbe\u0cb0\u0cbf \u0c95\u0cbf\u0cb0\u0cbf\u0caf \u0caa\u0ccd\u0cb0\u0cbe\u0ca5\u0cae\u0cbf\u0c95 \u0cb6\u0cbe\u0cb2\u0cc6", "operator": "Government", "school_code": "29330810819", "taluk": "Shorapur"}}, {"type": "node", "id": 2587675401, "lat": 16.42449, "lon": 76.57001, "tags": {"amenity": "school", "name": "Government Lower Primary School Ettinadoddi Kakkera", "name:kn": "\u0cb8\u0cb0\u0ccd\u0c95\u0cbe\u0cb0\u0cbf \u0c95\u0cbf\u0cb0\u0cbf\u0caf \u0caa\u0ccd\u0cb0\u0cbe\u0ca5\u0cae\u0cbf\u0c95 \u0cb6\u0cbe\u0cb2\u0cc6", "operator": "Government", "school_code": "29330810824"}}, {"type": "node", "id": 2587675408, "lat": 16.38433, "lon": 76.59096, "tags": {"amenity": "school", "name": "Government Lower Primary School H.W. Kakkera", "name:kn": "\u0cb8\u0cb0\u0ccd\u0c95\u0cbe\u0cb0\u0cbf \u0c95\u0cbf\u0cb0\u0cbf\u0caf \u0caa\u0ccd\u0cb0\u0cbe\u0ca5\u0cae\u0cbf\u0c95 \u0cb6\u0cbe\u0cb2\u0cc6", "operator": "Government", "school_code": "29330810814", "taluk": "Shorapur"}}, {"type": "node", "id": 2587675410, "lat": 16.42673, "lon": 76.58802, "tags": {"amenity": "school", "name": "Government Lower Primary School Habaler Doddi Kakkera", "name:kn": "\u0cb8\u0cb0\u0ccd\u0c95\u0cbe\u0cb0\u0cbf \u0c95\u0cbf\u0cb0\u0cbf\u0caf \u0caa\u0ccd\u0cb0\u0cbe\u0ca5\u0cae\u0cbf\u0c95 \u0cb6\u0cbe\u0cb2\u0cc6", "operator": "Government", "school_code": "29330810817"}}, {"type": "node", "id": 2587675417, "lat": 16.50739, "lon": 76.77537, "tags": {"amenity": "school", "name": "Glps Kbc Rukmapur", "name:kn": "\u0cb8\u0cb0\u0ccd\u0c95\u0cbe\u0cb0\u0cbf \u0c95\u0cbf\u0cb0\u0cbf\u0caf \u0caa\u0ccd\u0cb0\u0cbe\u0ca5\u0cae\u0cbf\u0c95 \u0cb6\u0cbe\u0cb2\u0cc6", "operator": "Government", "school_code": "29330818603"}}, {"type": "node", "id": 2587675427, "lat": 16.43258, "lon": 76.5162, "tags": {"amenity": "school", "name": "Government Lower Primary School Raghunathapur", "name:kn": "\u0cb8\u0cb0\u0ccd\u0c95\u0cbe\u0cb0\u0cbf \u0c95\u0cbf\u0cb0\u0cbf\u0caf \u0caa\u0ccd\u0cb0\u0cbe\u0ca5\u0cae\u0cbf\u0c95 \u0cb6\u0cbe\u0cb2\u0cc6", "operator": "Government", "school_code": "29330809114", "taluk": "Shorapur"}}, {"type": "node", "id": 2587675430, "lat": 16.61939, "lon": 76.51119, "tags": {"amenity": "school", "name": "Government Lower Primary School Sai Nagar Kembhavi", "name:kn": "\u0cb8\u0cb0\u0ccd\u0c95\u0cbe\u0cb0\u0cbf \u0c95\u0cbf\u0cb0\u0cbf\u0caf \u0caa\u0ccd\u0cb0\u0cbe\u0ca5\u0cae\u0cbf\u0c95 \u0cb6\u0cbe\u0cb2\u0cc6", "operator": "Government", "school_code": "29330811715", "taluk": "Shorapur"}}, {"type": "node", "id": 2587675433, "lat": 16.53485, "lon": 76.79125, "tags": {"amenity": "school", "name": "Government Lower Primary School Satyampeth (kere)", "name:kn": "\u0cb8\u0cb0\u0ccd\u0c95\u0cbe\u0cb0\u0cbf \u0c95\u0cbf\u0cb0\u0cbf\u0caf \u0caa\u0ccd\u0cb0\u0cbe\u0ca5\u0cae\u0cbf\u0c95 \u0cb6\u0cbe\u0cb2\u0cc6 \u0cb8\u0ca4\u0ccd\u0caf\u0c82\u0caa\u0cc7\u0c9f\u0cc6", "operator": "Government", "school_code": "29330818902"}}, {"type": "node", "id": 2587675434, "lat": 16.68677, "lon": 76.74342, "tags": {"amenity": "school", "name": "Government Lower Primary School Sevanayaka Tanda Gogi (k)", "name:kn": "\u0cb8\u0cb0\u0ccd\u0c95\u0cbe\u0cb0\u0cbf \u0c95\u0cbf\u0cb0\u0cbf\u0caf \u0caa\u0ccd\u0cb0\u0cbe\u0ca5\u0cae\u0cbf\u0c95 \u0cb6\u0cbe\u0cb2\u0cc6", "operator": "Government", "school_code": "29330704015"}}, {"type": "node", "id": 2587675438, "lat": 16.72497, "lon": 76.79921, "tags": {"amenity": "school", "name": "Government Lower Primary School Urdu B Gudi", "name:kn": "\u0cb8\u0cb0\u0ccd\u0c95\u0cbe\u0cb0\u0cbf \u0c95\u0cbf\u0cb0\u0cbf\u0caf \u0caa\u0ccd\u0cb0\u0cbe\u0ca5\u0cae\u0cbf\u0c95 \u0c89\u0cb0\u0ccd\u0ca6\u0cc1 \u0cb6\u0cbe\u0cb2\u0cc6 \u0cad\u0cc0\u0cae\u0cb0\u0cbe\u0caf\u0ca8 \u0c97\u0cc1\u0ca1\u0cbf", "operator": "Government", "school_code": "29330702104"}}, {"type": "node", "id": 2587675450, "lat": 16.38378, "lon": 76.67337, "tags": {"amenity": "school", "name": "Government Lower Primary School Urdu Tinthani", "name:kn": "\u0cb8\u0cb0\u0ccd\u0c95\u0cbe\u0cb0\u0cbf \u0c95\u0cbf\u0cb0\u0cbf\u0caf \u0caa\u0ccd\u0cb0\u0cbe\u0ca5\u0cae\u0cbf\u0c95 \u0c89\u0cb0\u0ccd\u0ca6\u0cc1 \u0cb6\u0cbe\u0cb2\u0cc6 \u0ca4\u0cbf\u0c82\u0ca5\u0ca3\u0cbf", "operator": "Government", "school_code": "29330820403", "taluk": "Shorapur"}}, {"type": "node", "id": 2587675454, "lat": 16.45294, "lon": 76.55083, "tags": {"amenity": "school", "name": "Government Lower Primary School Vajjal Tanda", "name:kn": "\u0cb8\u0cb0\u0ccd\u0c95\u0cbe\u0cb0\u0cbf \u0c95\u0cbf\u0cb0\u0cbf\u0caf \u0caa\u0ccd\u0cb0\u0cbe\u0ca5\u0cae\u0cbf\u0c95 \u0cb6\u0cbe\u0cb2\u0cc6", "operator": "Government", "school_code": "29330820905"}}, {"type": "node", "id": 2587675457, "lat": 16.6088, "lon": 76.76167, "tags": {"amenity": "school", "name": "Government Lower Primary School Yallamma Gudda", "name:kn": "\u0cb8\u0cb0\u0ccd\u0c95\u0cbe\u0cb0\u0cbf \u0c95\u0cbf\u0cb0\u0cbf\u0caf \u0caa\u0ccd\u0cb0\u0cbe\u0ca5\u0cae\u0cbf\u0c95 \u0cb6\u0cbe\u0cb2\u0cc6", "operator": "Government", "school_code": "29330711809"}}, {"type": "node", "id": 2587675458, "lat": 16.38593, "lon": 76.56856, "tags": {"amenity": "school", "name": "Government Lower Primary School Yeribandi Camp Kakkera", "name:kn": "\u0cb8\u0cb0\u0ccd\u0c95\u0cbe\u0cb0\u0cbf \u0c95\u0cbf\u0cb0\u0cbf\u0caf \u0caa\u0ccd\u0cb0\u0cbe\u0ca5\u0cae\u0cbf\u0c95 \u0cb6\u0cbe\u0cb2\u0cc6", "operator": "Government", "school_code": "29330810812", "taluk": "Shorapur"}}, {"type": "node", "id": 2587675459, "lat": 16.5233, "lon": 76.76044, "tags": {"amenity": "school", "name": "Gayathri Kannada Higher Primary School Shorapur", "name:kn": "\u0c97\u0cbe\u0caf\u0ca4\u0ccd\u0cb0\u0cc0 \u0c95\u0ca8\u0ccd\u0ca8\u0ca1 \u0cb9\u0cbf\u0cb0\u0cbf\u0caf \u0caa\u0ccd\u0cb0\u0cbe\u0ca5\u0cae\u0cbf\u0c95 \u0cb6\u0cbe\u0cb2\u0cc6", "operator": "Government", "school_code": "29330819427"}}, {"type": "node", "id": 2587675460, "lat": 16.67209, "lon": 76.79195, "tags": {"addr:place": "Umaradoddi", "amenity": "school", "name": "Lower Primary School", "name:kn": "\u0cb8\u0cb0\u0ccd\u0c95\u0cbe\u0cb0\u0cbf \u0c95\u0cbf\u0cb0\u0cbf\u0caf \u0caa\u0ccd\u0cb0\u0cbe\u0ca5\u0cae\u0cbf\u0c95 \u0cb6\u0cbe\u0cb2\u0cc6", "operator": "Government", "school_code": "29330715301"}}, {"type": "node", "id": 2587675461, "lat": 16.52553, "lon": 76.76106, "tags": {"amenity": "school", "name": "Government Junior College Boys Shorapur", "name:kn": "\u0cb8\u0cb0\u0ccd\u0c95\u0cbe\u0cb0\u0cbf \u0c9c\u0cc2\u0ca8\u0cbf\u0caf\u0cb0\u0ccd \u0cac\u0cbe\u0cb2\u0c95\u0cb0 \u0c95\u0cbe\u0cb2\u0cc7\u0c9c\u0cc1", "operator": "Government", "school_code": "29330819434"}}, {"type": "node", "id": 2587675462, "lat": 16.52239, "lon": 76.7585, "tags": {"amenity": "school", "name": "Government Junior College Girls Shorapur", "name:kn": "\u0cb8\u0cb0\u0ccd\u0c95\u0cbe\u0cb0\u0cbf \u0c9c\u0cc2\u0ca8\u0cbf\u0caf\u0cb0\u0ccd \u0cac\u0cbe\u0cb2\u0c95\u0cbf\u0caf\u0cb0 \u0c95\u0cbe\u0cb2\u0cc7\u0c9c\u0cc1", "operator": "Government", "school_code": "29330819435"}}, {"type": "node", "id": 2587675463, "lat": 16.72752, "lon": 76.74762, "tags": {"amenity": "school", "name": "Government Junior College", "name:kn": "\u0cb8\u0cb0\u0ccd\u0c95\u0cbe\u0cb0\u0cbf \u0c9c\u0cc2\u0ca8\u0cbf\u0caf\u0cb0\u0ccd \u0c95\u0cbe\u0cb2\u0cc7\u0c9c\u0cc1 \u0c97\u0ccb\u0c97\u0cbf", "operator": "Government", "school_code": "29330704025"}}, {"type": "node", "id": 2587675466, "lat": 16.52903, "lon": 76.77257, "tags": {"amenity": "school", "name": "Government Junior College Rangampet", "name:kn": "\u0cb8\u0cb0\u0ccd\u0c95\u0cbe\u0cb0\u0cbf \u0c9c\u0cc2\u0ca8\u0cbf\u0caf\u0cb0\u0ccd \u0c95\u0cbe\u0cb2\u0cc7\u0c9c\u0cc1 \u0cb0\u0c82\u0c97\u0c82\u0caa\u0cc7\u0c9f\u0cc6", "operator": "Government", "school_code": "29330818314"}}, {"type": "node", "id": 2587675467, "lat": 16.45479, "lon": 76.52592, "tags": {"amenity": "school", "name": "Gjs Hunasagi", "operator": "Government", "school_code": "29330809112"}}, {"type": "node", "id": 2587675471, "lat": 16.51769, "lon": 76.75489, "tags": {"amenity": "school", "name": "Gnyanodaya High School Shorapur", "name:kn": "\u0c9c\u0ccd\u0c9e\u0cbe\u0ca8\u0ccb\u0ca6\u0caf \u0caa\u0ccd\u0cb0\u0ccc\u0ca1\u0cb6\u0cbe\u0cb2\u0cc6", "operator": "Government", "school_code": "29330819436"}}, {"type": "node", "id": 2587675472, "lat": 16.51879, "lon": 76.75715, "tags": {"amenity": "school", "name": "Gnyanodaya Lower Primary School Shorapur", "name:kn": "\u0c9c\u0ccd\u0c9e\u0cbe\u0ca8\u0ccb\u0ca6\u0caf \u0c95\u0cbf\u0cb0\u0cbf\u0caf \u0caa\u0ccd\u0cb0\u0cbe\u0ca5\u0cae\u0cbf\u0c95 \u0cb6\u0cbe\u0cb2\u0cc6", "operator": "Government", "school_code": "29330819433"}}, {"type": "node", "id": 2587675473, "lat": 16.72621, "lon": 76.74498, "tags": {"amenity": "school", "name": "Gautam Buddha High School Gogi", "name:kn": "\u0c97\u0ccc\u0ca4\u0cae \u0cac\u0cc1\u0ca6\u0ccd\u0ca7 \u0caa\u0ccd\u0cb0\u0ccc\u0ca1 \u0cb6\u0cbe\u0cb2\u0cc6", "operator": "Government", "school_code": "29330704021"}}, {"type": "node", "id": 2587675477, "lat": 16.46537, "lon": 76.64668, "tags": {"amenity": "school", "name": "Government Higher Primary School Devtkal", "name:kn": "\u0cb8\u0cb0\u0ccd\u0c95\u0cbe\u0cb0\u0cbf \u0cb9\u0cbf\u0cb0\u0cbf\u0caf \u0caa\u0ccd\u0cb0\u0cbe\u0ca5\u0cae\u0cbf\u0c95 \u0cb6\u0cbe\u0cb2\u0cc6 \u0ca6\u0cc7\u0cb5\u0ca4\u0c95\u0cb2\u0ccd\u200c", "operator": "Government", "school_code": "29330805302"}}, {"type": "node", "id": 2587675481, "lat": 16.68246, "lon": 76.71943, "tags": {"amenity": "school", "name": "Government Byarierdoddi Lps", "name:kn": "\u0cb8\u0cb0\u0ccd\u0c95\u0cbe\u0cb0\u0cbf \u0c95\u0cbf\u0cb0\u0cbf\u0caf \u0caa\u0ccd\u0cb0\u0cbe\u0ca5\u0cae\u0cbf\u0c95 \u0cb6\u0cbe\u0cb2\u0cc6", "operator": "Government", "school_code": "29330704022"}}, {"type": "node", "id": 2587675483, "lat": 16.70794, "lon": 76.80584, "tags": {"amenity": "school", "name": "Government Higher Primary School Diggi", "name:kn": "\u0cb8\u0cb0\u0ccd\u0c95\u0cbe\u0cb0\u0cbf \u0cb9\u0cbf\u0cb0\u0cbf\u0caf \u0caa\u0ccd\u0cb0\u0cbe\u0ca5\u0cae\u0cbf\u0c95 \u0cb6\u0cbe\u0cb2\u0cc6 \u0ca6\u0cbf\u0c97\u0ccd\u0c97\u0cbf", "operator": "Government", "school_code": "29330703401"}}, {"type": "node", "id": 2587675491, "lat": 16.54131, "lon": 76.68498, "tags": {"amenity": "school", "name": "Government Higher Primary School Aladal", "name:kn": "\u0cb8\u0cb0\u0ccd\u0c95\u0cbe\u0cb0\u0cbf \u0cb9\u0cbf\u0cb0\u0cbf\u0caf \u0caa\u0ccd\u0cb0\u0cbe\u0ca5\u0cae\u0cbf\u0c95 \u0cb6\u0cbe\u0cb2\u0cc6", "note": "BAD LOCATION", "operator": "Government", "school_code": "29330800101"}}, {"type": "node", "id": 2587675510, "lat": 16.53206, "lon": 76.50683, "tags": {"amenity": "school", "name": "Government Higher Primary School Arakera J", "name:kn": "\u0cb8\u0cb0\u0ccd\u0c95\u0cbe\u0cb0\u0cbf \u0cb9\u0cbf\u0cb0\u0cbf\u0caf \u0caa\u0ccd\u0cb0\u0cbe\u0ca5\u0cae\u0cbf\u0c95 \u0cb6\u0cbe\u0cb2\u0cc6", "operator": "Government"}}, {"type": "node", "id": 2587675528, "lat": 16.74118, "lon": 76.66538, "tags": {"addr:place": "B N Tanda", "amenity": "school", "name": "Higher Primary School", "name:kn": "\u0cb8\u0cb0\u0ccd\u0c95\u0cbe\u0cb0\u0cbf \u0cb9\u0cbf\u0cb0\u0cbf\u0caf \u0caa\u0ccd\u0cb0\u0cbe\u0ca5\u0cae\u0cbf\u0c95 \u0cb6\u0cbe\u0cb2\u0cc6", "operator": "Government"}}, {"type": "node", "id": 2587675529, "lat": 16.7251, "lon": 76.79961, "tags": {"amenity": "school", "name": "Government Higher Primary School B.Gudi", "name:kn": "\u0cb8\u0cb0\u0ccd\u0c95\u0cbe\u0cb0\u0cbf \u0cb9\u0cbf\u0cb0\u0cbf\u0caf \u0caa\u0ccd\u0cb0\u0cbe\u0ca5\u0cae\u0cbf\u0c95 \u0cb6\u0cbe\u0cb2\u0cc6 \u0cad\u0cc0\u0cae\u0cb0\u0cbe\u0caf\u0ca8 \u0c97\u0cc1\u0ca1\u0cbf", "operator": "Government", "school_code": "29330702101"}}, {"type": "node", "id": 2587675538, "lat": 16.6009, "lon": 76.73444, "tags": {"amenity": "school", "name": "Government Higher Primary School Badyapur", "name:kn": "\u0cb8\u0cb0\u0ccd\u0c95\u0cbe\u0cb0\u0cbf \u0cb9\u0cbf\u0cb0\u0cbf\u0caf \u0caa\u0ccd\u0cb0\u0cbe\u0ca5\u0cae\u0cbf\u0c95 \u0cb6\u0cbe\u0cb2\u0cc6 \u0cac\u0cbe\u0ca6\u0ccd\u0caf\u0cbe\u0caa\u0cc1\u0cb0", "operator": "Government", "school_code": "29330801601"}}, {"type": "node", "id": 2587675539, "lat": 16.55569, "lon": 76.56524, "tags": {"amenity": "school", "name": "Government Higher Primary School Baichbal", "name:kn": "\u0cb8\u0cb0\u0ccd\u0c95\u0cbe\u0cb0\u0cbf \u0cb9\u0cbf\u0cb0\u0cbf\u0caf \u0caa\u0ccd\u0cb0\u0cbe\u0ca5\u0cae\u0cbf\u0c95 \u0cb6\u0cbe\u0cb2\u0cc6 \u0cac\u0cc8\u0c9a\u0cac\u0cbe\u0cb3", "operator": "Government", "school_code": "29330801701"}}, {"type": "node", "id": 2587675541, "lat": 16.38925, "lon": 76.5078, "tags": {"amenity": "school", "name": "Government Higher Primary School Balashettyhala", "name:kn": "\u0cb8\u0cb0\u0ccd\u0c95\u0cbe\u0cb0\u0cbf \u0cb9\u0cbf\u0cb0\u0cbf\u0caf \u0caa\u0ccd\u0cb0\u0cbe\u0ca5\u0cae\u0cbf\u0c95 \u0cb6\u0cbe\u0cb2\u0cc6 \u0cac\u0cb2\u0cb6\u0cc6\u0c9f\u0ccd\u0c9f\u0cbf\u0cb9\u0cbe\u0cb3", "operator": "Government", "school_code": "29330801901", "taluk": "Shorapur"}}, {"type": "node", "id": 2587675555, "lat": 16.47625, "lon": 76.623, "tags": {"amenity": "school", "name": "Government Higher Primary School Benakanhalli", "name:kn": "\u0cb8\u0cb0\u0ccd\u0c95\u0cbe\u0cb0\u0cbf \u0cb9\u0cbf\u0cb0\u0cbf\u0caf \u0caa\u0ccd\u0cb0\u0cbe\u0ca5\u0cae\u0cbf\u0c95 \u0cb6\u0cbe\u0cb2\u0cc6, \u0cac\u0cc6\u0ca8\u0c95\u0ca8\u0cb9\u0cb3\u0ccd\u0cb3\u0cbf", "operator": "Government", "school_code": "29330803001"}}, {"type": "node", "id": 2587675563, "lat": 16.5555, "lon": 76.70693, "tags": {"amenity": "school", "name": "Government Higher Primary School Bommanhalli T", "name:kn": "\u0cb8\u0cb0\u0ccd\u0c95\u0cbe\u0cb0\u0cbf \u0cb9\u0cbf\u0cb0\u0cbf\u0caf \u0caa\u0ccd\u0cb0\u0cbe\u0ca5\u0cae\u0cbf\u0c95 \u0cb6\u0cbe\u0cb2\u0cc6 \u0cac\u0cca\u0cae\u0ccd\u0cae\u0ca8\u0cb9\u0cb3\u0ccd\u0cb3", "operator": "Government", "school_code": "29330803601"}}, {"type": "node", "id": 2587675564, "lat": 16.51472, "lon": 76.65611, "tags": {"amenity": "school", "name": "Government Higher Primary School Bonala", "name:kn": "\u0cb8\u0cb0\u0ccd\u0c95\u0cbe\u0cb0\u0cbf \u0cb9\u0cbf\u0cb0\u0cbf\u0caf \u0caa\u0ccd\u0cb0\u0cbe\u0ca5\u0cae\u0cbf\u0c95 \u0cb6\u0cbe\u0cb2\u0cc6 \u0cac\u0ccb\u0ca8\u0cbe\u0cb3", "operator": "Government", "school_code": "29330803701"}}, {"type": "node", "id": 2587675566, "lat": 16.75464, "lon": 76.68733, "tags": {"addr:place": "Buddu Nayka Tanda", "amenity": "school", "name": "Higher Primary School", "name:kn": "\u0cb8\u0cb0\u0ccd\u0c95\u0cbe\u0cb0\u0cbf \u0cb9\u0cbf\u0cb0\u0cbf\u0caf \u0caa\u0ccd\u0cb0\u0cbe\u0ca5\u0cae\u0cbf\u0c95 \u0cb6\u0cbe\u0cb2\u0cc6", "operator": "Government", "school_code": "29330705503"}}, {"type": "node", "id": 2587675568, "lat": 16.71687, "lon": 76.64915, "tags": {"amenity": "school", "name": "Government Higher Primary School Chamanala Tanda", "name:kn": "\u0cb8\u0cb0\u0ccd\u0c95\u0cbe\u0cb0\u0cbf \u0cb9\u0cbf\u0cb0\u0cbf\u0caf \u0caa\u0ccd\u0cb0\u0cbe\u0ca5\u0cae\u0cbf\u0c95 \u0cb6\u0cbe\u0cb2\u0cc6 \u0c9a\u0cbe\u0cae\u0ca8\u0cbe\u0cb3", "operator": "Government", "school_code": "29330702702"}}, {"type": "node", "id": 2587675569, "lat": 16.71841, "lon": 76.63949, "tags": {"amenity": "school", "name": "Government Higher Primary School Chamanala", "name:kn": "\u0cb8\u0cb0\u0ccd\u0c95\u0cbe\u0cb0\u0cbf \u0cb9\u0cbf\u0cb0\u0cbf\u0caf \u0caa\u0ccd\u0cb0\u0cbe\u0ca5\u0cae\u0cbf\u0c95 \u0cb6\u0cbe\u0cb2\u0cc6 \u0c9a\u0cbe\u0cae\u0ca8\u0cbe\u0cb3", "operator": "Government", "school_code": "29330702701"}}, {"type": "node", "id": 2587675570, "lat": 16.45574, "lon": 76.79905, "tags": {"amenity": "school", "name": "Government Higher Primary School Chandalapura", "name:kn": "\u0cb8\u0cb0\u0ccd\u0c95\u0cbe\u0cb0\u0cbf \u0cb9\u0cbf\u0cb0\u0cbf\u0caf \u0caa\u0ccd\u0cb0\u0cbe\u0ca5\u0cae\u0cbf\u0c95 \u0cb6\u0cbe\u0cb2\u0cc6", "operator": "Government", "school_code": "29330804101"}}, {"type": "node", "id": 2587675571, "lat": 16.70653, "lon": 76.67288, "tags": {"amenity": "school", "name": "Government Higher Primary School Chandapura", "name:kn": "\u0cb8\u0cb0\u0ccd\u0c95\u0cbe\u0cb0\u0cbf \u0cb9\u0cbf\u0cb0\u0cbf\u0caf \u0caa\u0ccd\u0cb0\u0cbe\u0ca5\u0cae\u0cbf\u0c95 \u0cb6\u0cbe\u0cb2\u0cc6 \u0c9a\u0c82\u0ca6\u0cbe\u0caa\u0cc2\u0cb0", "operator": "Government", "school_code": "29330702801"}}, {"type": "node", "id": 2587675574, "lat": 16.58182, "lon": 76.65424, "tags": {"amenity": "school", "name": "Government Higher Primary School Chigarahala", "name:kn": "\u0cb8\u0cb0\u0ccd\u0c95\u0cbe\u0cb0\u0cbf \u0cb9\u0cbf\u0cb0\u0cbf\u0caf \u0caa\u0ccd\u0cb0\u0cbe\u0ca5\u0cae\u0cbf\u0c95 \u0cb6\u0cbe\u0cb2\u0cc6 \u0c9a\u0cbf\u0c97\u0cb0\u0cb9\u0cbe\u0cb3", "operator": "Government", "school_code": "29330804402"}}, {"type": "node", "id": 2587675575, "lat": 16.50817, "lon": 76.62502, "tags": {"amenity": "school", "name": "Government Higher Primary School Chikanhalli", "name:kn": "\u0cb8\u0cb0\u0ccd\u0c95\u0cbe\u0cb0\u0cbf \u0cb9\u0cbf\u0cb0\u0cbf\u0caf \u0caa\u0ccd\u0cb0\u0cbe\u0ca5\u0cae\u0cbf\u0c95 \u0cb6\u0cbe\u0cb2\u0cc6 \u0c9a\u0cbf\u0c95\u0ccd\u0c95\u0ca8\u0cb9\u0cb3\u0ccd\u0cb3\u0cbf", "operator": "Government", "school_code": "29330804501"}}, {"type": "node", "id": 2587675580, "lat": 16.72348, "lon": 76.63803, "tags": {"amenity": "school", "name": "Government Higher Primary School Dandasolapur", "name:kn": "\u0cb8\u0cb0\u0ccd\u0c95\u0cbe\u0cb0\u0cbf \u0cb9\u0cbf\u0cb0\u0cbf\u0caf \u0caa\u0ccd\u0cb0\u0cbe\u0ca5\u0cae\u0cbf\u0c95 \u0cb6\u0cbe\u0cb2\u0cc6", "operator": "Government", "school_code": "29330805002"}}, {"type": "node", "id": 2587675581, "lat": 16.6797, "lon": 76.7335, "tags": {"amenity": "school", "name": "Government Higher Primary School Danganayak Tanda", "name:kn": "\u0cb8\u0cb0\u0ccd\u0c95\u0cbe\u0cb0\u0cbf \u0cb9\u0cbf\u0cb0\u0cbf\u0caf \u0caa\u0ccd\u0cb0\u0cbe\u0ca5\u0cae\u0cbf\u0c95 \u0cb6\u0cbe\u0cb2\u0cc6", "operator": "Government", "school_code": "29330704007"}}, {"type": "node", "id": 2587675583, "lat": 16.63634, "lon": 76.77396, "tags": {"amenity": "school", "name": "Government Higher Primary School Dariyapur", "name:kn": "\u0cb8\u0cb0\u0ccd\u0c95\u0cbe\u0cb0\u0cbf \u0cb9\u0cbf\u0cb0\u0cbf\u0caf \u0caa\u0ccd\u0cb0\u0cbe\u0ca5\u0cae\u0cbf\u0c95 \u0cb6\u0cbe\u0cb2\u0cc6 \u0ca6\u0cb0\u0cbf\u0caf\u0cbe\u0caa\u0cc2\u0cb0", "operator": "Government", "school_code": "29330703301"}}, {"type": "node", "id": 2587675584, "lat": 16.7419605, "lon": 76.6913368, "tags": {"addr:place": "Darshanapur", "amenity": "school", "name": "Higher Primary School", "name:kn": "\u0cb8\u0cb0\u0ccd\u0c95\u0cbe\u0cb0\u0cbf \u0cb9\u0cbf\u0cb0\u0cbf\u0caf \u0caa\u0ccd\u0cb0\u0cbe\u0ca5\u0cae\u0cbf\u0c95 \u0cb6\u0cbe\u0cb2\u0cc6 \u0ca6\u0cb0\u0ccd\u0cb6\u0ca8\u0cbe\u0caa\u0cc1\u0cb0", "operator": "Government", "school_code": "29330703201"}}, {"type": "node", "id": 2587675585, "lat": 16.43592, "lon": 76.72619, "tags": {"amenity": "school", "name": "Government Higher Primary School Devapur", "name:kn": "\u0cb8\u0cb0\u0ccd\u0c95\u0cbe\u0cb0\u0cbf \u0cb9\u0cbf\u0cb0\u0cbf\u0caf \u0caa\u0ccd\u0cb0\u0cbe\u0ca5\u0cae\u0cbf\u0c95 \u0cb6\u0cbe\u0cb2\u0cc6", "operator": "Government", "school_code": "29330805101"}}, {"type": "node", "id": 2587675586, "lat": 16.57378, "lon": 76.72127, "tags": {"amenity": "school", "name": "Government Higher Primary School Devargonala", "name:kn": "\u0cb8\u0cb0\u0ccd\u0c95\u0cbe\u0cb0\u0cbf \u0cb9\u0cbf\u0cb0\u0cbf\u0caf \u0caa\u0ccd\u0cb0\u0cbe\u0ca5\u0cae\u0cbf\u0c95 \u0cb6\u0cbe\u0cb2\u0cc6 \u0ca6\u0cc7\u0cb5\u0cb0\u0c97\u0ccb\u0ca8\u0cbe\u0cb2", "operator": "Government", "school_code": "29330805401"}}, {"type": "node", "id": 2587675589, "lat": 16.55683, "lon": 76.78414, "tags": {"amenity": "school", "name": "Government Higher Primary School Devikera", "name:kn": "\u0cb8\u0cb0\u0ccd\u0c95\u0cbe\u0cb0\u0cbf \u0cb9\u0cbf\u0cb0\u0cbf\u0caf \u0caa\u0ccd\u0cb0\u0cbe\u0ca5\u0cae\u0cbf\u0c95 \u0cb6\u0cbe\u0cb2\u0cc6 \u0ca6\u0cc7\u0cb5\u0cbf\u0c95\u0cc7\u0cb0\u0cbe", "operator": "Government", "school_code": "29330805501"}}, {"type": "node", "id": 2587675592, "lat": 16.40201, "lon": 76.49195, "tags": {"amenity": "school", "name": "Government Higher Primary School, Dyamanala", "name:kn": "\u0cb8\u0cb0\u0ccd\u0c95\u0cbe\u0cb0\u0cbf \u0cb9\u0cbf\u0cb0\u0cbf\u0caf \u0caa\u0ccd\u0cb0\u0cbe\u0ca5\u0cae\u0cbf\u0c95 \u0cb6\u0cbe\u0cb2\u0cc6, \u0ca6\u0ccd\u0caf\u0cbe\u0cae\u0ca8\u0cbe\u0cb3", "operator": "Government", "school_code": "29330805601", "taluk": "Shorapur"}}, {"type": "node", "id": 2587675601, "lat": 16.53142, "lon": 76.78104, "tags": {"amenity": "school", "name": "Government Higher Primary School Divalagudda", "name:kn": "\u0cb8\u0cb0\u0ccd\u0c95\u0cbe\u0cb0\u0cbf \u0cb9\u0cbf\u0cb0\u0cbf\u0caf \u0caa\u0ccd\u0cb0\u0cbe\u0ca5\u0cae\u0cbf\u0c95 \u0cb6\u0cbe\u0cb2\u0cc6", "operator": "Government", "school_code": "29330805701"}}, {"type": "node", "id": 2587675606, "lat": 16.63698, "lon": 76.74931, "tags": {"amenity": "school", "name": "Government Higher Primary School Ganaganal", "name:kn": "\u0cb8\u0cb0\u0ccd\u0c95\u0cbe\u0cb0\u0cbf \u0cb9\u0cbf\u0cb0\u0cbf\u0caf \u0caa\u0ccd\u0cb0\u0cbe\u0ca5\u0cae\u0cbf\u0c95 \u0cb6\u0cbe\u0cb2\u0cc6 \u0c97\u0c82\u0c97\u0ca8\u0cbe\u0cb3", "operator": "Government", "school_code": "29330703801"}}, {"type": "node", "id": 2587675609, "lat": 16.73241, "lon": 76.74552, "tags": {"amenity": "school", "name": "Government Higher Primary School Girls Gogi", "name:kn": "\u0cb8\u0cb0\u0ccd\u0c95\u0cbe\u0cb0\u0cbf \u0cac\u0cbe\u0cb2\u0c95\u0cbf\u0caf\u0cb0 \u0cb9\u0cbf\u0cb0\u0cbf\u0caf \u0caa\u0ccd\u0cb0\u0cbe\u0ca5\u0cae\u0cbf\u0c95 \u0cb6\u0cbe\u0cb2\u0cc6", "operator": "Government", "school_code": "29330704003"}}, {"type": "node", "id": 2587675614, "lat": 16.4274, "lon": 76.6323, "tags": {"amenity": "school", "name": "Government Higher Primary School Godihala (T)", "name:kn": "\u0cb8\u0cb0\u0ccd\u0c95\u0cbe\u0cb0\u0cbf \u0cb9\u0cbf\u0cb0\u0cbf\u0caf \u0caa\u0ccd\u0cb0\u0cbe\u0ca5\u0cae\u0cbf\u0c95 \u0cb6\u0cbe\u0cb2\u0cc6, \u0c97\u0ccb\u0ca1\u0cbf\u0cb9\u0cbe\u0cb3", "operator": "Government", "school_code": "29330806201"}}, {"type": "node", "id": 2587675616, "lat": 16.5285, "lon": 76.48461, "tags": {"amenity": "school", "name": "Government Higher Primary School Gondalagera", "name:kn": "\u0cb8\u0cb0\u0ccd\u0c95\u0cbe\u0cb0\u0cbf \u0cb9\u0cbf\u0cb0\u0cbf\u0caf \u0caa\u0ccd\u0cb0\u0cbe\u0ca5\u0cae\u0cbf\u0c95 \u0cb6\u0cbe\u0cb2\u0cc6 \u0c97\u0cc1\u0c82\u0ca1\u0cb2\u0c97\u0cc7\u0cb0\u0cbf", "operator": "Government"}}, {"type": "node", "id": 2587675620, "lat": 16.57999, "lon": 76.54924, "tags": {"amenity": "school", "name": "Government Higher Primary School Goudagera", "name:kn": "\u0cb8\u0cb0\u0ccd\u0c95\u0cbe\u0cb0\u0cbf \u0cb9\u0cbf\u0cb0\u0cbf\u0caf \u0caa\u0ccd\u0cb0\u0cbe\u0ca5\u0cae\u0cbf\u0c95 \u0cb6\u0cbe\u0cb2\u0cc6", "operator": "Government"}}, {"type": "node", "id": 2587675653, "lat": 16.75528, "lon": 76.69925, "tags": {"amenity": "school", "name": "Government Higher Primary School Haranagera", "name:kn": "\u0cb8\u0cb0\u0ccd\u0c95\u0cbe\u0cb0\u0cbf \u0cb9\u0cbf\u0cb0\u0cbf\u0caf \u0caa\u0ccd\u0cb0\u0cbe\u0ca5\u0cae\u0cbf\u0c95 \u0cb6\u0cbe\u0cb2\u0cc6 \u0cb9\u0cbe\u0cb0\u0ca3\u0c97\u0cc7\u0cb0", "operator": "Government", "school_code": "29330705501"}}, {"type": "node", "id": 2587675672, "lat": 16.48167, "lon": 76.59751, "tags": {"amenity": "school", "name": "Government Higher Primary School Hebbal [b]i", "name:kn": "\u0cb8\u0cb0\u0ccd\u0c95\u0cbe\u0cb0\u0cbf \u0cb9\u0cbf\u0cb0\u0cbf\u0caf \u0caa\u0ccd\u0cb0\u0cbe\u0ca5\u0cae\u0cbf\u0c95 \u0cb6\u0cbe\u0cb2\u0cc6", "operator": "Government", "school_code": "29330808101"}}, {"type": "node", "id": 2587675684, "lat": 16.66012, "lon": 76.71768, "tags": {"amenity": "school", "name": "Government Higher Primary School Hosakera", "name:kn": "\u0cb8\u0cb0\u0ccd\u0c95\u0cbe\u0cb0\u0cbf \u0cb9\u0cbf\u0cb0\u0cbf\u0caf \u0caa\u0ccd\u0cb0\u0cbe\u0ca5\u0cae\u0cbf\u0c95 \u0cb6\u0cbe\u0cb2\u0cc6 \u0cb9\u0cca\u0cb8\u0c95\u0cc7\u0cb0\u0cbf", "operator": "Government", "school_code": "29330706001"}}, {"type": "node", "id": 2587675689, "lat": 16.38393, "lon": 76.63694, "tags": {"amenity": "school", "name": "Government Higher Primary School Hunasihole", "name:kn": "\u0cb8\u0cb0\u0ccd\u0c95\u0cbe\u0cb0\u0cbf \u0cb9\u0cbf\u0cb0\u0cbf\u0caf \u0caa\u0ccd\u0cb0\u0cbe\u0ca5\u0cae\u0cbf\u0c95 \u0cb6\u0cbe\u0cb2\u0cc6 \u0cb9\u0cc1\u0ca3\u0cb8\u0cbf\u0cb9\u0cc2\u0cb3\u0cc6", "operator": "Government", "school_code": "29330809301", "taluk": "Shorapur"}}, {"type": "node", "id": 2587675693, "lat": 16.4955, "lon": 76.48772, "tags": {"amenity": "school", "name": "Government Higher Primary School, Isampura", "name:kn": "\u0cb8\u0cb0\u0ccd\u0c95\u0cbe\u0cb0\u0cbf \u0cb9\u0cbf\u0cb0\u0cbf\u0caf \u0caa\u0ccd\u0cb0\u0cbe\u0ca5\u0cae\u0cbf\u0c95 \u0cb6\u0cbe\u0cb2\u0cc6, \u0c87\u0cb8\u0cbe\u0c82\u0caa\u0cc1\u0cb0", "operator": "Government", "school_code": "29330809501", "taluk": "Shorapur"}}, {"type": "node", "id": 2587675697, "lat": 16.55564, "lon": 76.67287, "tags": {"amenity": "school", "name": "Government Higher Primary School Jalibenchi", "name:kn": "\u0cb8\u0cb0\u0ccd\u0c95\u0cbe\u0cb0\u0cbf \u0cb9\u0cbf\u0cb0\u0cbf\u0caf \u0caa\u0ccd\u0cb0\u0cbe\u0ca5\u0cae\u0cbf\u0c95 \u0cb6\u0cbe\u0cb2\u0cc6, \u0c9c\u0cbe\u0cb2\u0cbf\u0cac\u0cc6\u0c82\u0c9a\u0cbf", "operator": "Government", "school_code": "29330809901"}}, {"type": "node", "id": 2587675703, "lat": 16.52031, "lon": 76.76341, "tags": {"amenity": "school", "name": "Government Higher Primary School Kabadgera Shorapur", "name:kn": "\u0cb8\u0cb0\u0ccd\u0c95\u0cbe\u0cb0\u0cbf \u0cb9\u0cbf\u0cb0\u0cbf\u0caf \u0caa\u0ccd\u0cb0\u0cbe\u0ca5\u0cae\u0cbf\u0c95 \u0cb6\u0cbe\u0cb2\u0cc6", "operator": "Government", "school_code": "29330819409"}}, {"type": "node", "id": 2587675704, "lat": 16.52472, "lon": 76.59011, "tags": {"amenity": "school", "name": "Government Higher Primary School Kachkanoor", "name:kn": "\u0cb8\u0cb0\u0ccd\u0c95\u0cbe\u0cb0\u0cbf \u0cb9\u0cbf\u0cb0\u0cbf\u0caf \u0caa\u0ccd\u0cb0\u0cbe\u0ca5\u0cae\u0cbf\u0c95 \u0cb6\u0cbe\u0cb2\u0cc6 \u0c95\u0c9a\u0c95\u0ca8\u0cc2\u0cb0", "operator": "Government", "school_code": "29330810501"}}, {"type": "node", "id": 2587675709, "lat": 16.67269, "lon": 76.6748, "tags": {"amenity": "school", "name": "Government Higher Primary School Kakkasagera", "name:kn": "\u0cb8\u0cb0\u0ccd\u0c95\u0cbe\u0cb0\u0cbf \u0cb9\u0cbf\u0cb0\u0cbf\u0caf \u0caa\u0ccd\u0cb0\u0cbe\u0ca5\u0cae\u0cbf\u0c95 \u0cb6\u0cbe\u0cb2\u0cc6 \u0c95\u0c95\u0ccd\u0c95\u0cb8\u0c97\u0cc7\u0cb0\u0cbe", "operator": "Government", "school_code": "29330707201"}}, {"type": "node", "id": 2587675710, "lat": 16.3861, "lon": 76.58964, "tags": {"amenity": "school", "name": "Government Higher Primary School Kakkera", "name:kn": "\u0cb8\u0cb0\u0ccd\u0c95\u0cbe\u0cb0\u0cbf \u0cb9\u0cbf\u0cb0\u0cbf\u0caf \u0caa\u0ccd\u0cb0\u0cbe\u0ca5\u0cae\u0cbf\u0c95 \u0cb6\u0cbe\u0cb2\u0cc6 \u0c95\u0c95\u0ccd\u0c95\u0cc6\u0cb0", "operator": "Government", "school_code": "29330810801", "taluk": "Shorapur"}}, {"type": "node", "id": 2587675712, "lat": 16.48514, "lon": 76.57518, "tags": {"amenity": "school", "name": "Government Higher Primary School Kalldevan Halli", "name:kn": "\u0cb8\u0cb0\u0ccd\u0c95\u0cbe\u0cb0\u0cbf \u0cb9\u0cbf\u0cb0\u0cbf\u0caf \u0caa\u0ccd\u0cb0\u0cbe\u0ca5\u0cae\u0cbf\u0c95 \u0cb6\u0cbe\u0cb2\u0cc6 \u0c95\u0cb2\u0ccd\u0cb2\u0ca6\u0cc7\u0cb5\u0ca8\u0cb9\u0cb3\u0ccd\u0cb3\u0cbf", "operator": "Government", "school_code": "29330811001"}}, {"type": "node", "id": 2587675713, "lat": 16.55788, "lon": 76.59939, "tags": {"amenity": "school", "name": "Government Higher Primary School Kanalli", "name:kn": "\u0cb8\u0cb0\u0ccd\u0c95\u0cbe\u0cb0\u0cbf \u0cb9\u0cbf\u0cb0\u0cbf\u0caf \u0caa\u0ccd\u0cb0\u0cbe\u0ca5\u0cae\u0cbf\u0c95 \u0cb6\u0cbe\u0cb2\u0cc6 \u0c95\u0ca8\u0ccd\u0ca8\u0cb3\u0ccd\u0cb3\u0cbf", "operator": "Government", "school_code": "29330811101"}}, {"type": "node", "id": 2587675718, "lat": 16.71412, "lon": 76.70554, "tags": {"amenity": "school", "name": "Government Higher Primary School Karakihalli", "name:kn": "\u0cb8\u0cb0\u0ccd\u0c95\u0cbe\u0cb0\u0cbf \u0cb9\u0cbf\u0cb0\u0cbf\u0caf \u0caa\u0ccd\u0cb0\u0cbe\u0ca5\u0cae\u0cbf\u0c95 \u0cb6\u0cbe\u0cb2\u0cc6, \u0c95\u0cb0\u0c95\u0cbf\u0cb9\u0cb3\u0ccd\u0cb3\u0cbf", "operator": "Government", "school_code": "29330707501"}}, {"type": "node", "id": 2587675722, "lat": 16.48402, "lon": 76.74901, "tags": {"amenity": "school", "name": "Government Higher Primary School Kavadimatti", "name:kn": "\u0cb8\u0cb0\u0ccd\u0c95\u0cbe\u0cb0\u0cbf \u0cb9\u0cbf\u0cb0\u0cbf\u0caf \u0caa\u0ccd\u0cb0\u0cbe\u0ca5\u0cae\u0cbf\u0c95 \u0cb6\u0cbe\u0cb2\u0cc6 \u0c95\u0cb5\u0ca1\u0cbf\u0cae\u0c9f\u0ccd\u0c9f\u0cbf", "operator": "Government", "school_code": "29330822701"}}, {"type": "node", "id": 2587675727, "lat": 16.62658, "lon": 76.61885, "tags": {"amenity": "school", "name": "Government Higher Primary School Kiradalli", "name:kn": "\u0cb8\u0cb0\u0ccd\u0c95\u0cbe\u0cb0\u0cbf \u0cb9\u0cbf\u0cb0\u0cbf\u0caf \u0caa\u0ccd\u0cb0\u0cbe\u0ca5\u0cae\u0cbf\u0c95 \u0cb6\u0cbe\u0cb2\u0cc6 \u0c95\u0cb0\u0ca6\u0cb9\u0cb3\u0ccd\u0cb3\u0cbf", "operator": "Government", "school_code": "29330810701"}}, {"type": "node", "id": 2587675729, "lat": 16.76056, "lon": 76.77059, "tags": {"amenity": "school", "name": "Government Higher Primary School Kodamanhalli", "name:kn": "\u0cb8\u0cb0\u0ccd\u0c95\u0cbe\u0cb0\u0cbf \u0cb9\u0cbf\u0cb0\u0cbf\u0caf \u0caa\u0ccd\u0cb0\u0cbe\u0ca5\u0cae\u0cbf\u0c95 \u0cb6\u0cbe\u0cb2\u0cc6 \u0c95\u0cca\u0ca1\u0cae\u0ca8\u0cb9\u0cb3\u0ccd\u0cb3\u0cbf", "operator": "Government", "school_code": "29330708001"}}, {"type": "node", "id": 2587675733, "lat": 16.46193, "lon": 76.66449, "tags": {"amenity": "school", "name": "Government Higher Primary School Konala", "name:kn": "\u0cb8\u0cb0\u0ccd\u0c95\u0cbe\u0cb0\u0cbf \u0cb9\u0cbf\u0cb0\u0cbf\u0caf \u0caa\u0ccd\u0cb0\u0cbe\u0ca5\u0cae\u0cbf\u0c95 \u0cb6\u0cbe\u0cb2\u0cc6 \u0c95\u0cca\u0ca8\u0ccd\u0cb9\u0cbe\u0cb3", "operator": "Government", "school_code": "29330812801"}}, {"type": "node", "id": 2587675739, "lat": 16.57558, "lon": 76.56768, "tags": {"amenity": "school", "name": "Government Higher Primary School Kudalagi", "name:kn": "\u0cb8\u0cb0\u0ccd\u0c95\u0cbe\u0cb0\u0cbf \u0cb9\u0cbf\u0cb0\u0cbf\u0caf \u0caa\u0ccd\u0cb0\u0cbe\u0ca5\u0cae\u0cbf\u0c95 \u0cb6\u0cbe\u0cb2\u0cc6 \u0c95\u0cc2\u0ca1\u0cb2\u0c97\u0cbf", "operator": "Government", "school_code": "29330813202"}}, {"type": "node", "id": 2587675742, "lat": 16.50869, "lon": 76.75329, "tags": {"amenity": "school", "name": "Government Higher Primary School Kumbarapete", "name:kn": "\u0cb8\u0cb0\u0ccd\u0c95\u0cbe\u0cb0\u0cbf \u0cb9\u0cbf\u0cb0\u0cbf\u0caf \u0caa\u0ccd\u0cb0\u0cbe\u0ca5\u0cae\u0cbf\u0c95 \u0cb6\u0cbe\u0cb2\u0cc6 \u0c95\u0cc1\u0c82\u0cac\u0cbe\u0cb0\u0caa\u0cc7\u0c9f\u0cc6", "operator": "Government", "school_code": "29330822501"}}, {"type": "node", "id": 2587675749, "lat": 16.5374, "lon": 76.80059, "tags": {"amenity": "school", "name": "Government Higher Primary School Laxmapur", "name:kn": "\u0cb8\u0cb0\u0ccd\u0c95\u0cbe\u0cb0\u0cbf \u0cb9\u0cbf\u0cb0\u0cbf\u0caf \u0caa\u0ccd\u0cb0\u0cbe\u0ca5\u0cae\u0cbf\u0c95 \u0cb6\u0cbe\u0cb2\u0cc6", "operator": "Government", "school_code": "29330813602"}}, {"type": "node", "id": 2587675753, "lat": 16.5926, "lon": 76.70586, "tags": {"amenity": "school", "name": "Government Higher Primary School Machigundal", "name:kn": "\u0cb8\u0cb0\u0ccd\u0c95\u0cbe\u0cb0\u0cbf \u0cb9\u0cbf\u0cb0\u0cbf\u0caf \u0caa\u0ccd\u0cb0\u0cbe\u0ca5\u0cae\u0cbf\u0c95 \u0cb6\u0cbe\u0cb2\u0cc6 \u0cae\u0cbe\u0c9a\u0c97\u0cc1\u0c82\u0ca1\u0cbe\u0cb3", "operator": "Government", "school_code": "29330814101"}}, {"type": "node", "id": 2587675761, "lat": 16.52345, "lon": 76.75701, "tags": {"amenity": "school", "name": "Government Higher Primary School Magirioni", "name:kn": "\u0cb8\u0cb0\u0ccd\u0c95\u0cbe\u0cb0\u0cbf \u0cb9\u0cbf\u0cb0\u0cbf\u0caf \u0caa\u0ccd\u0cb0\u0cbe\u0ca5\u0cae\u0cbf\u0c95 \u0cb6\u0cbe\u0cb2\u0cc6", "operator": "Government", "school_code": "29330819423"}}, {"type": "node", "id": 2587675798, "lat": 16.55147, "lon": 76.63731, "tags": {"amenity": "school", "name": "Government Higher Primary School Mangalura", "name:kn": "\u0cb8\u0cb0\u0ccd\u0c95\u0cbe\u0cb0\u0cbf \u0cb9\u0cbf\u0cb0\u0cbf\u0caf \u0caa\u0ccd\u0cb0\u0cbe\u0ca5\u0cae\u0cbf\u0c95 \u0cb6\u0cbe\u0cb2\u0cc6 \u0cae\u0c82\u0c97\u0cb3\u0cc2\u0cb0", "operator": "Government", "school_code": "29330814401"}}, {"type": "node", "id": 2587675799, "lat": 16.49497, "lon": 76.67104, "tags": {"amenity": "school", "name": "Government Higher Primary School Mangihal", "name:kn": "\u0cb8\u0cb0\u0ccd\u0c95\u0cbe\u0cb0\u0cbf \u0cb9\u0cbf\u0cb0\u0cbf\u0caf \u0caa\u0ccd\u0cb0\u0cbe\u0ca5\u0cae\u0cbf\u0c95 \u0cb6\u0cbe\u0cb2\u0cc6 \u0cae\u0c82\u0c97\u0cbf\u0cb9\u0cbe\u0cb3", "operator": "Government", "school_code": "29330814501"}}, {"type": "node", "id": 2587675800, "lat": 16.41398, "lon": 76.59458, "tags": {"amenity": "school", "name": "Government Higher Primary School Manjalapura", "name:kn": "\u0cb8\u0cb0\u0ccd\u0c95\u0cbe\u0cb0\u0cbf \u0cb9\u0cbf\u0cb0\u0cbf\u0caf \u0caa\u0ccd\u0cb0\u0cbe\u0ca5\u0cae\u0cbf\u0c95 \u0cb6\u0cbe\u0cb2\u0cc6 \u0cae\u0c82\u0c9c\u0cc1\u0cb3\u0cbe\u0caa\u0cc2\u0cb0", "operator": "Government", "school_code": "29330815501", "taluk": "Shorapur"}}, {"type": "node", "id": 2587675804, "lat": 16.5181, "lon": 76.7563, "tags": {"amenity": "school", "name": "Government Higher Primary School Medargalli Shorapur", "name:kn": "\u0cb8\u0cb0\u0ccd\u0c95\u0cbe\u0cb0\u0cbf \u0cb9\u0cbf\u0cb0\u0cbf\u0caf \u0caa\u0ccd\u0cb0\u0cbe\u0ca5\u0cae\u0cbf\u0c95 \u0cb6\u0cbe\u0cb2\u0cc6", "operator": "Government", "school_code": "29330819404"}}, {"type": "node", "id": 2587675810, "lat": 16.60111, "lon": 76.49085, "tags": {"amenity": "school", "name": "Government Higher Primary School Mudanoor K", "name:kn": "\u0cb8\u0cb0\u0ccd\u0c95\u0cbe\u0cb0\u0cbf \u0cb9\u0cbf\u0cb0\u0cbf\u0caf \u0caa\u0ccd\u0cb0\u0cbe\u0ca5\u0cae\u0cbf\u0c95 \u0cb6\u0cbe\u0cb2\u0cc6 \u0cae\u0ca6\u0ca8\u0cc2\u0cb0\u0cc1", "operator": "Government"}}, {"type": "node", "id": 2587675815, "lat": 16.43472, "lon": 76.77657, "tags": {"amenity": "school", "name": "Government Higher Primary School Mustahalli", "name:kn": "\u0cb8\u0cb0\u0ccd\u0c95\u0cbe\u0cb0\u0cbf \u0cb9\u0cbf\u0cb0\u0cbf\u0caf \u0caa\u0ccd\u0cb0\u0cbe\u0ca5\u0cae\u0cbf\u0c95 \u0cb6\u0cbe\u0cb2\u0cc6 \u0cae\u0cc1\u0cb7\u0ccd\u0ca0\u0cb3\u0ccd\u0cb3\u0cbf", "operator": "Government", "school_code": "29330816301"}}, {"type": "node", "id": 2587675817, "lat": 16.66819, "lon": 76.76634, "tags": {"amenity": "school", "name": "Government Higher Primary School Naganatagi", "name:kn": "\u0cb8\u0cb0\u0ccd\u0c95\u0cbe\u0cb0\u0cbf \u0cb9\u0cbf\u0cb0\u0cbf\u0caf \u0caa\u0ccd\u0cb0\u0cbe\u0ca5\u0cae\u0cbf\u0c95 \u0cb6\u0cbe\u0cb2\u0cc6 \u0ca8\u0cbe\u0c97\u0ca8\u0c9f\u0c97\u0cbf", "operator": "Government", "school_code": "29330714701"}}, {"type": "node", "id": 2587675825, "lat": 16.41368, "lon": 76.57065, "tags": {"amenity": "school", "name": "Government Higher Primary School Ningapur M", "name:kn": "\u0cb8\u0cb0\u0ccd\u0c95\u0cbe\u0cb0\u0cbf \u0cb9\u0cbf\u0cb0\u0cbf\u0caf \u0caa\u0ccd\u0cb0\u0cbe\u0ca5\u0cae\u0cbf\u0c95 \u0cb6\u0cbe\u0cb2\u0cc6", "operator": "Government", "school_code": "29330816901", "taluk": "Shorapur"}}, {"type": "node", "id": 2587675826, "lat": 16.73223, "lon": 76.747, "tags": {"amenity": "school", "name": "Government Higher Primary School Old Gogi [urdu]", "name:kn": "\u0cb8\u0cb0\u0ccd\u0c95\u0cbe\u0cb0\u0cbf \u0cb9\u0cbf\u0cb0\u0cbf\u0caf \u0caa\u0ccd\u0cb0\u0cbe\u0ca5\u0cae\u0cbf\u0c95 \u0c89\u0cb0\u0ccd\u0ca6\u0cc1 \u0cb6\u0cbe\u0cb2\u0cc6 \u0cb9\u0cb3\u0cc6 \u0c97\u0ccb\u0c97\u0cbf", "operator": "Government", "school_code": "29330704002"}}, {"type": "node", "id": 2587675827, "lat": 16.73156, "lon": 76.74493, "tags": {"amenity": "school", "name": "Government Higher Primary School Old Gogi", "name:kn": "\u0cb8\u0cb0\u0ccd\u0c95\u0cbe\u0cb0\u0cbf \u0cb9\u0cbf\u0cb0\u0cbf\u0caf \u0caa\u0ccd\u0cb0\u0cbe\u0ca5\u0cae\u0cbf\u0c95 \u0cb6\u0cbe\u0cb2\u0cc6 \u0cb9\u0cb3\u0cc6 \u0c97\u0ccb\u0c97\u0cbf", "operator": "Government", "school_code": "29330704001"}}, {"type": "node", "id": 2587675830, "lat": 16.38433, "lon": 76.62392, "tags": {"amenity": "school", "name": "Government Higher Primary School Pergardoddi", "name:kn": "\u0cb8\u0cb0\u0ccd\u0c95\u0cbe\u0cb0\u0cbf \u0cb9\u0cbf\u0cb0\u0cbf\u0caf \u0caa\u0ccd\u0cb0\u0cbe\u0ca5\u0cae\u0cbf\u0c95 \u0cb6\u0cbe\u0cb2\u0cc6", "operator": "Government", "school_code": "29330817201", "taluk": "Shorapur"}}, {"type": "node", "id": 2587675831, "lat": 16.53425, "lon": 76.66843, "tags": {"amenity": "school", "name": "Government Higher Primary School Peth Ammapura", "name:kn": "\u0cb8\u0cb0\u0ccd\u0c95\u0cbe\u0cb0\u0cbf \u0cb9\u0cbf\u0cb0\u0cbf\u0caf \u0caa\u0ccd\u0cb0\u0cbe\u0ca5\u0cae\u0cbf\u0c95 \u0cb6\u0cbe\u0cb2\u0cc6 \u0caa\u0cc7\u0ca0 \u0c85\u0cae\u0ccd\u0cae\u0caa\u0cc2\u0cb0", "operator": "Government", "school_code": "29330817401"}}, {"type": "node", "id": 2587675832, "lat": 16.73496, "lon": 76.74565, "tags": {"addr:place": "Gogipet", "amenity": "school", "name": "Higher Primary School", "name:kn": "\u0cb8\u0cb0\u0ccd\u0c95\u0cbe\u0cb0\u0cbf \u0cb9\u0cbf\u0cb0\u0cbf\u0caf \u0caa\u0ccd\u0cb0\u0cbe\u0ca5\u0cae\u0cbf\u0c95 \u0cb6\u0cbe\u0cb2\u0cc6 \u0caa\u0cc7\u0ca0 \u0c97\u0ccb\u0c97\u0cbf", "operator": "Government"}}, {"type": "node", "id": 2587675836, "lat": 16.51793, "lon": 76.76441, "tags": {"amenity": "school", "name": "Government Higher Primary School Quresimohalla Shorapu", "name:kn": "\u0cb8\u0cb0\u0ccd\u0c95\u0cbe\u0cb0\u0cbf \u0cb9\u0cbf\u0cb0\u0cbf\u0caf \u0caa\u0ccd\u0cb0\u0cbe\u0ca5\u0cae\u0cbf\u0c95 \u0cb6\u0cbe\u0cb2\u0cc6", "operator": "Government", "school_code": "29330819410"}}, {"type": "node", "id": 2587675838, "lat": 16.728, "lon": 76.70862, "tags": {"amenity": "school", "name": "Government Higher Primary School Rabbana Halli", "name:kn": "\u0cb8\u0cb0\u0ccd\u0c95\u0cbe\u0cb0\u0cbf \u0cb9\u0cbf\u0cb0\u0cbf\u0caf \u0caa\u0ccd\u0cb0\u0cbe\u0ca5\u0cae\u0cbf\u0c95 \u0cb6\u0cbe\u0cb2\u0cc6, \u0cb0\u0cac\u0ccd\u0cac\u0ca8\u0cb9\u0cb3\u0ccd\u0cb3\u0cbf", "operator": "Government", "school_code": "29330716301"}}, {"type": "node", "id": 2587675842, "lat": 16.59536, "lon": 76.50152, "tags": {"amenity": "school", "name": "Government Higher Primary School Rampur", "name:kn": "\u0cb8\u0cb0\u0ccd\u0c95\u0cbe\u0cb0\u0cbf \u0cb9\u0cbf\u0cb0\u0cbf\u0caf \u0caa\u0ccd\u0cb0\u0cbe\u0ca5\u0cae\u0cbf\u0c95 \u0cb6\u0cbe\u0cb2\u0cc6, \u0cb0\u0cbe\u0cae\u0caa\u0cc1\u0cb0", "operator": "Government", "school_code": "29330818201", "taluk": "Shorapur"}}, {"type": "node", "id": 2587675844, "lat": 16.55774, "lon": 76.76704, "tags": {"amenity": "school", "name": "Government Higher Primary School Ratal", "name:kn": "\u0cb8\u0cb0\u0ccd\u0c95\u0cbe\u0cb0\u0cbf \u0cb9\u0cbf\u0cb0\u0cbf\u0caf \u0caa\u0ccd\u0cb0\u0cbe\u0ca5\u0cae\u0cbf\u0c95 \u0cb6\u0cbe\u0cb2\u0cc6 \u0cb0\u0ca4\u0ccd\u0ca4\u0cbe\u0cb3", "operator": "Government", "school_code": "29330818402"}}, {"type": "node", "id": 2587675846, "lat": 16.50674, "lon": 76.78603, "tags": {"amenity": "school", "name": "Government Higher Primary School Rukamapur", "name:kn": "\u0cb8\u0cb0\u0ccd\u0c95\u0cbe\u0cb0\u0cbf \u0cb9\u0cbf\u0cb0\u0cbf\u0caf \u0caa\u0ccd\u0cb0\u0cbe\u0ca5\u0cae\u0cbf\u0c95 \u0cb6\u0cbe\u0cb2\u0cc6", "operator": "Government", "school_code": "29330818601"}}, {"type": "node", "id": 2587675849, "lat": 16.6984, "lon": 76.7874, "tags": {"amenity": "school", "name": "Government Higher Primary School Saidapur", "name:kn": "\u0cb8\u0cb0\u0ccd\u0c95\u0cbe\u0cb0\u0cbf \u0cb9\u0cbf\u0cb0\u0cbf\u0caf \u0caa\u0ccd\u0cb0\u0cbe\u0ca5\u0cae\u0cbf\u0c95 \u0cb6\u0cbe\u0cb2\u0cc6 \u0cb8\u0cc8\u0ca6\u0cbe\u0caa\u0cc2\u0cb0", "operator": "Government", "school_code": "29330711901"}}, {"type": "node", "id": 2587675853, "lat": 16.53013, "lon": 76.78974, "tags": {"amenity": "school", "name": "Government Higher Primary School Satyampeth", "name:kn": "\u0cb8\u0cb0\u0ccd\u0c95\u0cbe\u0cb0\u0cbf \u0cb9\u0cbf\u0cb0\u0cbf\u0caf \u0caa\u0ccd\u0cb0\u0cbe\u0ca5\u0cae\u0cbf\u0c95 \u0cb6\u0cbe\u0cb2\u0cc6 \u0cb8\u0ca4\u0ccd\u0caf\u0c82\u0caa\u0cc7\u0c9f\u0cc6", "operator": "Government", "school_code": "29330818901"}}, {"type": "node", "id": 2587675854, "lat": 16.61214, "lon": 76.72454, "tags": {"amenity": "school", "name": "Government Higher Primary School Settikera Dodda", "name:kn": "\u0cb8\u0cb0\u0ccd\u0c95\u0cbe\u0cb0\u0cbf \u0cb9\u0cbf\u0cb0\u0cbf\u0caf \u0caa\u0ccd\u0cb0\u0cbe\u0ca5\u0cae\u0cbf\u0c95 \u0cb6\u0cbe\u0cb2\u0cc6 \u0cb6\u0cc6\u0c9f\u0ccd\u0c9f\u0cbf\u0c95\u0cc7\u0cb0", "operator": "Government", "school_code": "29330712202"}}, {"type": "node", "id": 2587675855, "lat": 16.6214, "lon": 76.73717, "tags": {"amenity": "school", "name": "Government Higher Primary School Settikera", "name:kn": "\u0cb8\u0cb0\u0ccd\u0c95\u0cbe\u0cb0\u0cbf \u0cb9\u0cbf\u0cb0\u0cbf\u0caf \u0caa\u0ccd\u0cb0\u0cbe\u0ca5\u0cae\u0cbf\u0c95 \u0cb6\u0cbe\u0cb2\u0cc6", "operator": "Government", "school_code": "29330712201"}}, {"type": "node", "id": 2587675856, "lat": 16.38769, "lon": 76.65726, "tags": {"amenity": "school", "name": "Government Higher Primary School Shantapur", "name:kn": "\u0cb8\u0cb0\u0ccd\u0c95\u0cbe\u0cb0\u0cbf \u0cb9\u0cbf\u0cb0\u0cbf\u0caf \u0caa\u0ccd\u0cb0\u0cbe\u0ca5\u0cae\u0cbf\u0c95 \u0cb6\u0cbe\u0cb2\u0cc6 \u0cb6\u0cbe\u0c82\u0ca4\u0caa\u0cc1\u0cb0", "operator": "Government", "school_code": "29330819201", "taluk": "Shorapur"}}, {"type": "node", "id": 2587675859, "lat": 16.44674, "lon": 76.76662, "tags": {"amenity": "school", "name": "Government Higher Primary School Shellgi", "name:kn": "\u0cb8\u0cb0\u0ccd\u0c95\u0cbe\u0cb0\u0cbf \u0cb9\u0cbf\u0cb0\u0cbf\u0caf \u0caa\u0ccd\u0cb0\u0cbe\u0ca5\u0cae\u0cbf\u0c95 \u0cb6\u0cbe\u0cb2\u0cc6 \u0cb6\u0cc6\u0cb2\u0ccd\u0cb2\u0cbf\u0c97\u0cbf", "operator": "Government", "school_code": "29330819301"}}, {"type": "node", "id": 2587675860, "lat": 16.52107, "lon": 76.75471, "tags": {"amenity": "school", "name": "Government Higher Primary School Shenshedapur Shorapur", "name:kn": "\u0cb8\u0cb0\u0ccd\u0c95\u0cbe\u0cb0\u0cbf \u0cb9\u0cbf\u0cb0\u0cbf\u0caf \u0caa\u0ccd\u0cb0\u0cbe\u0ca5\u0cae\u0cbf\u0c95 \u0cb6\u0cbe\u0cb2\u0cc6", "operator": "Government", "school_code": "29330819405"}}, {"type": "node", "id": 2587675864, "lat": 16.44497, "lon": 76.59007, "tags": {"amenity": "school", "name": "Government Higher Primary School Siddapur [b]", "name:kn": "\u0cb8\u0cb0\u0ccd\u0c95\u0cbe\u0cb0\u0cbf \u0cb9\u0cbf\u0cb0\u0cbf\u0caf \u0caa\u0ccd\u0cb0\u0cbe\u0ca5\u0cae\u0cbf\u0c95 \u0cb6\u0cbe\u0cb2\u0cc6 \u0cb8\u0cbf\u0ca6\u0ccd\u0ca6\u0cbe\u0caa\u0cc1\u0cb0", "operator": "Government", "school_code": "29330819701"}}, {"type": "node", "id": 2587675865, "lat": 16.75706, "lon": 76.74105, "tags": {"amenity": "school", "name": "Government Higher Primary School Singanhalli", "name:kn": "\u0cb8\u0cb0\u0ccd\u0c95\u0cbe\u0cb0\u0cbf \u0cb9\u0cbf\u0cb0\u0cbf\u0caf \u0caa\u0ccd\u0cb0\u0cbe\u0ca5\u0cae\u0cbf\u0c95 \u0cb6\u0cbe\u0cb2\u0cc6 \u0cb8\u0cbf\u0c82\u0c97\u0ca8\u0cb9\u0cb3\u0ccd\u0cb3\u0cbf", "operator": "Government", "school_code": "29330712901"}}, {"type": "node", "id": 2587675875, "lat": 16.5812, "lon": 76.53153, "tags": {"amenity": "school", "name": "Government Higher Primary School Tegelli", "name:kn": "\u0cb8\u0cb0\u0ccd\u0c95\u0cbe\u0cb0\u0cbf \u0cb9\u0cbf\u0cb0\u0cbf\u0caf \u0caa\u0ccd\u0cb0\u0cbe\u0ca5\u0cae\u0cbf\u0c95 \u0cb6\u0cbe\u0cb2\u0cc6", "operator": "Government"}}, {"type": "node", "id": 2587675878, "lat": 16.3846, "lon": 76.67229, "tags": {"amenity": "school", "name": "Government Higher Primary School Tinthani", "name:kn": "\u0cb8\u0cb0\u0ccd\u0c95\u0cbe\u0cb0\u0cbf \u0cb9\u0cbf\u0cb0\u0cbf\u0caf \u0caa\u0ccd\u0cb0\u0cbe\u0ca5\u0cae\u0cbf\u0c95 \u0cb6\u0cbe\u0cb2\u0cc6 \u0ca4\u0cbf\u0c82\u0ca5\u0ca3\u0cbf", "operator": "Government", "school_code": "29330820401", "taluk": "Shorapur"}}, {"type": "node", "id": 2587675886, "lat": 16.75696, "lon": 76.66401, "tags": {"amenity": "school", "name": "Government Higher Primary School Ukinal", "name:kn": "\u0cb8\u0cb0\u0ccd\u0c95\u0cbe\u0cb0\u0cbf \u0cb9\u0cbf\u0cb0\u0cbf\u0caf \u0caa\u0ccd\u0cb0\u0cbe\u0ca5\u0cae\u0cbf\u0c95 \u0cb6\u0cbe\u0cb2\u0cc6 \u0c89\u0c95\u0ccd\u0c95\u0cbf\u0ca8\u0cbe\u0cb3", "operator": "Government", "school_code": "29330713806"}}, {"type": "node", "id": 2587675892, "lat": 16.52901, "lon": 76.77173, "tags": {"amenity": "school", "name": "Government Higher Primary School Urdu Beech Mohalla", "name:kn": "\u0cb8\u0cb0\u0ccd\u0c95\u0cbe\u0cb0\u0cbf \u0cb9\u0cbf\u0cb0\u0cbf\u0caf \u0c89\u0cb0\u0ccd\u0ca6\u0cc1 \u0caa\u0ccd\u0cb0\u0cbe\u0ca5\u0cae\u0cbf\u0c95 \u0cb6\u0cbe\u0cb2\u0cc6", "operator": "Government", "school_code": "29330823102"}}, {"type": "node", "id": 2587675896, "lat": 16.45459, "lon": 76.51607, "tags": {"amenity": "school", "name": "Government Higher Primary School Urdu Hunasagi", "name:kn": "\u0cb8\u0cb0\u0ccd\u0c95\u0cbe\u0cb0\u0cbf \u0cb9\u0cbf\u0cb0\u0cbf\u0caf \u0caa\u0ccd\u0cb0\u0cbe\u0ca5\u0cae\u0cbf\u0c95 \u0c89\u0cb0\u0ccd\u0ca6\u0cc1 \u0cb6\u0cbe\u0cb2\u0cc6 \u0cb9\u0cc1\u0ca3\u0cb8\u0c97\u0cbf", "operator": "Government", "school_code": "29330809108", "taluk": "Shorapur"}}, {"type": "node", "id": 2587675907, "lat": 16.63649, "lon": 76.69715, "tags": {"amenity": "school", "name": "Government Higher Primary School Urdu Wanadurga", "name:kn": "\u0cb8\u0cb0\u0ccd\u0c95\u0cbe\u0cb0\u0cbf \u0cb9\u0cbf\u0cb0\u0cbf\u0caf \u0caa\u0ccd\u0cb0\u0cbe\u0ca5\u0cae\u0cbf\u0c95 \u0c89\u0cb0\u0ccd\u0ca6\u0cc1 \u0cb6\u0cbe\u0cb2\u0cc6 \u0cb5\u0ca8\u0ca6\u0cc1\u0cb0\u0ccd\u0c97", "operator": "Government", "school_code": "29330714303"}}, {"type": "node", "id": 2587675929, "lat": 16.52014, "lon": 76.69879, "tags": {"amenity": "school", "name": "Government Higher Primary School Waganagera", "name:kn": "\u0cb8\u0cb0\u0ccd\u0c95\u0cbe\u0cb0\u0cbf \u0cb9\u0cbf\u0cb0\u0cbf\u0caf \u0caa\u0ccd\u0cb0\u0cbe\u0ca5\u0cae\u0cbf\u0c95 \u0cb6\u0cbe\u0cb2\u0cc6 \u0cb5\u0cbe\u0c97\u0ca3\u0c97\u0cc7\u0cb0\u0cbe", "operator": "Government", "school_code": "29330821102"}}, {"type": "node", "id": 2587675930, "lat": 16.63579, "lon": 76.69748, "tags": {"amenity": "school", "name": "Government Higher Primary School Wanadurga", "name:kn": "\u0cb8\u0cb0\u0ccd\u0c95\u0cbe\u0cb0\u0cbf \u0cb9\u0cbf\u0cb0\u0cbf\u0caf \u0caa\u0ccd\u0cb0\u0cbe\u0ca5\u0cae\u0cbf\u0c95 \u0cb6\u0cbe\u0cb2\u0cc6 \u0cb5\u0ca8\u0ca6\u0cc1\u0cb0\u0ccd\u0c97", "operator": "Government", "school_code": "29330714301"}}, {"type": "node", "id": 2587675932, "lat": 16.52615, "lon": 76.54465, "tags": {"amenity": "school", "name": "Government Higher Primary School Yadahalli", "name:kn": "\u0cb8\u0cb0\u0ccd\u0c95\u0cbe\u0cb0\u0cbf \u0cb9\u0cbf\u0cb0\u0cbf\u0caf \u0caa\u0ccd\u0cb0\u0cbe\u0ca5\u0cae\u0cbf\u0c95 \u0cb6\u0cbe\u0cb2\u0cc6 \u0caf\u0ca1\u0cb9\u0cb3\u0ccd\u0cb3\u0cbf", "operator": "Government"}}, {"type": "node", "id": 2587675948, "lat": 16.72036, "lon": 76.64051, "tags": {"amenity": "school", "name": "Government High School Chamnal", "name:kn": "\u0cb8\u0cb0\u0ccd\u0c95\u0cbe\u0cb0\u0cbf \u0caa\u0ccd\u0cb0\u0ccc\u0ca1\u0cb6\u0cbe\u0cb2\u0cc6 \u0c9a\u0cbe\u0cae\u0ca8\u0cbe\u0cb3", "operator": "Government", "school_code": "29330702704"}}, {"type": "node", "id": 2587675950, "lat": 16.7412077, "lon": 76.691184, "tags": {"amenity": "school", "name": "Government High School Darshanapur", "name:kn": "\u0cb8\u0cb0\u0ccd\u0c95\u0cbe\u0cb0\u0cbf \u0caa\u0ccd\u0cb0\u0ccc\u0ca1\u0cb6\u0cbe\u0cb2\u0cc6, \u0ca6\u0cb0\u0ccd\u0cb6\u0ca8\u0cbe\u0caa\u0cc1\u0cb0", "operator": "Government", "school_code": "29330703203"}}, {"type": "node", "id": 2587675952, "lat": 16.73365, "lon": 76.74508, "tags": {"addr:place": "Gogipet", "amenity": "school", "name": "Girls High School", "name:kn": "\u0cb8\u0cb0\u0ccd\u0c95\u0cbe\u0cb0\u0cbf \u0cac\u0cbe\u0cb2\u0c95\u0cbf\u0caf\u0cb0 \u0caa\u0ccd\u0cb0\u0ccc\u0ca1\u0cb6\u0cbe\u0cb2\u0cc6 \u0c97\u0ccb\u0c97\u0cbf", "operator": "Government"}}, {"type": "node", "id": 2587675960, "lat": 16.67198, "lon": 76.67347, "tags": {"addr:place": "Kakkasgera", "amenity": "school", "name": "High School", "name:kn": "\u0cb8\u0cb0\u0ccd\u0c95\u0cbe\u0cb0\u0cbf \u0caa\u0ccd\u0cb0\u0ccc\u0ca1 \u0cb6\u0cbe\u0cb2\u0cc6 \u0c95\u0c95\u0ccd\u0c95\u0cb8\u0c97\u0cc7\u0cb0\u0cbe", "operator": "Government", "school_code": "29330707203"}}, {"type": "node", "id": 2587675967, "lat": 16.67781, "lon": 76.76796, "tags": {"addr:place": "Naganatgi", "amenity": "school", "name": "High School", "name:kn": "\u0cb8\u0cb0\u0ccd\u0c95\u0cbe\u0cb0\u0cbf \u0caa\u0ccd\u0cb0\u0ccc\u0ca1 \u0cb6\u0cbe\u0cb2\u0cc6 \u0ca8\u0cbe\u0c97\u0ca8\u0c9f\u0c97\u0cbf", "operator": "Government", "school_code": "29330714706"}}, {"type": "node", "id": 2587675982, "lat": 16.63288, "lon": 76.69543, "tags": {"amenity": "school", "name": "Government High School Wanadurga", "name:kn": "\u0cb8\u0cb0\u0ccd\u0c95\u0cbe\u0cb0\u0cbf \u0caa\u0ccd\u0cb0\u0ccc\u0ca1 \u0cb6\u0cbe\u0cb2\u0cc6 \u0cb5\u0ca8\u0ca6\u0cc1\u0cb0\u0ccd\u0c97", "operator": "Government", "school_code": "29330714305"}}, {"type": "node", "id": 2587675986, "lat": 16.72541, "lon": 76.79936, "tags": {"amenity": "school", "name": "Government Junior College Bhimarayanagudi", "name:kn": "\u0cb8\u0cb0\u0ccd\u0c95\u0cbe\u0cb0\u0cbf \u0c9c\u0cc2\u0ca8\u0cbf\u0caf\u0cb0\u0ccd \u0c95\u0cbe\u0cb2\u0cc7\u0c9c\u0cc1 \u0cad\u0cc0\u0cae\u0cb0\u0cbe\u0caf\u0ca8 \u0c97\u0cc1\u0ca1\u0cbf", "operator": "Government", "school_code": "29330702105"}}, {"type": "node", "id": 2587675992, "lat": 16.53367, "lon": 76.77165, "tags": {"amenity": "school", "name": "Government Kanya Higher Primary School Thimmapura", "name:kn": "\u0cb8\u0cb0\u0ccd\u0c95\u0cbe\u0cb0\u0cbf \u0cb9\u0cbf\u0cb0\u0cbf\u0caf \u0caa\u0ccd\u0cb0\u0cbe\u0ca5\u0cae\u0cbf\u0c95 \u0cb6\u0cbe\u0cb2\u0cc6", "operator": "Government", "school_code": "29330823103"}}, {"type": "node", "id": 2587675993, "lat": 16.53348, "lon": 76.77146, "tags": {"amenity": "school", "name": "Government Kanya Higher Primary School Urdu Thimmapura", "name:kn": "\u0cb8\u0cb0\u0ccd\u0c95\u0cbe\u0cb0\u0cbf \u0cb9\u0cbf\u0cb0\u0cbf\u0caf \u0c89\u0cb0\u0ccd\u0ca6\u0cc1 \u0caa\u0ccd\u0cb0\u0cbe\u0ca5\u0cae\u0cbf\u0c95 \u0cb6\u0cbe\u0cb2\u0cc6", "operator": "Government", "school_code": "29330823104"}}, {"type": "node", "id": 2587675994, "lat": 16.63286, "lon": 76.7016, "tags": {"amenity": "school", "name": "Government Kanya Higher Primary School Wanadurga", "name:kn": "\u0cb8\u0cb0\u0ccd\u0c95\u0cbe\u0cb0\u0cbf \u0cb9\u0cbf\u0cb0\u0cbf\u0caf \u0caa\u0ccd\u0cb0\u0cbe\u0ca5\u0cae\u0cbf\u0c95 \u0cb6\u0cbe\u0cb2\u0cc6", "operator": "Government", "school_code": "29330714302"}}, {"type": "node", "id": 2587675995, "lat": 16.60128, "lon": 76.49082, "tags": {"amenity": "school", "name": "Government Kanya Lower Primary School Mudanoor K", "name:kn": "\u0cb8\u0cb0\u0ccd\u0c95\u0cbe\u0cb0\u0cbf \u0c95\u0cbf\u0cb0\u0cbf\u0caf \u0caa\u0ccd\u0cb0\u0cbe\u0ca5\u0cae\u0cbf\u0c95 \u0cb6\u0cbe\u0cb2\u0cc6 \u0cae\u0ca6\u0ca8\u0cc2\u0cb0\u0cc1", "operator": "Government"}}, {"type": "node", "id": 2587675996, "lat": 16.52214, "lon": 76.75819, "tags": {"amenity": "school", "name": "Govt Kanya MPS Shorapur", "name:kn": "\u0cb8\u0cb0\u0ccd\u0c95\u0cbe\u0cb0\u0cbf \u0cae\u0cbe\u0ca6\u0cb0\u0cbf \u0caa\u0ccd\u0cb0\u0cbe\u0ca5\u0cae\u0cbf\u0c95 \u0cb6\u0cbe\u0cb2\u0cc6 \u0cb8\u0cc1\u0cb0\u0caa\u0cc1\u0cb0", "operator": "Government", "school_code": "29330819424"}}, {"type": "node", "id": 2587675997, "lat": 16.7151, "lon": 76.80211, "tags": {"amenity": "school", "name": "Government Lower Primary School Diggi Tanda", "name:kn": "\u0cb8\u0cb0\u0ccd\u0c95\u0cbe\u0cb0\u0cbf \u0c95\u0cbf\u0cb0\u0cbf\u0caf \u0caa\u0ccd\u0cb0\u0cbe\u0ca5\u0cae\u0cbf\u0c95 \u0cb6\u0cbe\u0cb2\u0cc6 \u0ca6\u0cbf\u0c97\u0ccd\u0c97\u0cbf \u0ca4\u0cbe\u0c82\u0ca1", "operator": "Government", "school_code": "29330703403"}}, {"type": "node", "id": 2587675999, "lat": 16.41, "lon": 76.71229, "tags": {"amenity": "school", "name": "Govt LPA Aralahalli", "name:kn": "\u0cb8\u0cb0\u0ccd\u0c95\u0cbe\u0cb0\u0cbf \u0c95\u0cbf\u0cb0\u0cbf\u0caf \u0caa\u0ccd\u0cb0\u0cbe\u0ca5\u0cae\u0cbf\u0c95 \u0cb6\u0cbe\u0cb2\u0cc6 \u0c85\u0cb0\u0cb3\u0cb9\u0cb3\u0ccd\u0cb3\u0cbf", "operator": "Government", "school_code": "29330801001", "taluk": "Shorapur"}}, {"type": "node", "id": 2587676022, "lat": 16.52022, "lon": 76.63303, "tags": {"amenity": "school", "name": "Government Lower Primary School B. Doddi", "name:kn": "\u0cb8\u0cb0\u0ccd\u0c95\u0cbe\u0cb0\u0cbf \u0c95\u0cbf\u0cb0\u0cbf\u0caf \u0caa\u0ccd\u0cb0\u0cbe\u0ca5\u0cae\u0cbf\u0c95 \u0cb6\u0cbe\u0cb2\u0cc6", "operator": "Government", "school_code": "29330802201"}}, {"type": "node", "id": 2587676029, "lat": 16.66522, "lon": 76.72613, "tags": {"addr:place": "Bangala Tanda", "amenity": "school", "name": "Lower Primary School", "name:kn": "\u0cb8\u0cb0\u0ccd\u0c95\u0cbe\u0cb0\u0cbf \u0c95\u0cbf\u0cb0\u0cbf\u0caf \u0caa\u0ccd\u0cb0\u0cbe\u0ca5\u0cae\u0cbf\u0c95 \u0cb6\u0cbe\u0cb2\u0cc6", "operator": "Government", "school_code": "29330706002"}}, {"type": "node", "id": 2587676030, "lat": 16.68489, "lon": 76.77212, "tags": {"amenity": "school", "name": "Government Lower Primary School Bantanal", "name:kn": "\u0cb8\u0cb0\u0ccd\u0c95\u0cbe\u0cb0\u0cbf \u0c95\u0cbf\u0cb0\u0cbf\u0caf \u0caa\u0ccd\u0cb0\u0cbe\u0ca5\u0cae\u0cbf\u0c95 \u0cb6\u0cbe\u0cb2\u0cc6, \u0cac\u0cbe\u0ca3\u0ca4\u0cbf\u0cb9\u0cbe\u0cb3", "operator": "Government", "school_code": "29330701301"}}, {"type": "node", "id": 2587676035, "lat": 16.42866, "lon": 76.5761, "tags": {"amenity": "school", "name": "Government Lower Primary School Baylpura", "name:kn": "\u0cb8\u0cb0\u0ccd\u0c95\u0cbe\u0cb0\u0cbf \u0c95\u0cbf\u0cb0\u0cbf\u0caf \u0caa\u0ccd\u0cb0\u0cbe\u0ca5\u0cae\u0cbf\u0c95 \u0cb6\u0cbe\u0cb2\u0cc6 \u0cac\u0cc8\u0cb2\u0cbe\u0caa\u0cc1\u0cb0", "operator": "Government", "school_code": "29330802701"}}, {"type": "node", "id": 2587676041, "lat": 16.45421, "lon": 76.80315, "tags": {"amenity": "school", "name": "Government Lower Primary School Bevinal (s.h)", "name:kn": "\u0cb8\u0cb0\u0ccd\u0c95\u0cbe\u0cb0\u0cbf \u0c95\u0cbf\u0cb0\u0cbf\u0caf \u0caa\u0ccd\u0cb0\u0cbe\u0ca5\u0cae\u0cbf\u0c95 \u0cb6\u0cbe\u0cb2\u0cc6 \u0cac\u0cc7\u0cb5\u0cbf\u0ca8\u0cbe\u0cb3", "operator": "Government", "school_code": "29330803101"}}, {"type": "node", "id": 2587676043, "lat": 16.57575, "lon": 76.74667, "tags": {"amenity": "school", "name": "Government Lower Primary School Bhairimardi", "name:kn": "\u0cb8\u0cb0\u0ccd\u0c95\u0cbe\u0cb0\u0cbf \u0c95\u0cbf\u0cb0\u0cbf\u0caf \u0caa\u0ccd\u0cb0\u0cbe\u0ca5\u0cae\u0cbf\u0c95 \u0cb6\u0cbe\u0cb2\u0cc6 \u0cad\u0cc8\u0cb0\u0cbf\u0cae\u0cb0\u0ca1\u0cbf", "operator": "Government", "school_code": "29330803201"}}, {"type": "node", "id": 2587676045, "lat": 16.51785, "lon": 76.7598, "tags": {"amenity": "school", "name": "Government Lower Primary School Bhovigalli", "name:kn": "\u0cb8\u0cb0\u0ccd\u0c95\u0cbe\u0cb0\u0cbf \u0c95\u0cbf\u0cb0\u0cbf\u0caf \u0caa\u0ccd\u0cb0\u0cbe\u0ca5\u0cae\u0cbf\u0c95 \u0cb6\u0cbe\u0cb2\u0cc6", "operator": "Government", "school_code": "29330819420"}}, {"type": "node", "id": 2587676051, "lat": 16.39016, "lon": 76.54555, "tags": {"amenity": "school", "name": "Government Lower Primary School Boodnoordoddi", "name:kn": "\u0cb8\u0cb0\u0ccd\u0c95\u0cbe\u0cb0\u0cbf \u0c95\u0cbf\u0cb0\u0cbf\u0caf \u0caa\u0ccd\u0cb0\u0cbe\u0ca5\u0cae\u0cbf\u0c95 \u0cb6\u0cbe\u0cb2\u0cc6", "operator": "Government", "school_code": "29330803801", "taluk": "Shorapur"}}, {"type": "node", "id": 2587676052, "lat": 16.38989, "lon": 76.61652, "tags": {"amenity": "school", "name": "Government Lower Primary School Budgumppidoddi", "name:kn": "\u0cb8\u0cb0\u0ccd\u0c95\u0cbe\u0cb0\u0cbf \u0c95\u0cbf\u0cb0\u0cbf\u0caf \u0caa\u0ccd\u0cb0\u0cbe\u0ca5\u0cae\u0cbf\u0c95 \u0cb6\u0cbe\u0cb2\u0cc6", "operator": "Government", "school_code": "29330803301", "taluk": "Shorapur"}}, {"type": "node", "id": 2587676054, "lat": 16.71024, "lon": 76.67627, "tags": {"amenity": "school", "name": "Government Lower Primary School Chandapur Tanda", "name:kn": "\u0cb8\u0cb0\u0ccd\u0c95\u0cbe\u0cb0\u0cbf \u0c95\u0cbf\u0cb0\u0cbf\u0caf \u0caa\u0ccd\u0cb0\u0cbe\u0ca5\u0cae\u0cbf\u0c95 \u0cb6\u0cbe\u0cb2\u0cc6 \u0c9a\u0c82\u0ca6\u0cbe\u0caa\u0cc2\u0cb0 \u0ca4\u0cbe\u0c82\u0ca1", "operator": "Government", "school_code": "29330702802"}}, {"type": "node", "id": 2587676055, "lat": 16.38396, "lon": 76.5555, "tags": {"amenity": "school", "name": "Government Lower Primary School Chandersheker Reddy C", "name:kn": "\u0cb8\u0cb0\u0ccd\u0c95\u0cbe\u0cb0\u0cbf \u0c95\u0cbf\u0cb0\u0cbf\u0caf \u0caa\u0ccd\u0cb0\u0cbe\u0ca5\u0cae\u0cbf\u0c95 \u0cb6\u0cbe\u0cb2\u0cc6", "operator": "Government", "school_code": "29330803302", "taluk": "Shorapur"}}, {"type": "node", "id": 2587676057, "lat": 16.61545, "lon": 76.7183, "tags": {"amenity": "school", "name": "Government Lower Primary School Channappan Doddi", "name:kn": "\u0cb8\u0cb0\u0ccd\u0c95\u0cbe\u0cb0\u0cbf \u0c95\u0cbf\u0cb0\u0cbf\u0caf \u0caa\u0ccd\u0cb0\u0cbe\u0ca5\u0cae\u0cbf\u0c95 \u0cb6\u0cbe\u0cb2\u0cc6", "operator": "Government", "school_code": "29330712203"}}, {"type": "node", "id": 2587676058, "lat": 16.42121, "lon": 76.63035, "tags": {"amenity": "school", "name": "Government Lower Primary School Channpattana", "name:kn": "\u0cb8\u0cb0\u0ccd\u0c95\u0cbe\u0cb0\u0cbf \u0c95\u0cbf\u0cb0\u0cbf\u0caf \u0caa\u0ccd\u0cb0\u0cbe\u0ca5\u0cae\u0cbf\u0c95 \u0cb6\u0cbe\u0cb2\u0cc6 \u0c9a\u0ca8\u0ccd\u0ca8\u0caa\u0c9f\u0ccd\u0c9f\u0ca3", "operator": "Government", "school_code": "29330804201", "taluk": "Shorapur"}}, {"type": "node", "id": 2587676059, "lat": 16.45888, "lon": 76.56445, "tags": {"amenity": "school", "name": "Government Lower Primary School Channur Tanda", "name:kn": "\u0cb8\u0cb0\u0ccd\u0c95\u0cbe\u0cb0\u0cbf \u0c95\u0cbf\u0cb0\u0cbf\u0caf \u0caa\u0ccd\u0cb0\u0cbe\u0ca5\u0cae\u0cbf\u0c95 \u0cb6\u0cbe\u0cb2\u0cc6", "operator": "Government", "school_code": "29330804302"}}, {"type": "node", "id": 2587676060, "lat": 16.60941, "lon": 76.66922, "tags": {"amenity": "school", "fixme": "Bad location", "name": "Government Lower Primary School Channur", "name:kn": "\u0cb8\u0cb0\u0ccd\u0c95\u0cbe\u0cb0\u0cbf \u0c95\u0cbf\u0cb0\u0cbf\u0caf \u0caa\u0ccd\u0cb0\u0cbe\u0ca5\u0cae\u0cbf\u0c95 \u0cb6\u0cbe\u0cb2\u0cc6", "note": "BAD LOCATION", "operator": "Government", "school_code": "29330804301"}}, {"type": "node", "id": 2587676069, "lat": 16.39382, "lon": 76.58013, "tags": {"amenity": "school", "name": "Government Lower Primary School Dalara Doddi", "name:kn": "\u0cb8\u0cb0\u0ccd\u0c95\u0cbe\u0cb0\u0cbf \u0c95\u0cbf\u0cb0\u0cbf\u0caf \u0caa\u0ccd\u0cb0\u0cbe\u0ca5\u0cae\u0cbf\u0c95 \u0cb6\u0cbe\u0cb2\u0cc6", "operator": "Government", "school_code": "29330824601", "taluk": "Shorapur"}}, {"type": "node", "id": 2587676071, "lat": 16.72241, "lon": 76.62962, "tags": {"amenity": "school", "name": "Government Lower Primary School Desunaik Tanda Nadihal", "name:kn": "\u0cb8\u0cb0\u0ccd\u0c95\u0cbe\u0cb0\u0cbf \u0c95\u0cbf\u0cb0\u0cbf\u0caf \u0caa\u0ccd\u0cb0\u0cbe\u0ca5\u0cae\u0cbf\u0c95 \u0cb6\u0cbe\u0cb2\u0cc6", "operator": "Government", "school_code": "29330716602"}}, {"type": "node", "id": 2587676073, "lat": 16.47263, "lon": 76.50271, "tags": {"amenity": "school", "name": "Government Lower Primary School Devapur (j)", "name:kn": "\u0cb8\u0cb0\u0ccd\u0c95\u0cbe\u0cb0\u0cbf \u0c95\u0cbf\u0cb0\u0cbf\u0caf \u0caa\u0ccd\u0cb0\u0cbe\u0ca5\u0cae\u0cbf\u0c95 \u0cb6\u0cbe\u0cb2\u0cc6", "operator": "Government"}}, {"type": "node", "id": 2587676076, "lat": 16.73135, "lon": 76.66656, "tags": {"addr:place": "Dprigudda Tanda Ukkanal", "amenity": "school", "name": "Lower Primary School", "name:kn": "\u0cb8\u0cb0\u0ccd\u0c95\u0cbe\u0cb0\u0cbf \u0c95\u0cbf\u0cb0\u0cbf\u0caf \u0caa\u0ccd\u0cb0\u0cbe\u0ca5\u0cae\u0cbf\u0c95 \u0cb6\u0cbe\u0cb2\u0cc6", "operator": "Government"}}, {"type": "node", "id": 2587676081, "lat": 16.46721, "lon": 76.75704, "tags": {"amenity": "school", "name": "Government Lower Primary School Godihal(J)", "name:kn": "\u0cb8\u0cb0\u0ccd\u0c95\u0cbe\u0cb0\u0cbf \u0c95\u0cbf\u0cb0\u0cbf\u0caf \u0caa\u0ccd\u0cb0\u0cbe\u0ca5\u0cae\u0cbf\u0c95 \u0cb6\u0cbe\u0cb2\u0cc6", "operator": "Government", "school_code": "29330806402"}}, {"type": "node", "id": 2587676082, "lat": 16.68036, "lon": 76.7388, "tags": {"amenity": "school", "name": "Government Lower Primary School Gogi Gangunaik Tanda", "name:kn": "\u0cb8\u0cb0\u0ccd\u0c95\u0cbe\u0cb0\u0cbf \u0c95\u0cbf\u0cb0\u0cbf\u0caf \u0caa\u0ccd\u0cb0\u0cbe\u0ca5\u0cae\u0cbf\u0c95 \u0cb6\u0cbe\u0cb2\u0cc6", "operator": "Government", "school_code": "29330704006"}}, {"type": "node", "id": 2587676084, "lat": 16.75269, "lon": 76.72264, "tags": {"amenity": "school", "name": "Government Lower Primary School Gogi Tanda", "name:kn": "\u0cb8\u0cb0\u0ccd\u0c95\u0cbe\u0cb0\u0cbf \u0c95\u0cbf\u0cb0\u0cbf\u0caf \u0caa\u0ccd\u0cb0\u0cbe\u0ca5\u0cae\u0cbf\u0c95 \u0cb6\u0cbe\u0cb2\u0cc6", "operator": "Government", "school_code": "29330704005"}}, {"type": "node", "id": 2587676088, "lat": 16.46345, "lon": 76.68788, "tags": {"amenity": "school", "name": "Government Lower Primary School Gonal(Sd)", "name:kn": "\u0cb8\u0cb0\u0ccd\u0c95\u0cbe\u0cb0\u0cbf \u0c95\u0cbf\u0cb0\u0cbf\u0caf \u0caa\u0ccd\u0cb0\u0cbe\u0ca5\u0cae\u0cbf\u0c95 \u0cb6\u0cbe\u0cb2\u0cc6", "operator": "Government", "school_code": "29330806601"}}, {"type": "node", "id": 2587676093, "lat": 16.40695, "lon": 76.60631, "tags": {"amenity": "school", "name": "Government Lower Primary School Guddakayavara Doddi", "name:kn": "\u0cb8\u0cb0\u0ccd\u0c95\u0cbe\u0cb0\u0cbf \u0c95\u0cbf\u0cb0\u0cbf\u0caf \u0caa\u0ccd\u0cb0\u0cbe\u0ca5\u0cae\u0cbf\u0c95 \u0cb6\u0cbe\u0cb2\u0cc6", "operator": "Government", "school_code": "29330824401", "taluk": "Shorapur"}}, {"type": "node", "id": 2587676097, "lat": 16.70634, "lon": 76.62425, "tags": {"amenity": "school", "name": "Government Lower Primary School Gundapur", "name:kn": "\u0cb8\u0cb0\u0ccd\u0c95\u0cbe\u0cb0\u0cbf \u0c95\u0cbf\u0cb0\u0cbf\u0caf \u0caa\u0ccd\u0cb0\u0cbe\u0ca5\u0cae\u0cbf\u0c95 \u0cb6\u0cbe\u0cb2\u0cc6, \u0c97\u0cc1\u0c82\u0ca1\u0cbe\u0caa\u0cc1\u0cb0", "operator": "Government", "school_code": "29330704501"}}, {"type": "node", "id": 2587676099, "lat": 16.53815, "lon": 76.64063, "tags": {"amenity": "school", "name": "Government Lower Primary School Hal Ammapur", "name:kn": "\u0cb8\u0cb0\u0ccd\u0c95\u0cbe\u0cb0\u0cbf \u0c95\u0cbf\u0cb0\u0cbf\u0caf \u0caa\u0ccd\u0cb0\u0cbe\u0ca5\u0cae\u0cbf\u0c95 \u0cb6\u0cbe\u0cb2\u0cc6", "operator": "Government", "school_code": "29330807301"}}, {"type": "node", "id": 2587676100, "lat": 16.42796, "lon": 76.64646, "tags": {"amenity": "school", "name": "Government Lower Primary School Halabhavi", "name:kn": "\u0cb8\u0cb0\u0ccd\u0c95\u0cbe\u0cb0\u0cbf \u0c95\u0cbf\u0cb0\u0cbf\u0caf \u0caa\u0ccd\u0cb0\u0cbe\u0ca5\u0cae\u0cbf\u0c95 \u0cb6\u0cbe\u0cb2\u0cc6 \u0cb9\u0cbe\u0cb2\u0cad\u0cbe\u0cb5\u0cbf", "operator": "Government", "school_code": "29330807502"}}, {"type": "node", "id": 2587676105, "lat": 16.4566, "lon": 76.68154, "tags": {"amenity": "school", "name": "Government Lower Primary School Handral (sd)", "name:kn": "\u0cb8\u0cb0\u0ccd\u0c95\u0cbe\u0cb0\u0cbf \u0c95\u0cbf\u0cb0\u0cbf\u0caf \u0caa\u0ccd\u0cb0\u0cbe\u0ca5\u0cae\u0cbf\u0c95 \u0cb6\u0cbe\u0cb2\u0cc6, \u0cb9\u0c82\u0ca6\u0ccd\u0cb0\u0cbe\u0cb3", "operator": "Government", "school_code": "29330807601"}}, {"type": "node", "id": 2587676106, "lat": 16.53232, "lon": 76.76361, "tags": {"amenity": "school", "name": "Government Lower Primary School Hasanapur", "name:kn": "\u0cb8\u0cb0\u0ccd\u0c95\u0cbe\u0cb0\u0cbf \u0c95\u0cbf\u0cb0\u0cbf\u0caf \u0caa\u0ccd\u0cb0\u0cbe\u0ca5\u0cae\u0cbf\u0c95 \u0cb6\u0cbe\u0cb2\u0cc6", "operator": "Government", "school_code": "29330807901"}}, {"type": "node", "id": 2587676107, "lat": 16.45823, "lon": 76.72724, "tags": {"amenity": "school", "name": "Government Lower Primary School Havinhal", "name:kn": "\u0cb8\u0cb0\u0ccd\u0c95\u0cbe\u0cb0\u0cbf \u0c95\u0cbf\u0cb0\u0cbf\u0caf \u0caa\u0ccd\u0cb0\u0cbe\u0ca5\u0cae\u0cbf\u0c95 \u0cb6\u0cbe\u0cb2\u0cc6, \u0cb9\u0cbe\u0cb5\u0cbf\u0ca8\u0cb9\u0cbe\u0cb3", "operator": "Government", "school_code": "29330808001"}}, {"type": "node", "id": 2587676108, "lat": 16.48375, "lon": 76.61959, "tags": {"amenity": "school", "name": "Government Lower Primary School Hebbal [k]", "name:kn": "\u0cb8\u0cb0\u0ccd\u0c95\u0cbe\u0cb0\u0cbf \u0c95\u0cbf\u0cb0\u0cbf\u0caf \u0caa\u0ccd\u0cb0\u0cbe\u0ca5\u0cae\u0cbf\u0c95 \u0cb6\u0cbe\u0cb2\u0cc6 \u0c9a\u0cbf\u0c95\u0ccd\u0c95 \u0cb9\u0cc6\u0cac\u0ccd\u0cac\u0cbe\u0cb3", "operator": "Government", "school_code": "29330808201"}}, {"type": "node", "id": 2587676112, "lat": 16.62815, "lon": 76.80191, "tags": {"amenity": "school", "name": "Government Lower Primary School Holikatta Sagar", "name:kn": "\u0cb8\u0cb0\u0ccd\u0c95\u0cbe\u0cb0\u0cbf \u0c95\u0cbf\u0cb0\u0cbf\u0caf \u0caa\u0ccd\u0cb0\u0cbe\u0ca5\u0cae\u0cbf\u0c95 \u0cb6\u0cbe\u0cb2\u0cc6", "operator": "Government", "school_code": "29330711806"}}, {"type": "node", "id": 2587676116, "lat": 16.54964, "lon": 76.73761, "tags": {"amenity": "school", "name": "Government Lower Primary School Hosa Siddapura", "name:kn": "\u0cb8\u0cb0\u0ccd\u0c95\u0cbe\u0cb0\u0cbf \u0c95\u0cbf\u0cb0\u0cbf\u0caf \u0caa\u0ccd\u0cb0\u0cbe\u0ca5\u0cae\u0cbf\u0c95 \u0cb6\u0cbe\u0cb2\u0cc6 \u0cb8\u0cbf\u0ca6\u0ccd\u0ca6\u0cbe\u0caa\u0cc1\u0cb0", "operator": "Government", "school_code": "29330822801"}}, {"type": "node", "id": 2587676117, "lat": 16.59387, "lon": 76.79332, "tags": {"amenity": "school", "name": "Government Lower Primary School Hosalli Banderdoddi", "name:kn": "\u0cb8\u0cb0\u0ccd\u0c95\u0cbe\u0cb0\u0cbf \u0c95\u0cbf\u0cb0\u0cbf\u0caf \u0caa\u0ccd\u0cb0\u0cbe\u0ca5\u0cae\u0cbf\u0c95 \u0cb6\u0cbe\u0cb2\u0cc6", "operator": "Government"}}, {"type": "node", "id": 2587676119, "lat": 16.73976, "lon": 76.80309, "tags": {"amenity": "school", "name": "Government Lower Primary School Hotapeth Nadavintanda", "name:kn": "\u0cb8\u0cb0\u0ccd\u0c95\u0cbe\u0cb0\u0cbf \u0c95\u0cbf\u0cb0\u0cbf\u0caf \u0caa\u0ccd\u0cb0\u0cbe\u0ca5\u0cae\u0cbf\u0c95 \u0cb6\u0cbe\u0cb2\u0cc6", "operator": "Government", "school_code": "29330714603"}}, {"type": "node", "id": 2587676120, "lat": 16.44747, "lon": 76.5289, "tags": {"amenity": "school", "name": "Government Lower Primary School Hunasagi Tanda", "name:kn": "\u0cb8\u0cb0\u0ccd\u0c95\u0cbe\u0cb0\u0cbf \u0c95\u0cbf\u0cb0\u0cbf\u0caf \u0caa\u0ccd\u0cb0\u0cbe\u0ca5\u0cae\u0cbf\u0c95 \u0cb6\u0cbe\u0cb2\u0cc6 \u0cb9\u0cc1\u0ca3\u0cb8\u0c97\u0cbf \u0ca4\u0cbe\u0c82\u0ca1", "operator": "Government", "school_code": "29330809201"}}, {"type": "node", "id": 2587676127, "lat": 16.39327, "lon": 76.5661, "tags": {"amenity": "school", "name": "Government Lower Primary School Jamparadoddi", "name:kn": "\u0cb8\u0cb0\u0ccd\u0c95\u0cbe\u0cb0\u0cbf \u0c95\u0cbf\u0cb0\u0cbf\u0caf \u0caa\u0ccd\u0cb0\u0cbe\u0ca5\u0cae\u0cbf\u0c95 \u0cb6\u0cbe\u0cb2\u0cc6", "operator": "Government", "school_code": "29330824301", "taluk": "Shorapur"}}, {"type": "node", "id": 2587676133, "lat": 16.67573, "lon": 76.68627, "tags": {"amenity": "school", "name": "Government Lower Primary School Kakkasagera Tanda", "name:kn": "\u0cb8\u0cb0\u0ccd\u0c95\u0cbe\u0cb0\u0cbf \u0c95\u0cbf\u0cb0\u0cbf\u0caf \u0caa\u0ccd\u0cb0\u0cbe\u0ca5\u0cae\u0cbf\u0c95 \u0cb6\u0cbe\u0cb2\u0cc6", "operator": "Government", "school_code": "29330707202"}}, {"type": "node", "id": 2587676135, "lat": 16.47933, "lon": 76.57463, "tags": {"amenity": "school", "name": "Government Lower Primary School Kalldevanhalli J Colny", "name:kn": "\u0cb8\u0cb0\u0ccd\u0c95\u0cbe\u0cb0\u0cbf \u0c95\u0cbf\u0cb0\u0cbf\u0caf \u0caa\u0ccd\u0cb0\u0cbe\u0ca5\u0cae\u0cbf\u0c95 \u0cb6\u0cbe\u0cb2\u0cc6", "operator": "Government", "school_code": "29330811002"}}, {"type": "node", "id": 2587676136, "lat": 16.73578, "lon": 76.66233, "tags": {"addr:place": "Kalunaik Tanda", "amenity": "school", "name": "Lower Primary School", "name:kn": "\u0cb8\u0cb0\u0ccd\u0c95\u0cbe\u0cb0\u0cbf \u0c95\u0cbf\u0cb0\u0cbf\u0caf \u0caa\u0ccd\u0cb0\u0cbe\u0ca5\u0cae\u0cbf\u0c95 \u0cb6\u0cbe\u0cb2\u0cc6", "operator": "Government", "school_code": "29330713807"}}, {"type": "node", "id": 2587676138, "lat": 16.74461, "lon": 76.76953, "tags": {"amenity": "school", "name": "Government Lower Primary School Kanchana Kavi", "name:kn": "\u0cb8\u0cb0\u0ccd\u0c95\u0cbe\u0cb0\u0cbf \u0c95\u0cbf\u0cb0\u0cbf\u0caf \u0caa\u0ccd\u0cb0\u0cbe\u0ca5\u0cae\u0cbf\u0c95 \u0cb6\u0cbe\u0cb2\u0cc6, \u0c95\u0c82\u0c9a\u0ca8\u0c95\u0cb5\u0cbf", "operator": "Government", "school_code": "29330716201"}}, {"type": "node", "id": 2587676142, "lat": 16.72102, "lon": 76.71281, "tags": {"amenity": "school", "name": "Government Lower Primary School Karakihalli Tanda", "name:kn": "\u0cb8\u0cb0\u0ccd\u0c95\u0cbe\u0cb0\u0cbf \u0c95\u0cbf\u0cb0\u0cbf\u0caf \u0caa\u0ccd\u0cb0\u0cbe\u0ca5\u0cae\u0cbf\u0c95 \u0cb6\u0cbe\u0cb2\u0cc6", "operator": "Government", "school_code": "29330707502"}}, {"type": "node", "id": 2587676147, "lat": 16.70964, "lon": 76.67982, "tags": {"amenity": "school", "name": "Government Lower Primary School Kelagina Tanda Chandapur", "name:kn": "\u0cb8\u0cb0\u0ccd\u0c95\u0cbe\u0cb0\u0cbf \u0c95\u0cbf\u0cb0\u0cbf\u0caf \u0caa\u0ccd\u0cb0\u0cbe\u0ca5\u0cae\u0cbf\u0c95 \u0cb6\u0cbe\u0cb2\u0cc6", "operator": "Government", "school_code": "29330702803"}}, {"type": "node", "id": 2587676152, "lat": 16.6204, "lon": 76.61224, "tags": {"amenity": "school", "name": "Government Lower Primary School Kiradahalli Tanda", "name:kn": "\u0cb8\u0cb0\u0ccd\u0c95\u0cbe\u0cb0\u0cbf \u0c95\u0cbf\u0cb0\u0cbf\u0caf \u0caa\u0ccd\u0cb0\u0cbe\u0ca5\u0cae\u0cbf\u0c95 \u0cb6\u0cbe\u0cb2\u0cc6 \u0c95\u0cb0\u0ca6\u0cb9\u0cb3\u0ccd\u0cb3\u0cbf \u0ca4\u0cbe\u0c82\u0ca1", "operator": "Government", "school_code": "29330823401"}}, {"type": "node", "id": 2587676161, "lat": 16.42699, "lon": 76.48785, "tags": {"amenity": "school", "name": "Government Lower Primary School Kuppi Tanda", "name:kn": "\u0cb8\u0cb0\u0ccd\u0c95\u0cbe\u0cb0\u0cbf \u0c95\u0cbf\u0cb0\u0cbf\u0caf \u0caa\u0ccd\u0cb0\u0cbe\u0ca5\u0cae\u0cbf\u0c95 \u0cb6\u0cbe\u0cb2\u0cc6", "operator": "Government", "school_code": "29330813402", "taluk": "Shorapur"}}, {"type": "node", "id": 2587676162, "lat": 16.4105, "lon": 76.48451, "tags": {"amenity": "school", "name": "Government Lower Primary School, Kuppi", "name:kn": "\u0cb8\u0cb0\u0ccd\u0c95\u0cbe\u0cb0\u0cbf \u0c95\u0cbf\u0cb0\u0cbf\u0caf \u0caa\u0ccd\u0cb0\u0cbe\u0ca5\u0cae\u0cbf\u0c95 \u0cb6\u0cbe\u0cb2\u0cc6, \u0c95\u0cc1\u0caa\u0ccd\u0caa\u0cbf", "operator": "Government", "school_code": "29330813401", "taluk": "Shorapur"}}, {"type": "node", "id": 2587676170, "lat": 16.58926, "lon": 76.70344, "tags": {"amenity": "school", "name": "Government Lower Primary School Machigundal Camp", "name:kn": "\u0cb8\u0cb0\u0ccd\u0c95\u0cbe\u0cb0\u0cbf \u0c95\u0cbf\u0cb0\u0cbf\u0caf \u0caa\u0ccd\u0cb0\u0cbe\u0ca5\u0cae\u0cbf\u0c95 \u0cb6\u0cbe\u0cb2\u0cc6", "operator": "Government", "school_code": "29330814102"}}, {"type": "node", "id": 2587676172, "lat": 16.41986, "lon": 76.54592, "tags": {"amenity": "school", "name": "Government Lower Primary School Majulapurhalli", "name:kn": "\u0cb8\u0cb0\u0ccd\u0c95\u0cbe\u0cb0\u0cbf \u0c95\u0cbf\u0cb0\u0cbf\u0caf \u0caa\u0ccd\u0cb0\u0cbe\u0ca5\u0cae\u0cbf\u0c95 \u0cb6\u0cbe\u0cb2\u0cc6", "operator": "Government", "school_code": "29330814601", "taluk": "Shorapur"}}, {"type": "node", "id": 2587676176, "lat": 16.53635, "lon": 76.72218, "tags": {"amenity": "school", "name": "Government Lower Primary School Mallibhavi", "name:kn": "\u0cb8\u0cb0\u0ccd\u0c95\u0cbe\u0cb0\u0cbf \u0c95\u0cbf\u0cb0\u0cbf\u0caf \u0caa\u0ccd\u0cb0\u0cbe\u0ca5\u0cae\u0cbf\u0c95 \u0cb6\u0cbe\u0cb2\u0cc6 \u0cae\u0cb2\u0ccd\u0cb2\u0cbf\u0cac\u0cbe\u0cb5\u0cbf", "operator": "Government", "school_code": "29330815401"}}, {"type": "node", "id": 2587676184, "lat": 16.57147, "lon": 76.63956, "tags": {"amenity": "school", "name": "Government Lower Primary School Mavinamatti", "name:kn": "\u0cb8\u0cb0\u0ccd\u0c95\u0cbe\u0cb0\u0cbf \u0c95\u0cbf\u0cb0\u0cbf\u0caf \u0caa\u0ccd\u0cb0\u0cbe\u0ca5\u0cae\u0cbf\u0c95 \u0cb6\u0cbe\u0cb2\u0cc6, \u0cae\u0cbe\u0cb5\u0cbf\u0ca8\u0cae\u0c9f\u0ccd\u0c9f\u0cbf", "operator": "Government", "school_code": "29330815901"}}, {"type": "node", "id": 2587676187, "lat": 16.678, "lon": 76.734, "tags": {"amenity": "school", "name": "Lower Primary School", "name:kn": "\u0cb8\u0cb0\u0ccd\u0c95\u0cbe\u0cb0\u0cbf \u0c95\u0cbf\u0cb0\u0cbf\u0caf \u0caa\u0ccd\u0cb0\u0cbe\u0ca5\u0cae\u0cbf\u0c95 \u0cb6\u0cbe\u0cb2\u0cc6", "operator": "Government", "school_code": "29330706003"}}, {"type": "node", "id": 2587676188, "lat": 16.71956, "lon": 76.63426, "tags": {"amenity": "school", "name": "Government Lower Primary School Melina Tanda Chamanal", "name:kn": "\u0cb8\u0cb0\u0ccd\u0c95\u0cbe\u0cb0\u0cbf \u0c95\u0cbf\u0cb0\u0cbf\u0caf \u0caa\u0ccd\u0cb0\u0cbe\u0ca5\u0cae\u0cbf\u0c95 \u0cb6\u0cbe\u0cb2\u0cc6", "operator": "Government", "school_code": "29330702703"}}, {"type": "node", "id": 2587676189, "lat": 16.73975, "lon": 76.79854, "tags": {"amenity": "school", "name": "Government Lower Primary School Melina Tanda Hothpeth", "name:kn": "\u0cb8\u0cb0\u0ccd\u0c95\u0cbe\u0cb0\u0cbf \u0c95\u0cbf\u0cb0\u0cbf\u0caf \u0caa\u0ccd\u0cb0\u0cbe\u0ca5\u0cae\u0cbf\u0c95 \u0cb6\u0cbe\u0cb2\u0cc6", "operator": "Government", "school_code": "29330714605"}}, {"type": "node", "id": 2587676195, "lat": 16.60739, "lon": 76.49074, "tags": {"amenity": "school", "name": "Government Lower Primary School Mudanoor K Tanda", "name:kn": "\u0cb8\u0cb0\u0ccd\u0c95\u0cbe\u0cb0\u0cbf \u0c95\u0cbf\u0cb0\u0cbf\u0caf \u0caa\u0ccd\u0cb0\u0cbe\u0ca5\u0cae\u0cbf\u0c95 \u0cb6\u0cbe\u0cb2\u0cc6", "operator": "Government", "school_code": "29330816203", "taluk": "Shorapur"}}, {"type": "node", "id": 2587676201, "lat": 16.62394, "lon": 76.54019, "tags": {"amenity": "school", "name": "Government Lower Primary School Murakanal", "name:kn": "\u0cb8\u0cb0\u0ccd\u0c95\u0cbe\u0cb0\u0cbf \u0c95\u0cbf\u0cb0\u0cbf\u0caf \u0caa\u0ccd\u0cb0\u0cbe\u0ca5\u0cae\u0cbf\u0c95 \u0cb6\u0cbe\u0cb2\u0cc6", "operator": "Government", "school_code": "29330823301"}}, {"type": "node", "id": 2587676203, "lat": 16.48924, "lon": 76.74157, "tags": {"amenity": "school", "name": "Government Lower Primary School Musturddodi", "name:kn": "\u0cb8\u0cb0\u0ccd\u0c95\u0cbe\u0cb0\u0cbf \u0c95\u0cbf\u0cb0\u0cbf\u0caf \u0caa\u0ccd\u0cb0\u0cbe\u0ca5\u0cae\u0cbf\u0c95 \u0cb6\u0cbe\u0cb2\u0cc6", "operator": "Government", "school_code": "29330818607"}}, {"type": "node", "id": 2587676204, "lat": 16.72619, "lon": 76.6294995, "tags": {"addr:place": "Nadihal", "amenity": "school", "name": "Lower Primary School", "name:kn": "\u0cb8\u0cb0\u0ccd\u0c95\u0cbe\u0cb0\u0cbf \u0c95\u0cbf\u0cb0\u0cbf\u0caf \u0caa\u0ccd\u0cb0\u0cbe\u0ca5\u0cae\u0cbf\u0c95 \u0cb6\u0cbe\u0cb2\u0cc6", "operator": "Government", "school_code": "29330716601"}}, {"type": "node", "id": 2587676206, "lat": 16.6682, "lon": 76.752, "tags": {"amenity": "school", "name": "Government Lower Primary School Naganatagi Tanda 1", "name:kn": "\u0cb8\u0cb0\u0ccd\u0c95\u0cbe\u0cb0\u0cbf \u0c95\u0cbf\u0cb0\u0cbf\u0caf \u0caa\u0ccd\u0cb0\u0cbe\u0ca5\u0cae\u0cbf\u0c95 \u0cb6\u0cbe\u0cb2\u0cc6 \u0ca8\u0cbe\u0c97\u0ca8\u0c9f\u0c97\u0cbf \u0ca4\u0cbe\u0c82\u0ca1", "operator": "Government", "school_code": "29330714702"}}, {"type": "node", "id": 2587676207, "lat": 16.68043, "lon": 76.74494, "tags": {"amenity": "school", "name": "Government Lower Primary School Naganatagi Tanda 2", "name:kn": "\u0cb8\u0cb0\u0ccd\u0c95\u0cbe\u0cb0\u0cbf \u0c95\u0cbf\u0cb0\u0cbf\u0caf \u0caa\u0ccd\u0cb0\u0cbe\u0ca5\u0cae\u0cbf\u0c95 \u0cb6\u0cbe\u0cb2\u0cc6 \u0ca8\u0cbe\u0c97\u0ca8\u0c9f\u0c97\u0cbf \u0ca4\u0cbe\u0c82\u0ca1", "operator": "Government"}}, {"type": "node", "id": 2587676208, "lat": 16.66065, "lon": 76.7634, "tags": {"amenity": "school", "name": "Government Lower Primary School Naganatagi Tanda3", "name:kn": "\u0cb8\u0cb0\u0ccd\u0c95\u0cbe\u0cb0\u0cbf \u0c95\u0cbf\u0cb0\u0cbf\u0caf \u0caa\u0ccd\u0cb0\u0cbe\u0ca5\u0cae\u0cbf\u0c95 \u0cb6\u0cbe\u0cb2\u0cc6 \u0ca8\u0cbe\u0c97\u0ca8\u0c9f\u0c97\u0cbf \u0ca4\u0cbe\u0c82\u0ca1", "operator": "Government", "school_code": "29330714707"}}, {"type": "node", "id": 2587676209, "lat": 16.45384, "lon": 76.7001, "tags": {"amenity": "school", "name": "Government Lower Primary School Nagaral", "name:kn": "\u0cb8\u0cb0\u0ccd\u0c95\u0cbe\u0cb0\u0cbf \u0c95\u0cbf\u0cb0\u0cbf\u0caf \u0caa\u0ccd\u0cb0\u0cbe\u0ca5\u0cae\u0cbf\u0c95 \u0cb6\u0cbe\u0cb2\u0cc6, \u0ca8\u0cbe\u0c97\u0cb0\u0cbe\u0cb3", "operator": "Government", "school_code": "29330816601"}}, {"type": "node", "id": 2587676215, "lat": 16.50704, "lon": 76.74814, "tags": {"amenity": "school", "name": "Government Lower Primary School Narsingpeth", "name:kn": "\u0cb8\u0cb0\u0ccd\u0c95\u0cbe\u0cb0\u0cbf \u0c95\u0cbf\u0cb0\u0cbf\u0caf \u0caa\u0ccd\u0cb0\u0cbe\u0ca5\u0cae\u0cbf\u0c95 \u0cb6\u0cbe\u0cb2\u0cc6", "operator": "Government", "school_code": "29330816801"}}, {"type": "node", "id": 2587676219, "lat": 16.51524, "lon": 76.76358, "tags": {"amenity": "school", "name": "Government Lower Primary School Paldakeri", "name:kn": "\u0cb8\u0cb0\u0ccd\u0c95\u0cbe\u0cb0\u0cbf \u0c95\u0cbf\u0cb0\u0cbf\u0caf \u0caa\u0ccd\u0cb0\u0cbe\u0ca5\u0cae\u0cbf\u0c95 \u0cb6\u0cbe\u0cb2\u0cc6", "operator": "Government", "school_code": "29330819422"}}, {"type": "node", "id": 2587676222, "lat": 16.62342, "lon": 76.68433, "tags": {"amenity": "school", "name": "Government Lower Primary School Piddanayakanahatti", "name:kn": "\u0cb8\u0cb0\u0ccd\u0c95\u0cbe\u0cb0\u0cbf \u0c95\u0cbf\u0cb0\u0cbf\u0caf \u0caa\u0ccd\u0cb0\u0cbe\u0ca5\u0cae\u0cbf\u0c95 \u0cb6\u0cbe\u0cb2\u0cc6", "operator": "Government", "school_code": "29330714307"}}, {"type": "node", "id": 2587676223, "lat": 16.52256, "lon": 76.74782, "tags": {"amenity": "school", "name": "Government Lower Primary School Police Colony Shorapur", "name:kn": "\u0cb8\u0cb0\u0ccd\u0c95\u0cbe\u0cb0\u0cbf \u0c95\u0cbf\u0cb0\u0cbf\u0caf \u0caa\u0ccd\u0cb0\u0cbe\u0ca5\u0cae\u0cbf\u0c95 \u0cb6\u0cbe\u0cb2\u0cc6", "operator": "Government", "school_code": "29330819407"}}, {"type": "node", "id": 2587676227, "lat": 16.71783, "lon": 76.7008, "tags": {"amenity": "school", "name": "Government Lower Primary School Rabbana Halli Tanda", "name:kn": "\u0cb8\u0cb0\u0ccd\u0c95\u0cbe\u0cb0\u0cbf \u0c95\u0cbf\u0cb0\u0cbf\u0caf \u0caa\u0ccd\u0cb0\u0cbe\u0ca5\u0cae\u0cbf\u0c95 \u0cb6\u0cbe\u0cb2\u0cc6", "operator": "Government", "school_code": "29330716302"}}, {"type": "node", "id": 2587676229, "lat": 16.43186, "lon": 76.61775, "tags": {"amenity": "school", "name": "Government Lower Primary School Raigera", "name:kn": "\u0cb8\u0cb0\u0ccd\u0c95\u0cbe\u0cb0\u0cbf \u0c95\u0cbf\u0cb0\u0cbf\u0caf \u0caa\u0ccd\u0cb0\u0cbe\u0ca5\u0cae\u0cbf\u0c95 \u0cb6\u0cbe\u0cb2\u0cc6, \u0cb0\u0cbe\u0caf\u0c97\u0cc7\u0cb0", "operator": "Government", "school_code": "29330817701"}}, {"type": "node", "id": 2587676231, "lat": 16.70527, "lon": 76.71132, "tags": {"amenity": "school", "name": "Government Lower Primary School Rajapur ( B )", "name:kn": "\u0cb8\u0cb0\u0ccd\u0c95\u0cbe\u0cb0\u0cbf \u0c95\u0cbf\u0cb0\u0cbf\u0caf \u0caa\u0ccd\u0cb0\u0cbe\u0ca5\u0cae\u0cbf\u0c95 \u0cb6\u0cbe\u0cb2\u0cc6, \u0cb0\u0cbe\u0c9c\u0cbe\u0caa\u0cc2\u0cb0", "operator": "Government", "school_code": "29330711201"}}, {"type": "node", "id": 2587676233, "lat": 16.6276, "lon": 76.78319, "tags": {"amenity": "school", "name": "Government Lower Primary School Rajmahal", "name:kn": "\u0cb8\u0cb0\u0ccd\u0c95\u0cbe\u0cb0\u0cbf \u0c95\u0cbf\u0cb0\u0cbf\u0caf \u0caa\u0ccd\u0cb0\u0cbe\u0ca5\u0cae\u0cbf\u0c95 \u0cb6\u0cbe\u0cb2\u0cc6", "operator": "Government", "school_code": "29330711101"}}, {"type": "node", "id": 2587676238, "lat": 16.52919, "lon": 76.7654, "tags": {"amenity": "school", "name": "Government Lower Primary School Rangampeth", "name:kn": "\u0cb8\u0cb0\u0ccd\u0c95\u0cbe\u0cb0\u0cbf \u0c95\u0cbf\u0cb0\u0cbf\u0caf \u0caa\u0ccd\u0cb0\u0cbe\u0ca5\u0cae\u0cbf\u0c95 \u0cb6\u0cbe\u0cb2\u0cc6", "operator": "Government", "school_code": "29330818301"}}, {"type": "node", "id": 2587676245, "lat": 16.40192, "lon": 76.59572, "tags": {"amenity": "school", "name": "Government Lower Primary School Sawakardoddi Kakkera", "name:kn": "\u0cb8\u0cb0\u0ccd\u0c95\u0cbe\u0cb0\u0cbf \u0c95\u0cbf\u0cb0\u0cbf\u0caf \u0caa\u0ccd\u0cb0\u0cbe\u0ca5\u0cae\u0cbf\u0c95 \u0cb6\u0cbe\u0cb2\u0cc6", "operator": "Government", "school_code": "29330810829", "taluk": "Shorapur"}}, {"type": "node", "id": 2587676247, "lat": 16.58255, "lon": 76.53606, "tags": {"amenity": "school", "name": "Lower Primary School", "name:kn": "\u0cb8\u0cb0\u0ccd\u0c95\u0cbe\u0cb0\u0cbf \u0c95\u0cbf\u0cb0\u0cbf\u0caf \u0caa\u0ccd\u0cb0\u0cbe\u0ca5\u0cae\u0cbf\u0c95 \u0cb6\u0cbe\u0cb2\u0cc6, \u0cb6\u0cbe\u0c95\u0cbe\u0caa\u0cc2\u0cb0", "operator": "Government"}}, {"type": "node", "id": 2587676253, "lat": 16.54195, "lon": 76.74179, "tags": {"amenity": "school", "name": "Government Lower Primary School Siddapurgudi", "name:kn": "\u0cb8\u0cb0\u0ccd\u0c95\u0cbe\u0cb0\u0cbf \u0c95\u0cbf\u0cb0\u0cbf\u0caf \u0caa\u0ccd\u0cb0\u0cbe\u0ca5\u0cae\u0cbf\u0c95 \u0cb6\u0cbe\u0cb2\u0cc6", "operator": "Government", "school_code": "29330819501"}}, {"type": "node", "id": 2587676254, "lat": 16.75434, "lon": 76.73998, "tags": {"amenity": "school", "name": "Government Lower Primary School Singanhalli Tanda", "name:kn": "\u0cb8\u0cb0\u0ccd\u0c95\u0cbe\u0cb0\u0cbf \u0c95\u0cbf\u0cb0\u0cbf\u0caf \u0caa\u0ccd\u0cb0\u0cbe\u0ca5\u0cae\u0cbf\u0c95 \u0cb6\u0cbe\u0cb2\u0cc6 \u0cb8\u0cbf\u0c82\u0c97\u0ca8\u0cb9\u0cb3\u0ccd\u0cb3\u0cbf \u0ca4\u0cbe\u0c82\u0ca1", "operator": "Government", "school_code": "29330712902"}}, {"type": "node", "id": 2587676255, "lat": 16.45023, "lon": 76.552, "tags": {"amenity": "school", "name": "Government Lower Primary School Srinivaspur Tanda", "name:kn": "\u0cb8\u0cb0\u0ccd\u0c95\u0cbe\u0cb0\u0cbf \u0c95\u0cbf\u0cb0\u0cbf\u0caf \u0caa\u0ccd\u0cb0\u0cbe\u0ca5\u0cae\u0cbf\u0c95 \u0cb6\u0cbe\u0cb2\u0cc6", "operator": "Government", "school_code": "29330819902"}}, {"type": "node", "id": 2587676256, "lat": 16.42684, "lon": 76.55021, "tags": {"amenity": "school", "name": "Government Lower Primary School Srinivaspur", "name:kn": "\u0cb8\u0cb0\u0ccd\u0c95\u0cbe\u0cb0\u0cbf \u0c95\u0cbf\u0cb0\u0cbf\u0caf \u0caa\u0ccd\u0cb0\u0cbe\u0ca5\u0cae\u0cbf\u0c95 \u0cb6\u0cbe\u0cb2\u0cc6 \u0cb6\u0ccd\u0cb0\u0cc0\u0ca8\u0cbf\u0cb5\u0cbe\u0cb8\u0caa\u0cc1\u0cb0", "operator": "Government", "school_code": "29330820001"}}, {"type": "node", "id": 2587676260, "lat": 16.52452, "lon": 76.60608, "tags": {"amenity": "school", "name": "Government Lower Primary School Tallahalli (k)", "name:kn": "\u0cb8\u0cb0\u0ccd\u0c95\u0cbe\u0cb0\u0cbf \u0c95\u0cbf\u0cb0\u0cbf\u0caf \u0caa\u0ccd\u0cb0\u0cbe\u0ca5\u0cae\u0cbf\u0c95 \u0cb6\u0cbe\u0cb2\u0cc6", "operator": "Government", "school_code": "29330824701"}}, {"type": "node", "id": 2587676261, "lat": 16.51596, "lon": 76.70619, "tags": {"amenity": "school", "name": "Government Lower Primary School Talwargera", "name:kn": "\u0cb8\u0cb0\u0ccd\u0c95\u0cbe\u0cb0\u0cbf \u0c95\u0cbf\u0cb0\u0cbf\u0caf \u0caa\u0ccd\u0cb0\u0cbe\u0ca5\u0cae\u0cbf\u0c95 \u0cb6\u0cbe\u0cb2\u0cc6 \u0ca4\u0cb3\u0cb5\u0cbe\u0cb0\u0c97\u0cc7\u0cb0\u0cbe", "operator": "Government", "school_code": "29330820201"}}, {"type": "node", "id": 2587676268, "lat": 16.60649, "lon": 76.66481, "tags": {"amenity": "school", "name": "Government Lower Primary School Tipnatgi", "name:kn": "\u0cb8\u0cb0\u0ccd\u0c95\u0cbe\u0cb0\u0cbf \u0c95\u0cbf\u0cb0\u0cbf\u0caf \u0caa\u0ccd\u0cb0\u0cbe\u0ca5\u0cae\u0cbf\u0c95 \u0cb6\u0cbe\u0cb2\u0cc6, \u0ca4\u0cbf\u0caa\u0ccd\u0caa\u0ca8\u0c9f\u0c97\u0cbf", "operator": "Government", "school_code": "29330820501"}}, {"type": "node", "id": 2587676270, "lat": 16.52448, "lon": 76.76122, "tags": {"amenity": "school", "name": "Government Lower Primary School Uddaroni Shorapur", "name:kn": "\u0cb8\u0cb0\u0ccd\u0c95\u0cbe\u0cb0\u0cbf \u0c95\u0cbf\u0cb0\u0cbf\u0caf \u0caa\u0ccd\u0cb0\u0cbe\u0ca5\u0cae\u0cbf\u0c95 \u0cb6\u0cbe\u0cb2\u0cc6", "operator": "Government", "school_code": "29330819408"}}, {"type": "node", "id": 2587676273, "lat": 16.74306, "lon": 76.67445, "tags": {"amenity": "school", "name": "Lower Primary School", "name:kn": "\u0c95\u0cbf\u0cb0\u0cbf\u0caf \u0caa\u0ccd\u0cb0\u0cbe\u0ca5\u0cae\u0cbf\u0c95 \u0cb6\u0cbe\u0cb2\u0cc6", "operator": "Government", "school_code": "29330713804"}}, {"type": "node", "id": 2587676293, "lat": 16.51806, "lon": 76.76451, "tags": {"amenity": "school", "name": "Government Lower Primary School Urdu Qureshimola", "name:kn": "\u0cb8\u0cb0\u0ccd\u0c95\u0cbe\u0cb0\u0cbf \u0c95\u0cbf\u0cb0\u0cbf\u0caf \u0caa\u0ccd\u0cb0\u0cbe\u0ca5\u0cae\u0cbf\u0c95 \u0c89\u0cb0\u0ccd\u0ca6\u0cc1 \u0cb6\u0cbe\u0cb2\u0cc6", "operator": "Government", "school_code": "29330819442"}}, {"type": "node", "id": 2587676295, "lat": 16.52914, "lon": 76.77421, "tags": {"amenity": "school", "name": "Government Lower Primary School Vaddara Colony", "name:kn": "\u0cb8\u0cb0\u0ccd\u0c95\u0cbe\u0cb0\u0cbf \u0c95\u0cbf\u0cb0\u0cbf\u0caf \u0caa\u0ccd\u0cb0\u0cbe\u0ca5\u0cae\u0cbf\u0c95 \u0cb6\u0cbe\u0cb2\u0cc6", "operator": "Government", "school_code": "29330823106"}}, {"type": "node", "id": 2587676297, "lat": 16.51273, "lon": 76.76406, "tags": {"amenity": "school", "name": "Government Lower Primary School Venkatapura", "name:kn": "\u0cb8\u0cb0\u0ccd\u0c95\u0cbe\u0cb0\u0cbf \u0c95\u0cbf\u0cb0\u0cbf\u0caf \u0caa\u0ccd\u0cb0\u0cbe\u0ca5\u0cae\u0cbf\u0c95 \u0cb6\u0cbe\u0cb2\u0cc6 \u0cb5\u0cc6\u0c82\u0c95\u0c9f\u0cbe\u0caa\u0cc1\u0cb0", "operator": "Government", "school_code": "29330822601"}}, {"type": "node", "id": 2587676299, "lat": 16.65052, "lon": 76.80057, "tags": {"amenity": "school", "name": "Government Lps Virupapur", "name:kn": "\u0cb8\u0cb0\u0ccd\u0c95\u0cbe\u0cb0\u0cbf \u0c95\u0cbf\u0cb0\u0cbf\u0caf \u0caa\u0ccd\u0cb0\u0cbe\u0ca5\u0cae\u0cbf\u0c95 \u0cb6\u0cbe\u0cb2\u0cc6 \u0cb5\u0cbf\u0cb0\u0cc1\u0caa\u0cbe\u0caa\u0cc1\u0cb0", "operator": "Government", "school_code": "29330714104"}}, {"type": "node", "id": 2587676307, "lat": 16.60314, "lon": 76.77211, "tags": {"amenity": "school", "name": "Govt LPS Yekkigaddi", "name:kn": "\u0cb8\u0cb0\u0ccd\u0c95\u0cbe\u0cb0\u0cbf \u0c95\u0cbf\u0cb0\u0cbf\u0caf \u0caa\u0ccd\u0cb0\u0cbe\u0ca5\u0cae\u0cbf\u0c95 \u0cb6\u0cbe\u0cb2\u0cc6", "operator": "Government", "school_code": "29330715101"}}, {"type": "node", "id": 2587676309, "lat": 16.52774, "lon": 76.75805, "tags": {"amenity": "school", "name": "Government Lower Primary School Zadakera Shorapur", "name:kn": "\u0cb8\u0cb0\u0ccd\u0c95\u0cbe\u0cb0\u0cbf \u0c95\u0cbf\u0cb0\u0cbf\u0caf \u0caa\u0ccd\u0cb0\u0cbe\u0ca5\u0cae\u0cbf\u0c95 \u0cb6\u0cbe\u0cb2\u0cc6", "operator": "Government", "school_code": "29330819406"}}, {"type": "node", "id": 2587676316, "lat": 16.45976, "lon": 76.52663, "tags": {"amenity": "school", "name": "Government MPS Hunasagi Ukp", "name:kn": "\u0cb8\u0cb0\u0ccd\u0c95\u0cbe\u0cb0\u0cbf \u0cae\u0cbe\u0ca6\u0cb0\u0cbf \u0caa\u0ccd\u0cb0\u0cbe\u0ca5\u0cae\u0cbf\u0c95 \u0cb6\u0cbe\u0cb2\u0cc6", "operator": "Government", "school_code": "29330809102"}}, {"type": "node", "id": 2587676317, "lat": 16.4561, "lon": 76.51647, "tags": {"amenity": "school", "name": "Government MPS Hunasagi", "name:kn": "\u0cb8\u0cb0\u0ccd\u0c95\u0cbe\u0cb0\u0cbf \u0cae\u0cbe\u0ca6\u0cb0\u0cbf \u0caa\u0ccd\u0cb0\u0cbe\u0ca5\u0cae\u0cbf\u0c95 \u0cb6\u0cbe\u0cb2\u0cc6 \u0cb9\u0cc1\u0ca3\u0cb8\u0c97\u0cbf", "operator": "Government", "school_code": "29330809101", "taluk": "Shorapur"}}, {"type": "node", "id": 2587676323, "lat": 16.62437, "lon": 76.80356, "tags": {"amenity": "school", "name": "Government MPS Sagar", "name:kn": "\u0cb8\u0cb0\u0ccd\u0c95\u0cbe\u0cb0\u0cbf \u0cae\u0cbe\u0ca6\u0cb0\u0cbf \u0caa\u0ccd\u0cb0\u0cbe\u0ca5\u0cae\u0cbf\u0c95 \u0cb6\u0cbe\u0cb2\u0cc6 \u0cb8\u0c97\u0cb0", "operator": "Government", "school_code": "29330711801"}}, {"type": "node", "id": 2587676326, "lat": 16.52882, "lon": 76.77211, "tags": {"amenity": "school", "name": "Government MPS Thimmapura", "name:kn": "\u0cb8\u0cb0\u0ccd\u0c95\u0cbe\u0cb0\u0cbf \u0cae\u0cbe\u0ca6\u0cb0\u0cbf \u0caa\u0ccd\u0cb0\u0cbe\u0ca5\u0cae\u0cbf\u0c95 \u0cb6\u0cbe\u0cb2\u0cc6", "operator": "Government", "school_code": "29330823101"}}, {"type": "node", "id": 2587676328, "lat": 16.47597, "lon": 76.54758, "tags": {"amenity": "school", "name": "Government MPS Vajjala", "name:kn": "\u0cb8\u0cb0\u0ccd\u0c95\u0cbe\u0cb0\u0cbf \u0cae\u0cbe\u0ca6\u0cb0\u0cbf \u0caa\u0ccd\u0cb0\u0cbe\u0ca5\u0cae\u0cbf\u0c95 \u0cb6\u0cbe\u0cb2\u0cc6 \u0cb5\u0c9c\u0ccd\u0c9c\u0cb2", "operator": "Government"}}, {"type": "node", "id": 2587676334, "lat": 16.52036, "lon": 76.76403, "tags": {"amenity": "school", "name": "Government Urdu Higher Primary School Kabadagera Shora", "name:kn": "\u0cb8\u0cb0\u0ccd\u0c95\u0cbe\u0cb0\u0cbf \u0c89\u0cb0\u0ccd\u0ca6\u0cc1 \u0c95\u0cbf\u0cb0\u0cbf\u0caf \u0caa\u0ccd\u0cb0\u0cbe\u0ca5\u0cae\u0cbf\u0c95 \u0cb6\u0cbe\u0cb2\u0cc6", "operator": "Government", "school_code": "29330819419"}}, {"type": "node", "id": 2587676335, "lat": 16.52278, "lon": 76.75811, "tags": {"amenity": "school", "name": "Government Urdu Higher Primary School Shorapur", "name:kn": "\u0cb8\u0cb0\u0ccd\u0c95\u0cbe\u0cb0\u0cbf \u0cb9\u0cbf\u0cb0\u0cbf\u0caf \u0caa\u0ccd\u0cb0\u0cbe\u0ca5\u0cae\u0cbf\u0c95 \u0c89\u0cb0\u0ccd\u0ca6\u0cc1 \u0cb6\u0cbe\u0cb2\u0cc6 \u0cb8\u0cc1\u0cb0\u0caa\u0cc1\u0cb0", "operator": "Government", "school_code": "29330819418"}}, {"type": "node", "id": 2587676348, "lat": 16.61272, "lon": 76.54264, "tags": {"amenity": "school", "name": "Higher Primary School Yadiyapur", "name:kn": "\u0cb9\u0cbf\u0cb0\u0cbf\u0caf \u0caa\u0ccd\u0cb0\u0cbe\u0ca5\u0cae\u0cbf\u0c95 \u0cb6\u0cbe\u0cb2\u0cc6, \u0caf\u0ca1\u0cbf\u0caf\u0caa\u0cc1\u0cb0", "operator": "Government", "school_code": "29330821401"}}, {"type": "node", "id": 2587676352, "lat": 16.64592, "lon": 76.52913, "tags": {"amenity": "school", "name": "Higher Primary School Girls Kembhavi", "name:kn": "\u0cb9\u0cbf\u0cb0\u0cbf\u0caf \u0caa\u0ccd\u0cb0\u0cbe\u0ca5\u0cae\u0cbf\u0c95 \u0cac\u0cbe\u0cb2\u0c95\u0cbf\u0caf\u0cb0 \u0cb6\u0cbe\u0cb2\u0cc6 \u0c95\u0cc6\u0c82\u0cad\u0cbe\u0cb5\u0cbf", "operator": "Government", "school_code": "29330811701"}}, {"type": "node", "id": 2587676356, "lat": 16.51978, "lon": 76.75891, "tags": {"amenity": "school", "name": "Higher Primary School Janaki Devi", "name:kn": "\u0cb8\u0cb0\u0ccd\u0c95\u0cbe\u0cb0\u0cbf \u0cb9\u0cbf\u0cb0\u0cbf\u0caf \u0caa\u0ccd\u0cb0\u0cbe\u0ca5\u0cae\u0cbf\u0c95 \u0cb6\u0cbe\u0cb2\u0cc6", "operator": "Government", "school_code": "29330819421"}}, {"type": "node", "id": 2587676357, "lat": 16.53516, "lon": 76.66883, "tags": {"amenity": "school", "name": "Higher Primary School Sagarnadu", "name:kn": "\u0cb8\u0cb0\u0ccd\u0c95\u0cbe\u0cb0\u0cbf \u0cb9\u0cbf\u0cb0\u0cbf\u0caf \u0caa\u0ccd\u0cb0\u0cbe\u0ca5\u0cae\u0cbf\u0c95 \u0cb6\u0cbe\u0cb2\u0cc6 \u0cb8\u0cbe\u0c97\u0cb0\u0ca8\u0cbe\u0ca1\u0cc1", "operator": "Government", "school_code": "29330817403"}}, {"type": "node", "id": 2587676359, "lat": 16.64779, "lon": 76.53251, "tags": {"amenity": "school", "name": "Higher Primary School Urdu Kembhavi", "name:kn": "\u0cb9\u0cbf\u0cb0\u0cbf\u0caf \u0caa\u0ccd\u0cb0\u0cbe\u0ca5\u0cae\u0cbf\u0c95 \u0c89\u0cb0\u0ccd\u0ca6\u0cc1 \u0cb6\u0cbe\u0cb2\u0cc6 \u0c95\u0cc6\u0c82\u0cad\u0cbe\u0cb5\u0cbf", "operator": "Government", "school_code": "29330811705"}}, {"type": "node", "id": 2587676369, "lat": 16.7527, "lon": 76.8049, "tags": {"amenity": "school", "name": "Jawahar Navodaya HPS & HS Hotapet", "name:kn": "\u0c9c\u0cb5\u0cb9\u0cb0 \u0ca8\u0cb5\u0ccb\u0ca6\u0caf \u0cb6\u0cbe\u0cb2\u0cc6", "operator": "Government", "school_code": "29330714608"}}, {"type": "node", "id": 2587676374, "lat": 16.64618, "lon": 76.52873, "tags": {"amenity": "school", "name": "Kalyananadu Higher Primary School Kembhavi", "name:kn": "\u0c95\u0cb2\u0ccd\u0caf\u0cbe\u0ca3\u0ca8\u0cbe\u0ca1\u0cc1 \u0cb9\u0cbf\u0cb0\u0cbf\u0caf \u0caa\u0ccd\u0cb0\u0cbe\u0ca5\u0cae\u0cbf\u0c95 \u0cb6\u0cbe\u0cb2\u0cc6", "operator": "Government", "school_code": "29330811710"}}, {"type": "node", "id": 2587676375, "lat": 16.73415, "lon": 76.75049, "tags": {"addr:place": "Gogipet", "amenity": "school", "name": "Karmayogi Lower Primary School", "name:kn": "\u0c95\u0cb0\u0ccd\u0cae\u0caf\u0ccb\u0c97\u0cbf \u0c95\u0cbf\u0cb0\u0cbf\u0caf \u0caa\u0ccd\u0cb0\u0cbe\u0ca5\u0cae\u0cbf\u0c95 \u0cb6\u0cbe\u0cb2\u0cc6", "operator": "Private"}}, {"type": "node", "id": 2587676380, "lat": 16.7262, "lon": 76.79887, "tags": {"amenity": "school", "name": "Krishna English High School, Bhimarayana Gudi", "name:kn": "\u0c85\u0c82\u0c97\u0ccd\u0cb2 \u0caa\u0ccd\u0cb0\u0ccc\u0ca1\u0cb6\u0cbe\u0cb2\u0cc6 \u0cad\u0cc0\u0cae\u0cb0\u0cbe\u0caf\u0ca8 \u0c97\u0cc1\u0ca1\u0cbf", "operator": "Government", "school_code": "29330702106"}}, {"type": "node", "id": 2587676381, "lat": 16.72622, "lon": 76.79893, "tags": {"amenity": "school", "name": "Krishna English Medium High School, Bhimarayana Gudi", "operator": "Government", "school_code": "29330702102"}}, {"type": "node", "id": 2587676385, "lat": 16.60076, "lon": 76.68351, "tags": {"amenity": "school", "name": "Lower Primary School, Anjaneya Camp", "name:kn": "\u0cb8\u0cb0\u0ccd\u0c95\u0cbe\u0cb0\u0cbf \u0c95\u0cbf\u0cb0\u0cbf\u0caf \u0caa\u0ccd\u0cb0\u0cbe\u0ca5\u0cae\u0cbf\u0c95 \u0cb6\u0cbe\u0cb2\u0cc6", "operator": "Government", "school_code": "29330814702"}}, {"type": "node", "id": 2587676386, "lat": 16.41736, "lon": 76.706, "tags": {"amenity": "school", "name": "Lower Primary School Arallalli Cross", "name:kn": "\u0cb8\u0cb0\u0ccd\u0c95\u0cbe\u0cb0\u0cbf \u0c95\u0cbf\u0cb0\u0cbf\u0caf \u0caa\u0ccd\u0cb0\u0cbe\u0ca5\u0cae\u0cbf\u0c95 \u0cb6\u0cbe\u0cb2\u0cc6 \u0c85\u0cb0\u0cb3\u0cb9\u0cb3\u0ccd\u0cb3\u0cbf \u0c85\u0ca1\u0ccd\u0ca1\u0cb0\u0cb8\u0ccd\u0ca4\u0cc6", "operator": "Government", "school_code": "29330801002", "taluk": "Shorapur"}}, {"type": "node", "id": 2587676387, "lat": 16.40175, "lon": 76.53948, "tags": {"amenity": "school", "name": "Lower Primary School Arya Shankar Doddi Kakkera", "name:kn": "\u0c95\u0cbf\u0cb0\u0cbf\u0caf \u0caa\u0ccd\u0cb0\u0cbe\u0ca5\u0cae\u0cbf\u0c95 \u0cb6\u0cbe\u0cb2\u0cc6", "operator": "Government", "school_code": "29330810822", "taluk": "Shorapur"}}, {"type": "node", "id": 2587676389, "lat": 16.64719, "lon": 76.71883, "tags": {"amenity": "school", "name": "Lower Primary School", "name:kn": "\u0c95\u0cbf\u0cb0\u0cbf\u0caf \u0caa\u0ccd\u0cb0\u0cbe\u0ca5\u0cae\u0cbf\u0c95 \u0cb6\u0cbe\u0cb2\u0cc6", "operator": "Government", "school_code": "29330706005"}}, {"type": "node", "id": 2587676390, "lat": 16.44665, "lon": 76.63892, "tags": {"amenity": "school", "name": "Lower Primary School Bailmaddi Camp", "name:kn": "\u0c95\u0cbf\u0cb0\u0cbf\u0caf \u0caa\u0ccd\u0cb0\u0cbe\u0ca5\u0cae\u0cbf\u0c95 \u0cb6\u0cbe\u0cb2\u0cc6", "operator": "Government", "school_code": "29330805303"}}, {"type": "node", "id": 2587676391, "lat": 16.55125, "lon": 76.64826, "tags": {"amenity": "school", "name": "Lower Primary School Basava Camp", "name:kn": "\u0c95\u0cbf\u0cb0\u0cbf\u0caf \u0caa\u0ccd\u0cb0\u0cbe\u0ca5\u0cae\u0cbf\u0c95 \u0cb6\u0cbe\u0cb2\u0cc6", "operator": "Government", "school_code": "29330817406"}}, {"type": "node", "id": 2587676394, "lat": 16.45788, "lon": 76.63164, "tags": {"amenity": "school", "name": "Lower Primary School Eshwar Camp Devatkal", "name:kn": "\u0c95\u0cbf\u0cb0\u0cbf\u0caf \u0caa\u0ccd\u0cb0\u0cbe\u0ca5\u0cae\u0cbf\u0c95 \u0cb6\u0cbe\u0cb2\u0cc6", "operator": "Government", "school_code": "29330805304"}}, {"type": "node", "id": 2587676395, "lat": 16.43363, "lon": 76.72824, "tags": {"amenity": "school", "name": "Lower Primary School Harijanwad Devapur", "name:kn": "\u0cb8\u0cb0\u0ccd\u0c95\u0cbe\u0cb0\u0cbf \u0c95\u0cbf\u0cb0\u0cbf\u0caf \u0caa\u0ccd\u0cb0\u0cbe\u0ca5\u0cae\u0cbf\u0c95 \u0cb6\u0cbe\u0cb2\u0cc6 \u0ca6\u0cc6\u0cb5\u0cbe\u0caa\u0cc1\u0cb0", "operator": "Government", "school_code": "29330805102"}}, {"type": "node", "id": 2587676397, "lat": 16.46582, "lon": 76.5943, "tags": {"amenity": "school", "name": "Lower Primary School Hebbal (b) Camp", "name:kn": "\u0cb8\u0cb0\u0ccd\u0c95\u0cbe\u0cb0\u0cbf \u0c95\u0cbf\u0cb0\u0cbf\u0caf \u0caa\u0ccd\u0cb0\u0cbe\u0ca5\u0cae\u0cbf\u0c95 \u0cb6\u0cbe\u0cb2\u0cc6", "operator": "Government", "school_code": "29330808102"}}, {"type": "node", "id": 2587676400, "lat": 16.55272, "lon": 76.61158, "tags": {"amenity": "school", "name": "Lower Primary School Kannelli Gudisalu", "name:kn": "\u0cb8\u0cb0\u0ccd\u0c95\u0cbe\u0cb0\u0cbf \u0c95\u0cbf\u0cb0\u0cbf\u0caf \u0caa\u0ccd\u0cb0\u0cbe\u0ca5\u0cae\u0cbf\u0c95 \u0cb6\u0cbe\u0cb2\u0cc6 \u0c95\u0ca8\u0ccd\u0ca8\u0cb3\u0ccd\u0cb3\u0cbf", "operator": "Government", "school_code": "29330811103"}}, {"type": "node", "id": 2587676401, "lat": 16.41988, "lon": 76.61056, "tags": {"amenity": "school", "name": "Lower Primary School Karimaniya Doddi", "name:kn": "\u0c95\u0cbf\u0cb0\u0cbf\u0caf \u0caa\u0ccd\u0cb0\u0cbe\u0ca5\u0cae\u0cbf\u0c95 \u0cb6\u0cbe\u0cb2\u0cc6", "operator": "Government", "school_code": "29330810821", "taluk": "Shorapur"}}, {"type": "node", "id": 2587676404, "lat": 16.60291, "lon": 76.71268, "tags": {"amenity": "school", "name": "Lower Primary School Machgundal Doddi", "name:kn": "\u0c95\u0cbf\u0cb0\u0cbf\u0caf \u0caa\u0ccd\u0cb0\u0cbe\u0ca5\u0cae\u0cbf\u0c95 \u0cb6\u0cbe\u0cb2\u0cc6", "operator": "Government", "school_code": "29330814103"}}, {"type": "node", "id": 2587676407, "lat": 16.52362, "lon": 76.70712, "tags": {"amenity": "school", "name": "Lower Primary School Padakoti", "name:kn": "\u0c95\u0cbf\u0cb0\u0cbf\u0caf \u0caa\u0ccd\u0cb0\u0cbe\u0ca5\u0cae\u0cbf\u0c95 \u0cb6\u0cbe\u0cb2\u0cc6", "operator": "Government", "school_code": "29330821103"}}, {"type": "node", "id": 2587676412, "lat": 16.39168, "lon": 76.59028, "tags": {"amenity": "school", "name": "Lower Primary School Somanath Gudi Kakkera", "name:kn": "\u0c95\u0cbf\u0cb0\u0cbf\u0caf \u0caa\u0ccd\u0cb0\u0cbe\u0ca5\u0cae\u0cbf\u0c95 \u0cb6\u0cbe\u0cb2\u0cc6", "operator": "Government", "school_code": "29330810809", "taluk": "Shorapur"}}, {"type": "node", "id": 2587676413, "lat": 16.65132, "lon": 76.53527, "tags": {"amenity": "school", "name": "LPS Talageri Kembhavi", "name:kn": "\u0c95\u0cbf\u0cb0\u0cbf\u0caf \u0caa\u0ccd\u0cb0\u0cbe\u0ca5\u0cae\u0cbf\u0c95 \u0cb6\u0cbe\u0cb2\u0cc6", "operator": "Government", "school_code": "29330811716"}}, {"type": "node", "id": 2587676415, "lat": 16.43346, "lon": 76.72658, "tags": {"amenity": "school", "name": "Lower Primary School Urdu Devapur", "name:kn": "\u0c95\u0cbf\u0cb0\u0cbf\u0caf \u0caa\u0ccd\u0cb0\u0cbe\u0ca5\u0cae\u0cbf\u0c95 \u0c89\u0cb0\u0ccd\u0ca6\u0cc1 \u0cb6\u0cbe\u0cb2\u0cc6 \u0ca6\u0cc6\u0cb5\u0cbe\u0caa\u0cc1\u0cb0", "operator": "Government", "school_code": "29330805103"}}, {"type": "node", "id": 2587676416, "lat": 16.40091, "lon": 76.49353, "tags": {"amenity": "school", "name": "Lower Primary Urdu School", "name:kn": "\u0c95\u0cbf\u0cb0\u0cbf\u0caf \u0caa\u0ccd\u0cb0\u0cbe\u0ca5\u0cae\u0cbf\u0c95 \u0c89\u0cb0\u0ccd\u0ca6\u0cc1 \u0cb6\u0cbe\u0cb2\u0cc6, \u0ca6\u0ccd\u0caf\u0cbe\u0cae\u0ca8\u0cbe\u0cb3", "operator": "Government", "school_code": "29330805602", "taluk": "Shorapur"}}, {"type": "node", "id": 2587676417, "lat": 16.66961, "lon": 76.76676, "tags": {"amenity": "school", "name": "LPS Urdu Nagnatagi", "name:kn": "\u0c95\u0cbf\u0cb0\u0cbf\u0caf \u0caa\u0ccd\u0cb0\u0cbe\u0ca5\u0cae\u0cbf\u0c95 \u0c89\u0cb0\u0ccd\u0ca6\u0cc1 \u0cb6\u0cbe\u0cb2\u0cc6", "operator": "Government", "school_code": "29330714705"}}, {"type": "node", "id": 2587676418, "lat": 16.45473, "lon": 76.60063, "tags": {"amenity": "school", "name": "Lower Primary School Valmiki Nagar Siddapur(B) Tq Sh", "name:kn": "\u0c95\u0cbf\u0cb0\u0cbf\u0caf \u0caa\u0ccd\u0cb0\u0cbe\u0ca5\u0cae\u0cbf\u0c95 \u0cb6\u0cbe\u0cb2\u0cc6", "operator": "Government", "school_code": "29330819702"}}, {"type": "node", "id": 2587676419, "lat": 16.72623, "lon": 76.74541, "tags": {"amenity": "school", "name": "LPS Valmiki Unaided Gogi", "name:kn": "\u0c95\u0cbf\u0cb0\u0cbf\u0caf \u0caa\u0ccd\u0cb0\u0cbe\u0ca5\u0cae\u0cbf\u0c95 \u0cb6\u0cbe\u0cb2\u0cc6", "operator": "Government", "school_code": "29330704013"}}, {"type": "node", "id": 2587676430, "lat": 16.53173, "lon": 76.7692, "tags": {"amenity": "school", "name": "Litle Flower Lower Primary School Rangampet", "name:kn": "\u0c95\u0cbf\u0cb0\u0cbf\u0caf \u0caa\u0ccd\u0cb0\u0cbe\u0ca5\u0cae\u0cbf\u0c95 \u0cb6\u0cbe\u0cb2\u0cc6", "operator": "Government", "school_code": "29330818315"}}, {"type": "node", "id": 2587676450, "lat": 16.72533, "lon": 76.80033, "tags": {"amenity": "school", "name": "M. Basaweshwara High School, Bhimarayana Gudi", "name:kn": "\u0cac\u0cb8\u0cb5\u0cc7\u0cb6\u0ccd\u0cb5\u0cb0 \u0caa\u0ccd\u0cb0\u0ccc\u0ca1\u0cb6\u0cbe\u0cb2\u0cc6", "operator": "Government", "school_code": "29330702107"}}, {"type": "node", "id": 2587676459, "lat": 16.64786, "lon": 76.53231, "tags": {"amenity": "school", "name": "MPS Kembhavi", "name:kn": "\u0cae\u0cbe\u0ca6\u0cb0\u0cbf \u0caa\u0ccd\u0cb0\u0cbe\u0ca5\u0cae\u0cbf\u0c95 \u0cb6\u0cbe\u0cb2\u0cc6 \u0c95\u0cc6\u0c82\u0cad\u0cbe\u0cb5\u0cbf", "operator": "Government", "school_code": "29330811702"}}, {"type": "node", "id": 2587676463, "lat": 16.53293, "lon": 76.78594, "tags": {"amenity": "school", "name": "Madarsa Arbia Iqra D. Uloom H.Pur", "operator": "Government", "school_code": "29330818319"}}, {"type": "node", "id": 2587676467, "lat": 16.53405, "lon": 76.7677, "tags": {"amenity": "school", "name": "Madras Arbiya Madinatul Uloom R.Pet", "operator": "Government", "school_code": "29330818317"}}, {"type": "node", "id": 2587676471, "lat": 16.53208, "lon": 76.76707, "tags": {"amenity": "school", "name": "Madras Arbiya Tayabatul Banat R.Pet", "operator": "Government", "school_code": "29330818318"}}, {"type": "node", "id": 2587676475, "lat": 16.50609, "lon": 76.78008, "tags": {"amenity": "school", "name": "Maharishi Valamiki High School", "name:kn": "\u0cae\u0cb9\u0cb0\u0ccd\u0cb7\u0cbf \u0cb5\u0cbe\u0cb2\u0ccd\u0cae\u0cbf\u0c95\u0cbf \u0caa\u0ccd\u0cb0\u0ccc\u0ca1\u0cb6\u0cbe\u0cb2\u0cc6", "operator": "Government", "school_code": "29330818605"}}, {"type": "node", "id": 2587676513, "lat": 16.72884, "lon": 76.79596, "tags": {"amenity": "school", "name": "Nivedita High School, Bhimarayana Gudiudi", "name:kn": "\u0ca8\u0cbf\u0cb5\u0cc7\u0ca6\u0cbf\u0ca4\u0cbe \u0caa\u0ccd\u0cb0\u0ccc\u0ca1\u0cb6\u0cbe\u0cb2\u0cc6 \u0cad\u0cc0\u0cae\u0cb0\u0cbe\u0caf\u0ca8 \u0c97\u0cc1\u0ca1\u0cbf", "operator": "Government", "school_code": "29330702108"}}, {"type": "node", "id": 2587676517, "lat": 16.72889, "lon": 76.79541, "tags": {"amenity": "school", "name": "Nivedita Lower Primary School Bhimarayana Gudi", "name:kn": "\u0ca8\u0cbf\u0cb5\u0cc7\u0ca6\u0cbf\u0ca4\u0cbe \u0c95\u0cbf\u0cb0\u0cbf\u0caf \u0caa\u0ccd\u0cb0\u0cbe\u0ca5\u0cae\u0cbf\u0c95 \u0cb6\u0cbe\u0cb2\u0cc6", "operator": "Government", "school_code": "29330702103"}}, {"type": "node", "id": 2587676542, "lat": 16.50663, "lon": 76.7561, "tags": {"amenity": "school", "name": "Prerna Lower Primary School Kumbarpet Shorapur", "name:kn": "\u0caa\u0ccd\u0cb0\u0cc7\u0cb0\u0ca3 \u0c95\u0cbf\u0cb0\u0cbf\u0caf \u0caa\u0ccd\u0cb0\u0cbe\u0ca5\u0cae\u0cbf\u0c95 \u0cb6\u0cbe\u0cb2\u0cc6 \u0c95\u0cc1\u0c82\u0cac\u0cbe\u0cb0\u0caa\u0cc7\u0c9f\u0cc6", "operator": "Government", "school_code": "29330822502"}}, {"type": "node", "id": 2587676547, "lat": 16.52602, "lon": 76.76161, "tags": {"amenity": "school", "name": "Priayadarshini Higher Primary School Gonalkeri", "name:kn": "\u0caa\u0ccd\u0cb0\u0cbf\u0caf\u0ca6\u0cb0\u0ccd\u0cb6\u0cbf\u0ca8\u0cc0 \u0cb9\u0cbf\u0cb0\u0cbf\u0caf \u0caa\u0ccd\u0cb0\u0cbe\u0ca5\u0cae\u0cbf\u0c95 \u0cb6\u0cbe\u0cb2\u0cc6", "operator": "Government", "school_code": "29330819430"}}, {"type": "node", "id": 2587676552, "lat": 16.5305, "lon": 76.76934, "tags": {"amenity": "school", "name": "Priyadarshini HS Rangampet", "name:kn": "\u0caa\u0ccd\u0cb0\u0cbf\u0caf\u0ca6\u0cb0\u0ccd\u0cb6\u0cbf\u0ca8\u0cc0 \u0caa\u0ccd\u0cb0\u0ccc\u0ca1\u0cb6\u0cbe\u0cb2\u0cc6", "operator": "Government", "school_code": "29330818320"}}, {"type": "node", "id": 2587676569, "lat": 16.7345921, "lon": 76.7470273, "tags": {"addr:place": "Gogipet", "amenity": "school", "name": "Rajeshwari Lower Primary School Gogi(P)", "name:kn": "\u0cb0\u0cbe\u0c9c\u0cc7\u0cb6\u0ccd\u0caa\u0cb0\u0cbf \u0c95\u0cbf\u0cb0\u0cbf\u0caf \u0caa\u0ccd\u0cb0\u0cbe\u0ca5\u0cae\u0cbf\u0c95 \u0cb6\u0cbe\u0cb2\u0cc6", "operator": "Government"}}, {"type": "node", "id": 2587676583, "lat": 16.53516, "lon": 76.67033, "tags": {"amenity": "school", "name": "Sagaranadu HS Peta Ammapur", "name:kn": "\u0cb8\u0cbe\u0c97\u0cb0\u0ca8\u0cbe\u0ca1\u0cc1 \u0caa\u0ccd\u0cb0\u0ccc\u0ca1\u0cb6\u0cbe\u0cb2\u0cc6", "operator": "Government", "school_code": "29330817407"}}, {"type": "node", "id": 2587676609, "lat": 16.51949, "lon": 76.7598, "tags": {"amenity": "school", "name": "Sarvodaya High School, Shorapur", "name:kn": "\u0cb8\u0cb0\u0ccd\u0cb5\u0ccb\u0ca6\u0caf \u0caa\u0ccd\u0cb0\u0ccc\u0ca1 \u0cb6\u0cbe\u0cb2\u0cc6", "operator": "Government", "school_code": "29330819440"}}, {"type": "node", "id": 2587676642, "lat": 16.7338657, "lon": 76.7504546, "tags": {"addr:place": "Gogipet", "amenity": "school", "name": "Sharanappa Manusmaranarta High School", "name:kn": "\u0cb6\u0cb0\u0ca3\u0caa\u0ccd\u0caa \u0cae\u0ca8\u0cc1\u0cb8\u0ccd\u0cae\u0cb0\u0ca3\u0cbe\u0cb0\u0ccd\u0ca5 \u0caa\u0ccd\u0cb0\u0ccc\u0ca1 \u0cb6\u0cbe\u0cb2\u0cc6", "operator": "Government"}}, {"type": "node", "id": 2587676646, "lat": 16.5246, "lon": 76.76019, "tags": {"amenity": "school", "name": "Shetti Compitetion Lower Primary School Shorapur", "operator": "Government", "school_code": "29330819447"}}, {"type": "node", "id": 2587676656, "lat": 16.7376291, "lon": 76.7449789, "tags": {"addr:place": "Gogipet", "amenity": "school", "name": "Shivayogi Lower Primary School", "name:kn": "\u0cb6\u0cbf\u0cb5\u0caf\u0ccb\u0c97\u0cbf \u0c95\u0cbf\u0cb0\u0cbf\u0caf \u0caa\u0ccd\u0cb0\u0cbe\u0ca5\u0cae\u0cbf\u0c95 \u0cb6\u0cbe\u0cb2\u0cc6", "operator": "Private"}}, {"type": "node", "id": 2587676659, "lat": 16.72768, "lon": 76.74875, "tags": {"amenity": "school", "name": "Siddarta Higher Primary School Gogi Kona", "name:kn": "\u0cb8\u0cbf\u0ca6\u0ccd\u0ca6\u0cbe\u0cb0\u0ccd\u0ca5 \u0cb9\u0cbf\u0cb0\u0cbf\u0caf \u0caa\u0ccd\u0cb0\u0cbe\u0ca5\u0cae\u0cbf\u0c95 \u0cb6\u0cbe\u0cb2\u0cc6", "operator": "Government", "school_code": "29330704011"}}, {"type": "node", "id": 2587676664, "lat": 16.571, "lon": 76.71824, "tags": {"amenity": "school", "name": "Sidhartha Devargonal", "operator": "Government", "school_code": "29330805402"}}, {"type": "node", "id": 2587676668, "lat": 16.50698, "lon": 76.78322, "tags": {"amenity": "school", "name": "Smt Lokamba Higher Primary School Rukmapur", "name:kn": "\u0cb6\u0ccd\u0cb0\u0cc0\u0cae\u0ca4\u0cbf \u0cb2\u0ccb\u0c95\u0cbe\u0c82\u0cac \u0cb9\u0cbf\u0cb0\u0cbf\u0caf \u0caa\u0ccd\u0cb0\u0cbe\u0ca5\u0cae\u0cbf\u0c95 \u0cb6\u0cbe\u0cb2\u0cc6", "operator": "Government", "school_code": "29330818602"}}, {"type": "node", "id": 2587676677, "lat": 16.5307, "lon": 76.77497, "tags": {"amenity": "school", "name": "Smt. N.H.Yarsam Lower Primary School Timmapur", "operator": "Government", "school_code": "29330823108"}}, {"type": "node", "id": 2587676691, "lat": 16.52259, "lon": 76.75919, "tags": {"amenity": "school", "name": "Sri Gayatri High School", "name:kn": "\u0cb6\u0ccd\u0cb0\u0cc0 \u0c97\u0cbe\u0caf\u0ca4\u0ccd\u0cb0\u0cc0 \u0caa\u0ccd\u0cb0\u0ccc\u0ca1\u0cb6\u0cbe\u0cb2\u0cc6", "operator": "Government", "school_code": "29330819437"}}, {"type": "node", "id": 2587676701, "lat": 16.53089, "lon": 76.77588, "tags": {"amenity": "school", "name": "Sri Jagadguru Higher Primary School Thimmapura", "name:kn": "\u0cb6\u0ccd\u0cb0\u0cc0 \u0c9c\u0c97\u0ca6\u0ccd\u0c97\u0cc1\u0cb0\u0cc1 \u0cb9\u0cbf\u0cb0\u0cbf\u0caf \u0caa\u0ccd\u0cb0\u0cbe\u0ca5\u0cae\u0cbf\u0c95 \u0cb6\u0cbe\u0cb2\u0cc6", "operator": "Government", "school_code": "29330823107"}}, {"type": "node", "id": 2587676710, "lat": 16.38495, "lon": 76.5778, "tags": {"amenity": "school", "name": "Sri S. B. Higher Primary School Kakkera", "name:kn": "\u0cb9\u0cbf\u0cb0\u0cbf\u0caf \u0caa\u0ccd\u0cb0\u0cbe\u0ca5\u0cae\u0cbf\u0c95 \u0cb6\u0cbe\u0cb2\u0cc6", "operator": "Government", "school_code": "29330810807", "taluk": "Shorapur"}}, {"type": "node", "id": 2587676715, "lat": 16.3845, "lon": 76.57629, "tags": {"amenity": "school", "name": "Sri Sai Chethan Lower Primary School Kakkera", "name:kn": "\u0cb6\u0ccd\u0cb0\u0cc0 \u0cb8\u0cc8 \u0c9a\u0cc7\u0ca4\u0ca8 \u0cb8\u0cb0\u0ccd\u0c95\u0cbe\u0cb0\u0cbf \u0c95\u0cbf\u0cb0\u0cbf\u0caf \u0caa\u0ccd\u0cb0\u0cbe\u0ca5\u0cae\u0cbf\u0c95 \u0cb6\u0cbe\u0cb2\u0cc6", "operator": "Government", "school_code": "29330810832", "taluk": "Shorapur"}}, {"type": "node", "id": 2587676719, "lat": 16.38574, "lon": 76.57654, "tags": {"amenity": "school", "name": "Sri Sangameshwar Lower Primary School UKP Camp", "name:kn": "\u0cb6\u0ccd\u0cb0\u0cc0 \u0cb8\u0c82\u0c97\u0cae\u0cc7\u0cb6\u0ccd\u0cb5\u0cb0 \u0c95\u0cbf\u0cb0\u0cbf\u0caf \u0caa\u0ccd\u0cb0\u0cbe\u0ca5\u0cae\u0cbf\u0c95 \u0cb6\u0cbe\u0cb2\u0cc6", "operator": "Government", "school_code": "29330810834", "taluk": "Shorapur"}}, {"type": "node", "id": 2587676724, "lat": 16.38962, "lon": 76.59066, "tags": {"amenity": "school", "name": "Sri Sharan Basaveswar Higher Primary School Kakkera", "name:kn": "\u0cb6\u0ccd\u0cb0\u0cc0 \u0cb6\u0cb0\u0ca3 \u0cac\u0cb8\u0cb5\u0cc7\u0cb6\u0ccd\u0cb5\u0cb0 \u0cb9\u0cbf\u0cb0\u0cbf\u0caf \u0caa\u0ccd\u0cb0\u0cbe\u0ca5\u0cae\u0cbf\u0c95 \u0cb6\u0cbe\u0cb2\u0cc6", "operator": "Government", "school_code": "29330810833", "taluk": "Shorapur"}}, {"type": "node", "id": 2587676728, "lat": 16.64162, "lon": 76.5262, "tags": {"amenity": "school", "name": "Sri Vidyalakshmi Lower Primary School Kembhavi", "name:kn": "\u0cb6\u0ccd\u0cb0\u0cc0 \u0cb5\u0cbf\u0ca6\u0ccd\u0caf\u0cbe\u0cb2\u0c95\u0ccd\u0cb7\u0ccd\u0cae\u0cbf \u0cb9\u0cbf\u0cb0\u0cbf\u0caf \u0caa\u0ccd\u0cb0\u0cbe\u0ca5\u0cae\u0cbf\u0c95 \u0cb6\u0cbe\u0cb2\u0cc6", "operator": "Government", "school_code": "29330811724"}}, {"type": "node", "id": 2587676747, "lat": 16.52924, "lon": 76.76888, "tags": {"amenity": "school", "name": "Sudeep Shikshana Samste R.Pet", "operator": "Government", "school_code": "29330818323"}}, {"type": "node", "id": 2587676795, "lat": 16.5295, "lon": 76.76745, "tags": {"amenity": "school", "name": "Swami Vivekananda Kanya HS R.Pet", "name:kn": "\u0cb8\u0ccd\u0cb5\u0cbe\u0cae\u0cbf \u0cb5\u0cbf\u0cb5\u0cc7\u0c95\u0cbe\u0ca8\u0ce6\u0ca6 \u0caa\u0ccd\u0cb0\u0ccc\u0ca1\u0cb6\u0cbe\u0cb2\u0cc6", "operator": "Government", "school_code": "29330818321"}}, {"type": "node", "id": 2587676863, "lat": 16.73642, "lon": 76.74493, "tags": {"addr:place": "Gogipet", "amenity": "school", "name": "Vivekananda Lower Primary School", "name:kn": "\u0cb5\u0cbf\u0cb5\u0cc7\u0c95\u0cbe\u0ca8\u0c82\u0ca6 \u0cb9\u0cbf\u0cb0\u0cbf\u0caf \u0caa\u0ccd\u0cb0\u0cbe\u0ca5\u0cae\u0cbf\u0c95 \u0cb6\u0cbe\u0cb2\u0cc6", "operator": "Private"}}, {"type": "node", "id": 2587676875, "lat": 16.55389, "lon": 76.67436, "tags": {"amenity": "school", "name": "Urdu Jaibenchi", "name:kn": "\u0c89\u0cb0\u0ccd\u0ca6\u0cc1 \u0cb6\u0cbe\u0cb2\u0cc6, \u0c9c\u0cbe\u0cb2\u0cbf\u0cac\u0cc6\u0c82\u0c9a\u0cbf", "operator": "Government", "school_code": "29330809902"}}, {"type": "node", "id": 2587676880, "lat": 16.53318, "lon": 76.78295, "tags": {"amenity": "school", "name": "V.C. Sri Kanakadas Lower Primary School D.Gudda", "operator": "Government", "school_code": "29330805703"}}, {"type": "node", "id": 2587676888, "lat": 16.51925, "lon": 76.75992, "tags": {"amenity": "school", "name": "Ves Eng. Med School", "operator": "Government", "school_code": "29330819429"}}, {"type": "node", "id": 2587676891, "lat": 16.52077, "lon": 76.76028, "tags": {"amenity": "school", "name": "Vidya Niketana HPS Shorapur", "name:kn": "\u0cb5\u0cbf\u0ca6\u0ccd\u0caf\u0cbe\u0ca8\u0cbf\u0c95\u0cc7\u0ca4\u0ca8 \u0cb9\u0cbf\u0cb0\u0cbf\u0caf \u0caa\u0ccd\u0cb0\u0cbe\u0ca5\u0cae\u0cbf\u0c95 \u0cb6\u0cbe\u0cb2\u0cc6", "operator": "Government", "school_code": "29330819443"}}, {"type": "node", "id": 2587676895, "lat": 16.43743, "lon": 76.72532, "tags": {"amenity": "school", "name": "Vishwa Jyothi Lower Primary School Devapur", "name:kn": "\u0cb5\u0cbf\u0cb6\u0ccd\u0cb5 \u0c9c\u0ccd\u0caf\u0ccb\u0ca4\u0cbf \u0c95\u0cbf\u0cb0\u0cbf\u0caf \u0caa\u0ccd\u0cb0\u0cbe\u0ca5\u0cae\u0cbf\u0c95 \u0cb6\u0cbe\u0cb2\u0cc6", "operator": "Government", "school_code": "29330805105"}}, {"type": "node", "id": 2632325999, "lat": 16.6535017, "lon": 76.4261917, "tags": {"amenity": "school", "name": "Government Higher Primary School, Munira Bommanahalli", "name:kn": "\u0cb8\u0cb0\u0ccd\u0c95\u0cbe\u0cb0\u0cbf \u0cae\u0cbe\u0ca6\u0cb0\u0cbf \u0caa\u0ccd\u0cb0\u0cbe\u0ca5\u0cae\u0cbf\u0c95 \u0cb6\u0cbe\u0cb2\u0cc6, \u0cae\u0cc1\u0ca8\u0cc0\u0cb0 \u0cac\u0cca\u0cae\u0ccd\u0cae\u0ca8\u0cb9\u0cb3\u0ccd\u0cb3\u0cbf", "operator": "Government", "taluk": "Shorapur"}}, {"type": "node", "id": 2632326023, "lat": 16.6073496, "lon": 76.426963, "tags": {"amenity": "school", "name": "Government Higher Primary School B.Talli", "name:kn": "\u0cb8\u0cb0\u0ccd\u0c95\u0cbe\u0cb0\u0cbf \u0cb9\u0cbf\u0cb0\u0cbf\u0caf \u0caa\u0ccd\u0cb0\u0cbe\u0ca5\u0cae\u0cbf\u0c95 \u0cb6\u0cbe\u0cb2\u0cc6", "operator": "Government"}}, {"type": "node", "id": 3374353232, "lat": 16.7365156, "lon": 76.746334, "tags": {"addr:place": "Gogipet", "amenity": "school", "name": "Higher Primary School", "name:kn": "\u0cb9\u0cbf\u0cb0\u0cbf\u0caf \u0caa\u0ccd\u0cb0\u0cbe\u0ca5\u0cae\u0cbf\u0c95 \u0cb6\u0cbe\u0cb2\u0cc6", "operator": "Government"}}, {"type": "node", "id": 5404027511, "lat": 16.6629455, "lon": 76.7363633}, {"type": "node", "id": 5404027512, "lat": 16.6629445, "lon": 76.7364495}, {"type": "node", "id": 5404027513, "lat": 16.6631105, "lon": 76.7364517}, {"type": "node", "id": 5404027514, "lat": 16.6631116, "lon": 76.7363656}, {"type": "node", "id": 6170159819, "lat": 16.6231722, "lon": 76.8036358}, {"type": "node", "id": 6170159820, "lat": 16.6230997, "lon": 76.8038674}, {"type": "node", "id": 6170159821, "lat": 16.6233475, "lon": 76.8039519}, {"type": "node", "id": 6170159822, "lat": 16.62342, "lon": 76.8037203}, {"type": "node", "id": 6170159842, "lat": 16.6231358, "lon": 76.7975207}, {"type": "node", "id": 6170159843, "lat": 16.6231133, "lon": 76.7976011}, {"type": "node", "id": 6170159844, "lat": 16.623352, "lon": 76.7976739}, {"type": "node", "id": 6170159845, "lat": 16.6233745, "lon": 76.7975934}, {"type": "node", "id": 6170159846, "lat": 16.6247304, "lon": 76.7964943}, {"type": "node", "id": 6170159847, "lat": 16.6248247, "lon": 76.7969615}, {"type": "node", "id": 6170159848, "lat": 16.624912, "lon": 76.7969423}, {"type": "node", "id": 6170159849, "lat": 16.6248292, "lon": 76.7965324}, {"type": "node", "id": 6170159850, "lat": 16.6248176, "lon": 76.7964751}, {"type": "node", "id": 6170159851, "lat": 16.6256114, "lon": 76.7958511}, {"type": "node", "id": 6170159852, "lat": 16.6255956, "lon": 76.7959421}, {"type": "node", "id": 6170159853, "lat": 16.6255721, "lon": 76.7959376}, {"type": "node", "id": 6170159854, "lat": 16.6255454, "lon": 76.7960915}, {"type": "node", "id": 6170159855, "lat": 16.6256315, "lon": 76.7961078}, {"type": "node", "id": 6170159856, "lat": 16.6256597, "lon": 76.7959458}, {"type": "node", "id": 6170159857, "lat": 16.6257876, "lon": 76.79597}, {"type": "node", "id": 6170159858, "lat": 16.625802, "lon": 76.7958873}, {"type": "node", "id": 6170159859, "lat": 16.6239669, "lon": 76.7967291}, {"type": "node", "id": 6170159863, "lat": 16.6244312, "lon": 76.7963555}, {"type": "node", "id": 6170159864, "lat": 16.6241064, "lon": 76.7962173}, {"type": "node", "id": 6170159865, "lat": 16.6237324, "lon": 76.7967296}, {"type": "node", "id": 6170159866, "lat": 16.624348, "lon": 76.7967282}, {"type": "node", "id": 6170159867, "lat": 16.6244405, "lon": 76.7963138}, {"type": "way", "id": 560367158, "nodes": [5404027514, 5404027513, 5404027512, 5404027511, 5404027514], "tags": {"amenity": "school", "building": "yes", "name": "Government Lower Primary School Chandrakaladoddi", "name:kn": "\u0cb8\u0cb0\u0ccd\u0c95\u0cbe\u0cb0\u0cbf \u0c95\u0cbf\u0cb0\u0cbf\u0caf \u0caa\u0ccd\u0cb0\u0cbe\u0ca5\u0cae\u0cbf\u0c95 \u0cb6\u0cbe\u0cb2\u0cc6", "operator": "Government", "school_code": "29330706004"}}, {"type": "way", "id": 659011714, "nodes": [6170159822, 6170159821, 6170159820, 6170159819, 6170159822], "tags": {"amenity": "school", "building": "school", "name": "Govt Junior Collage Sagara", "name:kn": "\u0cb8\u0cb0\u0ccd\u0c95\u0cbe\u0cb0\u0cbf \u0caa\u0ca6\u0cb5\u0cbf \u0caa\u0cc2\u0cb0\u0ccd\u0cb5 \u0c95\u0cbe\u0cb2\u0cc7\u0c9c\u0cc1", "operator": "Government", "school_code": "29330711810"}}, {"type": "way", "id": 659011715, "nodes": [6170159845, 6170159844, 6170159843, 6170159842, 6170159845], "tags": {"amenity": "school", "building": "school", "name": "Government Lower Primary School Girls Urdu Sagar", "name:kn": "\u0cb8\u0cb0\u0ccd\u0c95\u0cbe\u0cb0\u0cbf \u0cac\u0cbe\u0cb2\u0c95\u0cbf\u0caf\u0cb0 \u0c95\u0cbf\u0cb0\u0cbf\u0caf \u0caa\u0ccd\u0cb0\u0cbe\u0ca5\u0cae\u0cbf\u0c95 \u0c89\u0cb0\u0ccd\u0ca6\u0cc1 \u0cb6\u0cbe\u0cb2\u0cc6", "operator": "Government", "school_code": "29330711804"}}, {"type": "way", "id": 659011716, "nodes": [6170159850, 6170159849, 6170159848, 6170159847, 6170159846, 6170159850], "tags": {"amenity": "school", "building": "school", "name": "Government Higher Primary School Sagar Urdu", "name:kn": "\u0cb8\u0cb0\u0ccd\u0c95\u0cbe\u0cb0\u0cbf \u0cb9\u0cbf\u0cb0\u0cbf\u0caf \u0caa\u0ccd\u0cb0\u0cbe\u0ca5\u0cae\u0cbf\u0c95 \u0c89\u0cb0\u0ccd\u0ca6\u0cc1 \u0cb6\u0cbe\u0cb2\u0cc6 \u0cb8\u0c97\u0cb0", "operator": "Government", "school_code": "29330711802"}}, {"type": "way", "id": 659011717, "nodes": [6170159858, 6170159857, 6170159856, 6170159855, 6170159854, 6170159853, 6170159852, 6170159851, 6170159858], "tags": {"amenity": "school", "building": "school", "name": "Government Urdu High School Sagar", "name:kn": "\u0cb8\u0cb0\u0ccd\u0c95\u0cbe\u0cb0\u0cbf \u0caa\u0ccd\u0cb0\u0ccc\u0ca1 \u0c89\u0cb0\u0ccd\u0ca6\u0cc1 \u0cb6\u0cbe\u0cb2\u0cc6 \u0cb8\u0c97\u0cb0", "operator": "Government", "school_code": "29330711811"}}, {"type": "way", "id": 659011719, "nodes": [6170159867, 6170159863, 6170159866, 6170159859, 6170159865, 6170159864, 6170159867], "tags": {"amenity": "school", "barrier": "wall", "name": "Government Higher Primary School Girls Sagar", "name:kn": "\u0cb8\u0cb0\u0ccd\u0c95\u0cbe\u0cb0\u0cbf \u0cac\u0cbe\u0cb2\u0c95\u0cbf\u0caf\u0cb0 \u0cb9\u0cbf\u0cb0\u0cbf\u0caf \u0caa\u0ccd\u0cb0\u0cbe\u0ca5\u0cae\u0cbf\u0c95 \u0cb6\u0cbe\u0cb2\u0cc6 \u0cb8\u0c97\u0cb0", "operator": "Government", "school_code": "29330711803"}}]}